{"type":"FeatureCollection","features":[{"type":"Feature","properties":{"average_dip":"(45,,)","catalog_id":"TW_1","catalog_name":"Shyu Taiwan","lower_seis_depth":"(13.76,,)","name":"Shanchiao fault","net_slip_rate":"(1.85,1.09,2.6)","reference":"Shyu et al 2016 modified from Huang et al. (2007)","slip_type":"Normal","upper_seis_depth":"(0.,,)"},"geometry":{"type":"LineString","coordinates":[[121.41848895509531,24.99248225891712],[121.41527171036672,25.000871792123256],[121.4120481623887,25.007500657183453],[121.41199155652647,25.01369816302429],[121.41077186793437,25.018772092222488],[121.41250398161945,25.028274576671553],[121.41589143158551,25.03062556286025],[121.42127691298485,25.04096870351927],[121.42665329101007,25.048417425263963],[121.43144325643134,25.062964194316027],[121.43188932922554,25.0701409385727],[121.4335202748515,25.077421723739906],[121.44099624989816,25.08903841466585],[121.4458175046535,25.09380029714567],[121.45100103451759,25.104637883947923],[121.45968718049659,25.1133794840999],[121.46301657476396,25.11658224880288],[121.46608574584688,25.125569369737807],[121.46871121764165,25.12915978177185],[121.47798496333367,25.135941960285855],[121.48808347653015,25.140381684784753],[121.49304841673747,25.146148830469357],[121.50149764752449,25.14921360933157],[121.51622081029319,25.15824536540409],[121.52481991145392,25.165755177067034],[121.52957703474286,25.166366572748977],[121.53711361947259,25.176232494539036],[121.54868937792419,25.181833956772074],[121.5544861595067,25.186610526445175],[121.5635667349327,25.19548710087475],[121.5697944843462,25.199028540093295],[121.5720082752941,25.198011355539585],[121.57350406169802,25.2034755097746],[121.58163143378312,25.206572859559703],[121.58980815118848,25.208929087864878],[121.59149874992919,25.211727278169736],[121.59956986144705,25.218701565212847],[121.60808741995284,25.22547046047408],[121.61278724787283,25.22768509266411],[121.61928271010787,25.231719910031355],[121.62756384550126,25.235543765019408],[121.63251397212585,25.242834044441793],[121.65226586055918,25.248450938780675],[121.67120299136036,25.253382106242643],[121.67910618451198,25.2576454070374],[121.6913803457734,25.268337001168],[121.69933243143066,25.280839490662085],[121.71590356424815,25.28434285262616],[121.72775958116442,25.290017364050087],[121.73232050712039,25.305759180088252],[121.7376044735031,25.310509919062216],[121.74746904113323,25.31225163594434]]}},{"type":"Feature","properties":{"average_dip":"(25,,)","catalog_id":"TW_2","catalog_name":"Shyu Taiwan","lower_seis_depth":"(5.0,,)","name":"Shuanglienpo structure","net_slip_rate":"(0.25,0.08,0.42)","reference":"Shyu et al 2016","slip_type":"Reverse","upper_seis_depth":"(0.,,)"},"geometry":{"type":"LineString","coordinates":[[121.10878478963691,24.91927865546041],[121.11627989540263,24.92587222136399],[121.12129540950998,24.92986695866127],[121.14712889827086,24.949151826913436],[121.1532746293712,24.953487095669676],[121.16405680025655,24.957131578554154],[121.175588796739,24.95883216392756],[121.18323417776055,24.959279949971418]]}},{"type":"Feature","properties":{"average_dip":"(60,,)","catalog_id":"TW_3","catalog_name":"Shyu Taiwan","lower_seis_depth":"(3.0,,)","name":"Yangmei structure","net_slip_rate":"(0.38,0.13,0.64)","reference":"Shyu et al 2016","slip_type":"Reverse","upper_seis_depth":"(0.,,)"},"geometry":{"type":"LineString","coordinates":[[121.06946013286712,24.8897690944171],[121.07800719634106,24.891515550456866],[121.09096017797332,24.892107101103413],[121.09853111852138,24.89237964012396],[121.11137037563289,24.896772451383644],[121.11993439633584,24.90017074723566],[121.12699974997821,24.90539252101027],[121.1343942185969,24.911888071695607],[121.13966009075955,24.915691556775954],[121.15046883894418,24.9167473726302],[121.15781824808629,24.916435110479135],[121.16533587641324,24.917036296318436],[121.17202026753257,24.919009060404345],[121.17870486957963,24.920981523179137],[121.19074016889259,24.926145917177653],[121.19717522825421,24.92834636444198],[121.20361051430706,24.930546531863374],[121.21146462333081,24.93190658669606],[121.21614232299129,24.93189987731701],[121.22082002094854,24.931893021149268],[121.225484970072,24.92487875863877],[121.23533866794203,24.92364487307564],[121.24569662714958,24.924085160326108],[121.25349907646769,24.923595027437138],[121.26199714010727,24.921466962420954],[121.26821824026632,24.920137298892314]]}},{"type":"Feature","properties":{"average_dip":"(30,,)","catalog_id":"TW_4","catalog_name":"Shyu Taiwan","lower_seis_depth":"(10.0,,)","name":"Hukou fault","net_slip_rate":"(1.16,0.32,2.0)","reference":"Shyu et al 2016","slip_type":"Reverse","upper_seis_depth":"(0.,,)"},"geometry":{"type":"LineString","coordinates":[[121.03467001514736,24.859061442184007],[121.03990566784421,24.869668556741647],[121.04747265475213,24.876904344050995],[121.05612946125271,24.87516751497415],[121.06367906713913,24.876065761978996],[121.07319468940561,24.88193566506654],[121.08025313032611,24.884740385951165],[121.09122857911859,24.88389137299553],[121.09316688718516,24.88541351256881],[121.09910454313263,24.89004549084951],[121.1052836346322,24.892722213904168],[121.1145554231762,24.893575351056725],[121.12434787486154,24.89117871742557],[121.1338376936093,24.8914759247008],[121.14010062619428,24.891622510046986],[121.15114981904577,24.897951315766786],[121.15965553614038,24.903332524722696],[121.16476310153084,24.905355263545882],[121.17804804508826,24.905645763880024],[121.19089438221346,24.906951811307245],[121.1975762015049,24.90740010918035],[121.20575904880792,24.906475050145282],[121.21357235116457,24.907847207402355],[121.22117428092919,24.906755421690995],[121.23054398258276,24.904536311714413],[121.2353090846108,24.905121754065192],[121.24433672083828,24.903674865475654],[121.25268752370737,24.903508622233797],[121.26261432654668,24.9022170038335],[121.26719829870251,24.901848384576052]]}},{"type":"Feature","properties":{"average_dip":"(85,,)","catalog_id":"TW_5","catalog_name":"Shyu Taiwan","lower_seis_depth":"(13.85,,)","name":"Fengshan River strike-slip structure","net_slip_rate":"(3.61,1.2,6.02)","reference":"Shyu et al 2016","slip_type":"Strike-Slip","upper_seis_depth":"(0.,,)"},"geometry":{"type":"LineString","coordinates":[[120.96124557441199,24.895396671573405],[120.97083403504323,24.89083638321918],[120.98052566704219,24.88836662307264],[120.98834117446667,24.88684661346948],[120.99980357007976,24.886371810882608],[121.01466567242508,24.88612945465067],[121.02193411733968,24.885279892140442],[121.0371553893823,24.87869967342992],[121.04747265475213,24.876904344050995],[121.06379647636865,24.869457997022295],[121.0857743031605,24.860702228468433],[121.09379366475348,24.857228016541054],[121.10868530596325,24.850469242207303],[121.11555767101342,24.84718479425173],[121.12628487703822,24.844894867619928],[121.14482547665092,24.84373742730887],[121.14940768845854,24.842782397599063],[121.16237824873211,24.836210286304205],[121.17226766313118,24.831969404881615],[121.1863201237727,24.826106856151906],[121.19256623900667,24.82415037677988],[121.19881215632373,24.822193637189184],[121.20818538695003,24.822085830157206],[121.21422388256143,24.820841626436817],[121.22040923798397,24.820262326605054],[121.22738344492349,24.81825579494163],[121.23664858349369,24.81624533163004],[121.24498062697036,24.816517072307136]]}},{"type":"Feature","properties":{"average_dip":"(45,,)","catalog_id":"TW_6","catalog_name":"Shyu Taiwan","lower_seis_depth":"(10.0,,)","name":"Hsinchu fault","net_slip_rate":"(0.7,0.24,1.17)","reference":"Shyu et al 2016","slip_type":"Reverse","upper_seis_depth":"(0.,,)"},"geometry":{"type":"LineString","coordinates":[[120.92836789535073,24.78835696604403],[120.93942043491407,24.79066396434173],[120.9489159284893,24.791883301751138],[120.95620169564542,24.7943148337609],[120.97049820652921,24.798040548492644],[120.97700778000575,24.80156959723714],[120.9823897983199,24.8021415855089],[120.99377975480414,24.804541776046676],[120.99966265631916,24.803970647040114],[121.01418152863167,24.799057155513925],[121.02668858579608,24.798653931096833],[121.03137565721649,24.798740346247225],[121.03672606527019,24.797796552618316],[121.04822268537139,24.7943167341714]]}},{"type":"Feature","properties":{"average_dip":"(30,,)","catalog_id":"TW_7","catalog_name":"Shyu Taiwan","lower_seis_depth":"(12.86,,)","name":"Hsincheng fault","net_slip_rate":"(1.8,0.6,3.0)","reference":"Shyu et al 2016","slip_type":"Reverse","upper_seis_depth":"(0.,,)"},"geometry":{"type":"LineString","coordinates":[[120.96090101208804,24.745536004766212],[120.97016289307244,24.752762185335204],[120.97619902203118,24.75894172468343],[120.98327731323434,24.761033851593538],[120.99181321856385,24.763505942846912],[121.0108636328893,24.763885985126134],[121.02127438862074,24.767877098179817],[121.02700099679332,24.77196345590917],[121.03671719589046,24.774878580547494],[121.04199487141376,24.779088973822777],[121.04699378240545,24.78298465651532],[121.054907944126,24.785928600970873],[121.05771977529265,24.78725828245951],[121.0644885214333,24.789061522271968],[121.07011168012791,24.79010457435853],[121.07469307213114,24.79010235836965]]}},{"type":"Feature","properties":{"average_dip":"(30,,)","catalog_id":"TW_8","catalog_name":"Shyu Taiwan","lower_seis_depth":"(10.0,,)","name":"Hsinchu frontal structure","net_slip_rate":"(2.8,0.94,4.66)","reference":"Shyu et al 2016","slip_type":"Reverse","upper_seis_depth":"(0.,,)"},"geometry":{"type":"LineString","coordinates":[[120.86640001958497,24.716225719255267],[120.8674483689818,24.721199136806128],[120.8733542817801,24.727406478595004],[120.87745005316987,24.7294416485474],[120.8821295579792,24.733401997569672],[120.89149275142928,24.73752606488494],[120.90622516902536,24.744467429800505],[120.90752051627581,24.749215403038754],[120.91219178151658,24.75504444805441],[120.91398869273476,24.758507964281044],[120.9152046164288,24.764421206435145],[120.91742783210282,24.770134093736345],[120.91838837242501,24.775134103068016],[120.91988508369484,24.78284691432506],[120.92457651234842,24.785420017329084]]}},{"type":"Feature","properties":{"average_dip":"(85,,)","catalog_id":"TW_9","catalog_name":"Shyu Taiwan","lower_seis_depth":"(12.0,,)","name":"Touhuanping structure","net_slip_rate":"(0.14,0.14,0.14)","reference":"Shyu et al 2016 modified from Ota et al. (2009)","slip_type":"Strike-Slip","upper_seis_depth":"(0.,,)"},"geometry":{"type":"LineString","coordinates":[[120.79486639958361,24.661961559301126],[120.8117218224107,24.665566920059188],[120.83564087750142,24.665953320303835],[120.86073886864763,24.66418703045079],[120.87454024733347,24.66474011362721],[120.88733325996105,24.666104774527266],[120.90293345270797,24.669608906944617],[120.91986020578724,24.67411020256235],[120.93164060945655,24.675114095074036],[120.93788144533823,24.676685200038477],[120.94153085487542,24.680287584209847],[120.95673347492266,24.681244658948394],[120.96962180458526,24.6800117759866],[120.98799935288118,24.67976306456309],[120.99757018580277,24.679811051479266],[121.0075572613142,24.6817119644412],[121.01301911136207,24.683137402506652],[121.02532247412853,24.683986011426885],[121.03507449888473,24.68408441187253]]}},{"type":"Feature","properties":{"average_dip":"(30,,)","catalog_id":"TW_10","catalog_name":"Shyu Taiwan","lower_seis_depth":"(10.0,,)","name":"Miaoli frontal structure","net_slip_rate":"(3.6,1.2,6.0)","reference":"Shyu et al 2016","slip_type":"Reverse","upper_seis_depth":"(0.,,)"},"geometry":{"type":"LineString","coordinates":[[120.65630132932543,24.443901202947192],[120.65701075808008,24.448161795184152],[120.66299589452008,24.45821390505521],[120.66344816806962,24.46200498037928],[120.66612652058896,24.47351105488218],[120.67261279808682,24.481353087728916],[120.6793935120667,24.49189946091546],[120.68776879886832,24.505075580661142],[120.6897348080184,24.508583189773013],[120.69211568200308,24.519830211374842],[120.69358496148521,24.529836931699567],[120.69603465375152,24.544905270649057],[120.69914584152679,24.55139857456428],[120.70236451439924,24.554077845515284],[120.70674245929531,24.556549844714773],[120.70758792092344,24.561394233987052],[120.71135167198598,24.56942813647222],[120.71134506086919,24.57485114165154],[120.7166064512112,24.581686160177355],[120.71568181310958,24.586247174159464],[120.7162311985878,24.589229391788606],[120.72052226672096,24.594712857048865],[120.72205711635155,24.598724696392622],[120.73035029670419,24.60590640115283],[120.73705362463144,24.60739958904442]]}},{"type":"Feature","properties":{"average_dip":"(30,,)","catalog_id":"TW_11","catalog_name":"Shyu Taiwan","lower_seis_depth":"(3.5,,)","name":"Tunglo structure","net_slip_rate":"(1.08,0.36,1.8)","reference":"Shyu et al 2016","slip_type":"Reverse","upper_seis_depth":"(0.,,)"},"geometry":{"type":"LineString","coordinates":[[120.76107467147747,24.403029866483426],[120.76615136909072,24.408627911267757],[120.77095082379512,24.416303741093024],[120.77152046408312,24.42595829258726],[120.77370774865486,24.437507214009297],[120.77558928357911,24.448933956051395],[120.77670065592841,24.46458535083977],[120.77668721090815,24.472208430496654],[120.77667376033716,24.479831502457916],[120.77504081485034,24.48769669246966],[120.77468557295349,24.494824967768157],[120.77387994047017,24.50016002957738]]}},{"type":"Feature","properties":{"average_dip":"(30,,)","catalog_id":"TW_12","catalog_name":"Shyu Taiwan","lower_seis_depth":"(4.0,,)","name":"East Miaoli structure","net_slip_rate":"(1.6,0.54,2.66)","reference":"Shyu et al 2016","slip_type":"Reverse","upper_seis_depth":"(0.,,)"},"geometry":{"type":"LineString","coordinates":[[120.83201199346036,24.466039587576223],[120.83130360732086,24.471249645181672],[120.83059516150483,24.47645969556046],[120.83058894545518,24.481103158718337],[120.83273860095227,24.48403198400883],[120.83256873273892,24.489108253463858],[120.83239884958486,24.494184519244858],[120.83549021389011,24.500894805706956],[120.83708682999774,24.502807670278745],[120.83753698055835,24.50804883909443],[120.84026664105693,24.51791193742508],[120.83976567833061,24.526338343546275],[120.8405911053325,24.52960080063088],[120.84016468743613,24.53328580186305],[120.8399144820958,24.537368864928624],[120.84145521997792,24.540431844069378],[120.84042345907334,24.548230376409556],[120.84100224992802,24.5552483854203],[120.84177795941618,24.561505131524033],[120.84328641239577,24.565541217973156],[120.844744743785,24.57477827355403],[120.84674636050529,24.583744906769102],[120.84781661902998,24.589852593828542]]}},{"type":"Feature","properties":{"average_dip":"(75,,)","catalog_id":"TW_13","catalog_name":"Shyu Taiwan","lower_seis_depth":"(10.8,,)","name":"Shihtan fault","net_slip_rate":"(1.86,0.62,3.11)","reference":"Shyu et al 2016","slip_type":"Reverse","upper_seis_depth":"(0.,,)"},"geometry":{"type":"LineString","coordinates":[[120.85531042300838,24.38288760410609],[120.86780995655398,24.40248844172112],[120.87978110020696,24.433076929661866],[120.88550872302461,24.44741500904212],[120.89384677470663,24.462710276948943],[120.90414073971874,24.48056949081834],[120.91136800635381,24.494914883113974],[120.91466998977604,24.50336446031023],[120.92241655203854,24.521667777625446],[120.92967853380836,24.540885543488873],[120.93678083437746,24.553683678273885],[120.9415296900668,24.563814549280455],[120.94722366693661,24.57081987561595],[120.95734758743906,24.582690237437532],[120.96226113022638,24.591389059120683],[120.96811152173312,24.5988437590125],[120.97364359243323,24.60869223239803],[120.97672082994029,24.614765689440652]]}},{"type":"Feature","properties":{"average_dip":"(15,,)","catalog_id":"TW_14","catalog_name":"Shyu Taiwan","lower_seis_depth":"(9.0,,)","name":"Sanyi fault","net_slip_rate":"(1.86,0.62,3.09)","reference":"Shyu et al 2016","slip_type":"Reverse","upper_seis_depth":"(0.,,)"},"geometry":{"type":"LineString","coordinates":[[120.73022320283228,24.234614323979],[120.73086137396857,24.24848259514542],[120.7340453546514,24.262594673090653],[120.73418923769545,24.267470505322493],[120.73536733964988,24.269050684765656],[120.73540758158157,24.273660592183212],[120.7345944521199,24.28160086808083],[120.73452177243158,24.284348103422744],[120.73388431612503,24.29008052541909],[120.73912153898289,24.29693861315557],[120.7389470726248,24.299728808634875],[120.7369486706752,24.301839599697747],[120.73558122190181,24.310425492056822],[120.73711749948738,24.313254626785483],[120.74100288585434,24.317452496535047],[120.73878506497657,24.324951523338953],[120.73825176308634,24.333698693984303],[120.73682220923783,24.344159856776162],[120.73678161922345,24.355470624831863],[120.74032531408172,24.362588771000688],[120.7454899156326,24.36822788753111],[120.7520112328604,24.37496287958356],[120.7537976258142,24.384322747694945],[120.76322204302573,24.400853384586238],[120.76580638742463,24.403228071607007],[120.77071965359407,24.404009882819782],[120.77844475579806,24.408423873685276],[120.78486795734464,24.40780365400131],[120.78905589822182,24.40707928626749],[120.79234173682435,24.40297044941018],[120.80297716735973,24.399165010574386],[120.80924718537852,24.39730459456068],[120.81726841739997,24.39618688936181],[120.82392325587492,24.39664446560197],[120.83057814424666,24.39710174969671]]}},{"type":"Feature","properties":{"average_dip":"(85,,)","catalog_id":"TW_15","catalog_name":"Shyu Taiwan","lower_seis_depth":"(14.79,,)","name":"Tuntzuchiao fault","net_slip_rate":"(1.0,0.33,1.68)","reference":"Shyu et al 2016","slip_type":"Strike-Slip","upper_seis_depth":"(0.,,)"},"geometry":{"type":"LineString","coordinates":[[120.61353407714665,24.265030053247884],[120.6548375622245,24.27921267374491],[120.69230800321978,24.293790626628542],[120.72176607792808,24.307620038080476],[120.74100288585434,24.317452496535047],[120.7651196856862,24.33565961648131],[120.77217782637867,24.33999439893875],[120.80254875059273,24.34635662774847],[120.82990978365687,24.360126310831454],[120.83512315166749,24.361923789833074]]}},{"type":"Feature","properties":{"average_dip":"(14,,)","catalog_id":"TW_16","catalog_name":"Shyu Taiwan","lower_seis_depth":"(12.0,,)","name":"Changhua fault","net_slip_rate":"(3.4,1.13,5.66)","reference":"Shyu et al 2016","slip_type":"Reverse","upper_seis_depth":"(0.,,)"},"geometry":{"type":"LineString","coordinates":[[120.64553585673063,24.365301321115464],[120.63484479198686,24.35594487373699],[120.62920581492082,24.345788709926342],[120.62435755856991,24.338068490093658],[120.61578333276405,24.332772925706465],[120.61243628370423,24.326841197175252],[120.60801105229605,24.30507259479484],[120.60094483375768,24.29975303540354],[120.59001457215554,24.28490231630494],[120.58025489340814,24.273732408668476],[120.57240275658242,24.257266076132478],[120.5633627786528,24.243716982338842],[120.55927748986643,24.230830898666643],[120.55509404935722,24.22162476340926],[120.54859244999089,24.20585300374741],[120.54862635361211,24.196224384645927],[120.54983884557336,24.186815614415227],[120.54375576073886,24.172841263565783],[120.54534891089487,24.155860451193554],[120.54976534260523,24.140510762842023],[120.55077349649477,24.121905247919045],[120.54861084246258,24.09993647911882],[120.54802410571533,24.074338697230083],[120.54514300891083,24.052658111019724],[120.54942423098022,24.031035965452894],[120.55460242669949,24.022916483426567],[120.5814185949735,24.00665921863983],[120.59967699702638,23.9771445902969],[120.60645433844186,23.966910267761097],[120.62205775563004,23.914983181170413],[120.61427882753206,23.88722842297831],[120.60850155048688,23.859175562320175],[120.60676481137915,23.84417243918852],[120.6067975909114,23.833302151230345],[120.61748234455791,23.82090572577684],[120.63544606353928,23.804822775266384],[120.64713199430389,23.794374680766794],[120.6595754950797,23.77335079822405],[120.66215690959682,23.76785223717112],[120.66378814646856,23.754039737663003],[120.66925025023916,23.73441975725523],[120.66966181045196,23.725580828610525],[120.66516076796363,23.709802823020755],[120.66283626610914,23.705616775420207],[120.6611926107863,23.689008620876155],[120.66603459214986,23.67229507518434],[120.66605856530457,23.662857960599847]]}},{"type":"Feature","properties":{"average_dip":"(15,,)","catalog_id":"TW_17","catalog_name":"Shyu Taiwan","lower_seis_depth":"(12.0,,)","name":"Chelungpu fault","net_slip_rate":"(6.94,6.94,6.94)","reference":"Chen (2006)","slip_type":"Reverse","upper_seis_depth":"(0.,,)"},"geometry":{"type":"LineString","coordinates":[[120.64509518870001,23.63919505879976],[120.66185629007808,23.657722979295652],[120.66958589639962,23.664608109015386],[120.67880387524124,23.66923819916164],[120.684580157798,23.674148944367346],[120.68973449361687,23.677617384225247],[120.69616758210083,23.684968972570708],[120.70164842862619,23.69902188118912],[120.70394597207587,23.710711660184305],[120.70378783917583,23.7162121656301],[120.69865873540415,23.728813850813644],[120.69835976335763,23.740456013929613],[120.70266620702648,23.75527598878615],[120.71068682084909,23.762345366768905],[120.70758235395874,23.772179758380396],[120.7096776543198,23.778455176555287],[120.71125261093253,23.787249521813965],[120.70832673075833,23.792206190765878],[120.71181575914382,23.79623612401527],[120.71355270831535,23.80173797329532],[120.70698343623854,23.80628546052804],[120.70740960283364,23.811248426457027],[120.71060369627634,23.817021280437572],[120.71509376976968,23.824587270421855],[120.71560464403102,23.828500388769502],[120.70815688899403,23.835591189340796],[120.7038457552414,23.84007571203005],[120.70338791387657,23.849060315411997],[120.7062778001722,23.86073355637742],[120.70748610318,23.873065915895605],[120.71235096636974,23.875942001841757],[120.7144003237788,23.880597310975325],[120.71248004128957,23.891590842003],[120.7098450408586,23.895877444083297],[120.70662821479547,23.89935822408331],[120.70370065360424,23.909650620345637],[120.70361919276615,23.914267196086715],[120.70991876335,23.928198233093283],[120.70490768347524,23.935992584766595],[120.70361146466495,23.942938311526394],[120.70036417766404,23.947827638983966],[120.69732337342826,23.948826885096576],[120.68664456739573,23.95980245950913],[120.68894500146264,23.967201199804908],[120.6922813615914,23.971818823958305],[120.6904048004748,23.978574255182178],[120.6890311186788,23.999101317573764],[120.69533271429914,24.005406833271657],[120.69849404535216,24.01011714406828],[120.69874513042464,24.014186700920042],[120.69791511836597,24.022663223339997],[120.6996174153386,24.029296882415693],[120.69642748858472,24.034571934188936],[120.69155955296831,24.04068007504315],[120.6914032743962,24.04497122096963],[120.69343654373033,24.04966908841207],[120.69985303637016,24.053570936408384],[120.69997881218676,24.06228820017486],[120.70361248157796,24.069939427799742],[120.71500582131725,24.07173113586032],[120.72182508109492,24.07679053100241],[120.72431946730163,24.085534644857372],[120.73683097474361,24.08711981090894],[120.73204001736048,24.095874655715185],[120.73420559459453,24.108350429036715],[120.73944653272025,24.117612858266508],[120.73562667005466,24.127798435336416],[120.73457723195666,24.14067087656378],[120.73894068835676,24.150870511250606],[120.73511064249752,24.16548151733451],[120.72940770412742,24.176974275759463],[120.72212789806329,24.189866901365193],[120.72481809965595,24.20135825737209],[120.72603362483021,24.208378679355647],[120.7247334072523,24.214381975364343],[120.72891678526086,24.222133133613028],[120.73022320283228,24.234614323979],[120.73795130171641,24.24483233119423],[120.74482041352043,24.25720107625688],[120.75699166706326,24.274406635806038],[120.75963213043377,24.281077712104004],[120.76576227874985,24.28517243607739],[120.76992450851084,24.283386055301282],[120.77772682837906,24.28425870284576],[120.78893362021556,24.284418017750337],[120.79674294155417,24.2853332453739],[120.80322113500586,24.287578359883483],[120.82037061991599,24.296620924666026],[120.82665768504724,24.30232594440831],[120.83016852086622,24.308457639043333],[120.83382905574692,24.32000044060986]]}},{"type":"Feature","properties":{"average_dip":"(30,,)","catalog_id":"TW_18","catalog_name":"Shyu Taiwan","lower_seis_depth":"(6.0,,)","name":"Tamaopu - Shuangtung fault","net_slip_rate":"(2.0,0.66,3.34)","reference":"Shyu et al 2016","slip_type":"Reverse","upper_seis_depth":"(0.,,)"},"geometry":{"type":"LineString","coordinates":[[120.93457999910807,24.28064482692433],[120.93120665330154,24.27822028683383],[120.92920739302595,24.277082296592766],[120.92885873304417,24.27684960829454],[120.92811561309429,24.27649527809277],[120.92611753780164,24.275369438281494],[120.92399033100038,24.2744970733874],[120.91701189268875,24.271911532238143],[120.91402232549497,24.270454215344813],[120.91147292969848,24.269318568881907],[120.9097927048831,24.268391180889616],[120.90807455297505,24.267481089195407],[120.90463805138705,24.26602449052761],[120.90211889114187,24.265200155061958],[120.89796311557126,24.26359593032706],[120.89565052968643,24.26220047042926],[120.89393256213812,24.26129021881697],[120.89274332937617,24.260441004009785],[120.89175228289501,24.259834199475897],[120.89016678087751,24.25874222284493],[120.88818498490306,24.257165020603303],[120.88704719578547,24.25646813720661],[120.88257886067456,24.253499437633725],[120.88144725706813,24.252069179407403],[120.87953204510097,24.25031013882326],[120.87745123397228,24.248495676130574],[120.87662720803156,24.2466109610687],[120.87603383126975,24.245034808731084],[120.87487710295107,24.24336725806217],[120.87345991325323,24.24121456293307],[120.8720735870899,24.239516457966115],[120.87092208017368,24.237845720196866],[120.86846898413903,24.231736163861623],[120.86758958967428,24.229512898177926],[120.86753470294025,24.22847781310241],[120.86626171237302,24.225546592129724],[120.86489150479456,24.223600645486187],[120.8627084450291,24.220720958180614],[120.86001025505087,24.217434047140415],[120.8567022934811,24.214048898716037],[120.85404226788654,24.210807608776683],[120.85133923497816,24.206116433284702],[120.84987689742223,24.203612192645444],[120.84831593975332,24.20112635112658],[120.84528860733091,24.196581120318893],[120.84232946718635,24.190962387783085],[120.8410029513016,24.189977835581452],[120.84098025727644,24.189958182258525],[120.83767977156714,24.187651730732572],[120.83563317122974,24.186498006115674],[120.83371830725935,24.185647451450755],[120.83186963641366,24.184796945762717],[120.82975656585764,24.18400671534208],[120.82817180035555,24.183398920351067],[120.82652652442756,24.18264195135748],[120.82632311783894,24.182548347450407],[120.82343802858313,24.181003306488073],[120.82108450605979,24.179643232451284],[120.8187312713913,24.17817223144886],[120.81686064979212,24.177034176512734],[120.81497016148263,24.175565478485787],[120.81345288548926,24.174109133805],[120.81206833649887,24.172289290810696],[120.81101459449178,24.17010619844933],[120.81059249322891,24.168438877360835],[120.8104252379395,24.166590364298848],[120.81042953241739,24.163681373892857],[120.81036684917666,24.161438910488222],[120.81030489215152,24.158651021458354],[120.81024123655106,24.157014574207796],[120.80997891209594,24.155741526814165],[120.80951819206459,24.154650100182323],[120.80892524915747,24.153619099421288],[120.80787008044764,24.152526831844973],[120.80668278120118,24.15149507278456],[120.80582567161431,24.15052431779531],[120.80516652533791,24.14961440367981],[120.80513276598296,24.149557379774098],[120.80484467357793,24.146482214831583],[120.80028907627472,24.133470146067854],[120.7985477332659,24.12989747552367],[120.79802542844003,24.126645711012614],[120.7979168121784,24.12579094319472],[120.79753405294647,24.123299708487934],[120.7975484677795,24.122029168941882],[120.79728719709536,24.12021066801348],[120.79729511588313,24.118841057285913],[120.79762617103725,24.11740821127004],[120.79745502812878,24.1151449975248],[120.79757373601319,24.114786833468607],[120.79827155712603,24.111996677836952],[120.79847818737984,24.111242560819434],[120.79969306946265,24.109546916544986],[120.80125836233151,24.107059581408237],[120.80252026034871,24.104760570471214],[120.8037561060637,24.102649976970646],[120.80416926887465,24.101141905883505],[120.80453630976602,24.09965246707782],[120.80483819341507,24.096984309143924],[120.80486098614477,24.095541657281473],[120.80509107211932,24.092807484446396],[120.80564855345999,24.090950569686786],[120.80591351999679,24.08884828903232],[120.80632717892678,24.08696301350479],[120.80694219132907,24.08441769396621],[120.80720056646886,24.08339027955472],[120.80722118934669,24.08332429393062],[120.80732016840271,24.08228728661834],[120.80781514248295,24.081005513693537],[120.80800643241712,24.08018525896736],[120.80858347116634,24.078913067954552],[120.80880579338509,24.077838556858953],[120.80901745568659,24.07711260253479],[120.80897129006632,24.077008967054553],[120.80878473220683,24.07475494497931],[120.8084502619017,24.071765487358025],[120.8084223651094,24.069794672604864],[120.8081048148547,24.069294535970116],[120.80746025733056,24.06762473967038],[120.80734372266345,24.066521537351676],[120.80726843416488,24.065446290497302],[120.80669186099736,24.062975313736032],[120.8061767649111,24.060683122495288],[120.80617785540208,24.05995708419502],[120.8061296017809,24.05790144543742],[120.80596096659461,24.0573167876584],[120.80572455527681,24.05067827632318],[120.8057288684524,24.047811775516557],[120.80642585756243,24.045209837466665],[120.80604050451427,24.04200339000964],[120.80598873821171,24.038835381151618],[120.80558204603797,24.036194565551558],[120.8056816968426,24.034855487648862],[120.80577703799909,24.032875427877002],[120.80591814766568,24.0311408712068],[120.8059571396318,24.02915107642485],[120.80600090512164,24.028939161013163],[120.80654952910439,24.024361658453216],[120.80697766944883,24.01952488952705],[120.80716608587517,24.017092338564282],[120.80701676981809,24.013971064685066],[120.80694697761483,24.01254715362698],[120.80601753722412,24.009434284127565],[120.80513845305636,24.006990896053622],[120.80347945441814,24.004452317437412],[120.80226308070097,24.002293388510918],[120.8018295097697,24.0013907809254],[120.80147596072209,24.000700490370015],[120.80128895770923,24.00025947367987],[120.8011235352732,23.999703527567576],[120.80102013251931,23.998726121979065],[120.80085811748435,23.99778399436571],[120.80085476482833,23.99776778022729],[120.80027369815144,23.995850770047053],[120.79935874731926,23.994029133587045],[120.7983188269177,23.992149893611153],[120.79690416654014,23.989810231069487],[120.79603013302666,23.988624008698164],[120.79498007851537,23.987571196393777],[120.79217969415139,23.984526793070785],[120.79042091631203,23.9823183569359],[120.78840111133506,23.979513080515964],[120.78813864661227,23.979210076492322],[120.78742287539949,23.97760332682113],[120.78657461731763,23.975634056224965],[120.78624570554697,23.9733667779304],[120.78602254302265,23.971072102955286],[120.78582043361983,23.96840188020794],[120.78591038712705,23.96728132742639],[120.785995186013,23.965600066731373],[120.78608319053016,23.96452872665274],[120.78654734006106,23.963012708606907],[120.78668059726947,23.961673858384984],[120.78674212527704,23.959645523245076],[120.78732313106077,23.95737887174826],[120.78773780745748,23.955761367864408],[120.788097908109,23.95445606054183],[120.78770486509322,23.952666041115616],[120.7866701740843,23.950865558047603],[120.78492341541525,23.94774923608863],[120.78394964841972,23.94517743646739],[120.78391886506999,23.942640733372226],[120.78428388375237,23.94115600413691],[120.7851898728477,23.938646129328014],[120.78521152239966,23.93858479168862],[120.78540917015447,23.937843846088803],[120.78559784952708,23.936497032614437],[120.78592435028139,23.934663216119503],[120.7857858107838,23.932440259298755],[120.78545126825861,23.930954367639192],[120.78548491271535,23.929619347063603],[120.78564836496393,23.928085023788064],[120.78587470930542,23.92663639672866],[120.78633818394253,23.924807192549356],[120.7869103226937,23.92350542793595],[120.78758781574388,23.922478333717432],[120.78776913167354,23.921890788943415],[120.78798291585503,23.92096789587794],[120.78907276130684,23.917109938426652],[120.78939263331887,23.916254917049727],[120.78967738577822,23.914870659034193],[120.78947863612062,23.914128801582724],[120.78926072703796,23.913112931857736],[120.78887747201554,23.90900252919791],[120.78820867975739,23.90583379438693],[120.78748363009917,23.90206264195009],[120.7875022441284,23.90028943391821],[120.78767641895301,23.899392581996864],[120.78832090889374,23.89850296996514],[120.78968234439488,23.897135899508918],[120.79109767472738,23.89578523505751],[120.79305086493677,23.89422062583645],[120.79412576925475,23.893215885732058],[120.7961091786914,23.892116982050524],[120.79695811467926,23.891585844758886],[120.79772833730254,23.890828113300515],[120.7982098854198,23.889635540187207],[120.79889498059042,23.88818107480856],[120.79902600648066,23.887880236274228],[120.79960720819238,23.886928654666583],[120.800254087304,23.88549716069197],[120.80064110891246,23.884065598168064],[120.80070296858823,23.88233551513554],[120.80063482752169,23.880605263343895],[120.80065342511404,23.880381033819614],[120.8005034359119,23.87976994747208],[120.80030820896673,23.878731722327842],[120.80041393573796,23.877709871418656],[120.80050078243671,23.876111123759813],[120.80074964883246,23.87485872688017],[120.80143813578677,23.873340314831626],[120.80150230865469,23.873163037343556],[120.80172672820575,23.872158224863465],[120.80192716099373,23.871106783333428],[120.80248739123803,23.86901186981385],[120.80301486932333,23.867676292317512],[120.8032124563223,23.8666742419926],[120.80314591482622,23.86536824600175],[120.80357406195084,23.86345539483378],[120.80423275720115,23.860358384592462],[120.80495802150124,23.85853702408854],[120.80499027791674,23.856897020965175],[120.80540139597629,23.853769346352554],[120.80579618629139,23.851097151656663],[120.80579577202047,23.850125278990326],[120.80605927947478,23.849032277190375],[120.80604210487029,23.84751367100462],[120.80658591417358,23.846056545641986],[120.8072454331074,23.845085499274184],[120.80830084695832,23.843932705450843],[120.80896040711531,23.843083203287225],[120.80948777760531,23.841868969399854],[120.81016386715106,23.841110510678217],[120.81184577554043,23.839229601967677],[120.81535839580283,23.836348570887758],[120.81784862557893,23.83452924671705],[120.81992664027626,23.83325611403915],[120.82174070665941,23.831952214753233],[120.82355465450698,23.83070915996679],[120.82523579551442,23.828068715028365],[120.82632362043313,23.826369206756798],[120.82676781158784,23.824395521083034],[120.82683400566103,23.82432671041967],[120.82696346970982,23.8206904730728],[120.82696142218737,23.817349587481083],[120.82689437869425,23.815709548462607],[120.82662891186534,23.813158004192378],[120.82629690966523,23.809756058247658],[120.8261292807702,23.808832927341555],[120.8260531132643,23.808413985006954],[120.82485947317434,23.8057454577276],[120.82338980270944,23.80294960869953],[120.82165646378472,23.80039636505785],[120.81969218416927,23.797660683408818],[120.81823989124628,23.795958235914895],[120.81498933292428,23.793281659388374],[120.81144236292444,23.79115136862304],[120.80885223826324,23.78944734782857],[120.80660848135051,23.787713465140527],[120.80649302705916,23.787682887116734],[120.80413379346054,23.785705808381728],[120.80225302482914,23.784063351430703],[120.801345330704,23.782513246024372],[120.80043747473223,23.78044685146096],[120.79971092646527,23.778228790528313],[120.79975949369876,23.775950956260942],[120.79957690504902,23.773156537597394],[120.79993745887244,23.767750877615995],[120.79983704315357,23.764197352728765],[120.79975336788894,23.761129699160534],[120.80013136840431,23.758153761967787],[120.80026222490243,23.75560275900606],[120.80039313348558,23.75317321807959],[120.8004254338062,23.7516243135746],[120.80154511799603,23.748284845574513]]}},{"type":"Feature","properties":{"average_dip":"(30,,)","catalog_id":"TW_19","catalog_name":"Shyu Taiwan","lower_seis_depth":"(12.0,,)","name":"Chiuchiungkeng fault","net_slip_rate":"(7.2,2.4,12.0)","reference":"Shyu et al 2016","slip_type":"Reverse","upper_seis_depth":"(0.,,)"},"geometry":{"type":"LineString","coordinates":[[120.50744540587607,23.394488387169748],[120.51343504461036,23.40233179640784],[120.5147012736939,23.410040918945633],[120.51629864173331,23.415720229593216],[120.51689715249226,23.425571562735755],[120.51744978287707,23.431676479383686],[120.51964164383112,23.439897297324524],[120.53131270101423,23.46045885157276],[120.53381857057616,23.47114971303767],[120.53424788173409,23.480571372032223],[120.5336220759664,23.48757458215798],[120.5315721627996,23.493388117851293],[120.55204351130503,23.51531953902493],[120.55249056422936,23.526333924868357],[120.5570113872142,23.538098476958545],[120.55773743162398,23.548370596938586],[120.55902942633446,23.55871775000673],[120.55900014155792,23.56749130205919],[120.56028108568152,23.57182119123794],[120.56251231704513,23.58178615165757],[120.57000312430073,23.60867211028248],[120.57172821903538,23.614964618542345],[120.57519350717543,23.623016594106545],[120.57499611441533,23.635006604429073],[120.57704814590653,23.63852163974431],[120.57908111108132,23.64803186109673],[120.58094489969093,23.660904782319374],[120.59441722206573,23.667813235541082]]}},{"type":"Feature","properties":{"average_dip":"(85,,)","catalog_id":"TW_20","catalog_name":"Shyu Taiwan","lower_seis_depth":"(14.69,,)","name":"Meishan fault","net_slip_rate":"(2.51,2.51,2.51)","reference":"Chen et al. (2013)","slip_type":"Strike-Slip","upper_seis_depth":"(0.,,)"},"geometry":{"type":"LineString","coordinates":[[120.4265245993665,23.550746540339958],[120.4287076430442,23.551907241887935],[120.4357332680855,23.553661892142806],[120.44868621908489,23.558319027776154],[120.48068699785408,23.568659162877086],[120.51753471117519,23.580160566544894],[120.54283189819824,23.588161706234313],[120.55085096332043,23.59028302090675],[120.5631608164675,23.59446387382008],[120.5779892506882,23.599533497178626],[120.59584385529752,23.609152970356828],[120.61561762263322,23.620153648741727],[120.62831545741945,23.627484885161422],[120.63288823330286,23.63268282928147],[120.6374634853358,23.637112192082263],[120.63933811496494,23.63788501487374]]}},{"type":"Feature","properties":{"average_dip":"(15,,)","catalog_id":"TW_21","catalog_name":"Shyu Taiwan","lower_seis_depth":"(12.0,,)","name":"Chiayi frontal structure","net_slip_rate":"(6.49,2.16,10.82)","reference":"Shyu et al 2016","slip_type":"Reverse","upper_seis_depth":"(0.,,)"},"geometry":{"type":"LineString","coordinates":[[120.18475024189648,23.14769011111624],[120.18484329273578,23.18256505428074],[120.18493609144434,23.21743984589634],[120.19144545251768,23.298611978645024],[120.19404755626672,23.321546516593],[120.19871829775781,23.35517867937727],[120.20339112454366,23.38881062470267],[120.20750428405583,23.414424223874885],[120.21161887358234,23.440037674655564],[120.21785976097543,23.46720844833349],[120.22410303738627,23.494378946803298],[120.23188994518675,23.518744427192615],[120.2396795938324,23.54310951751415]]}},{"type":"Feature","properties":{"average_dip":"(30,,)","catalog_id":"TW_22","catalog_name":"Shyu Taiwan","lower_seis_depth":"(12.0,,)","name":"Muchiliao - Liuchia fault","net_slip_rate":"(5.75,4.4,7.1)","reference":"Du (2013)","slip_type":"Reverse","upper_seis_depth":"(0.,,)"},"geometry":{"type":"LineString","coordinates":[[120.37242452856029,23.18991687464059],[120.3659838619658,23.200859905220714],[120.36588531642235,23.22174245764294],[120.36993902953891,23.23336037620284],[120.37721801403957,23.24583713500922],[120.3889487552663,23.269294974919635],[120.39754304906094,23.287468860154867],[120.40253649112321,23.294237965364456],[120.40890995841538,23.29890274521709],[120.43283994150573,23.310381777657135],[120.44239448542235,23.32544826379465],[120.44982306167128,23.34442302202991],[120.45775616103661,23.362937006627202],[120.46013480666025,23.367848184496218],[120.46817828485109,23.38211537671681]]}},{"type":"Feature","properties":{"average_dip":"(30,,)","catalog_id":"TW_23","catalog_name":"Shyu Taiwan","lower_seis_depth":"(12.0,,)","name":"Chungchou structure","net_slip_rate":"(12.2,11.6,12.8)","reference":"Chen et al. (2010b)","slip_type":"Reverse","upper_seis_depth":"(0.,,)"},"geometry":{"type":"LineString","coordinates":[[120.31790984656004,22.957602165191535],[120.31314542886975,22.97282006381386],[120.3113783023292,22.984252524277927],[120.30967610660174,22.992456675435264],[120.31036035966478,23.001977998018326],[120.31621672083007,23.022351370879527],[120.32737981027798,23.035804703173298],[120.33087974779953,23.047702235652835],[120.33214504075306,23.05683416174684],[120.33489739482168,23.072175844942738],[120.33590887297916,23.073982416952386],[120.33930379373224,23.080906046852636],[120.36087610222867,23.089566030125436],[120.36389285509614,23.10267105503715],[120.36481348711301,23.10985105154529],[120.36381623148863,23.116943826317094],[120.35727679128428,23.125302227300633],[120.35329789169703,23.134620088310037],[120.35154999443756,23.142364969437878],[120.3511636809296,23.151539276999944],[120.34873945778727,23.15754106414071],[120.34392811378717,23.16179263033645],[120.33428573940328,23.174092116730446],[120.32625460025031,23.171843103081653],[120.31920236263333,23.179090150985857],[120.31968611921177,23.184945779971603]]}},{"type":"Feature","properties":{"average_dip":"(85,,)","catalog_id":"TW_24","catalog_name":"Shyu Taiwan","lower_seis_depth":"(15.0,,)","name":"Hsinhua fault","net_slip_rate":"(2.65,0.8,4.5)","reference":"Chen et al.  (2011)","slip_type":"Strike-Slip","upper_seis_depth":"(0.,,)"},"geometry":{"type":"LineString","coordinates":[[120.23711983532992,23.04119567677494],[120.25183688853852,23.04664594596145],[120.25929766667998,23.050332395121117],[120.27064848714178,23.054438057759],[120.28561098807411,23.061115921031124],[120.30119238867526,23.068831154741808],[120.3144022180504,23.075097839585577],[120.32761329446534,23.081363444247756],[120.33650562173845,23.084933441811973],[120.34452701561767,23.08591200651533],[120.3524526073695,23.086184983396063],[120.36348307416091,23.089094782375952]]}},{"type":"Feature","properties":{"average_dip":"(45,,)","catalog_id":"TW_25","catalog_name":"Shyu Taiwan","lower_seis_depth":"(5.0,,)","name":"Houchiali fault","net_slip_rate":"(7.07,7.07,7.07)","reference":"Chen and Liu (2000)","slip_type":"Reverse","upper_seis_depth":"(0.,,)"},"geometry":{"type":"LineString","coordinates":[[120.22682335384539,22.934044669443875],[120.2345148756428,22.942444343715362],[120.23801176513324,22.951420879759443],[120.23925325588979,22.960087880081492],[120.24466444307708,22.972955972392807],[120.24715700288586,22.98879660104107],[120.24709573332662,22.999846566356943],[120.2499297737584,23.012403534392373],[120.2502061751318,23.020767180937494],[120.25017314411029,23.026740117180555],[120.25078049840056,23.033612045713802]]}},{"type":"Feature","properties":{"average_dip":"(75,,)","catalog_id":"TW_26","catalog_name":"Shyu Taiwan","lower_seis_depth":"(10.8,,)","name":"Chishan fault","net_slip_rate":"(1.1,0.73,1.46)","reference":"Chen et al. (2012)","slip_type":"Reverse-Strike-Slip","upper_seis_depth":"(0.,,)"},"geometry":{"type":"LineString","coordinates":[[120.36038420062782,22.773832813813712],[120.3663223843053,22.776819296140093],[120.36975112859204,22.782755445283716],[120.37829673714728,22.788221163871654],[120.38726448210714,22.7929407854457],[120.3908592889831,22.794843936012672],[120.39983550573035,22.797386789251718],[120.41429521263781,22.814598069340548],[120.42341539352488,22.823957233387013],[120.42857200254461,22.829256434259683],[120.43398299881069,22.835756517021547],[120.44262671360173,22.843467908856404],[120.45036929758905,22.85009560387344],[120.45436868990379,22.853829801358835],[120.46418210471771,22.86106399198808],[120.4709143652096,22.861566574329533],[120.47397715417722,22.873338121637975],[120.47757141082872,22.8817509550073],[120.47973349155544,22.89219926174622],[120.4806251414588,22.896162636453457],[120.49229852140142,22.899866612682015],[120.50180127868832,22.904937276131907],[120.51032795613588,22.911444541444357],[120.52070227539618,22.91777692056822],[120.52525913380012,22.920670944631386],[120.53320179279937,22.928075357060816],[120.5407590204356,22.934758178076905],[120.5494844036752,22.941083921738613],[120.55841549342303,22.94416938329482],[120.57142555645467,22.9483455436229],[120.5834700101569,22.950717898336077],[120.59133690727047,22.95262858293337],[120.59920403143471,22.954538880141396],[120.60639621482548,22.954646899044903],[120.61358841490755,22.9547545920202]]}},{"type":"Feature","properties":{"average_dip":"(30,,)","catalog_id":"TW_27","catalog_name":"Shyu Taiwan","lower_seis_depth":"(7.0,,)","name":"Hsiaokangshan fault","net_slip_rate":"(3.3,1.1,5.5)","reference":"Shyu et al 2016","slip_type":"Reverse","upper_seis_depth":"(0.,,)"},"geometry":{"type":"LineString","coordinates":[[120.32772980422706,22.810445292090513],[120.32724728161361,22.81774880702834],[120.32780487562506,22.82542045702114],[120.32816579656581,22.830898724735736],[120.32852674031753,22.836376988584238],[120.33104091584389,22.84450245802533],[120.33298133069026,22.847029296255577],[120.33656660529127,22.848600464443155],[120.33750684317538,22.85461478975582],[120.33824886232394,22.86086348969537],[120.3391594783363,22.86351081109549],[120.34131967568683,22.86775387019012],[120.34341088869743,22.86940242464492],[120.35060453743458,22.873279845748332],[120.36122786307953,22.87625928094683]]}},{"type":"Feature","properties":{"average_dip":"(75,,)","catalog_id":"TW_28","catalog_name":"Shyu Taiwan","lower_seis_depth":"(12.27,,)","name":"Kaoping River structure","net_slip_rate":"(0.61,0.2,1.02)","reference":"Shyu et al 2016","slip_type":"Reverse-Strike-Slip","upper_seis_depth":"(0.,,)"},"geometry":{"type":"LineString","coordinates":[[120.46885911002178,22.857239213997207],[120.46784554411992,22.85147514026967],[120.46423102114133,22.848582671832578],[120.45933316133939,22.842805425180924],[120.45962625956818,22.834165379139215],[120.46011930889783,22.828177882947767],[120.46088667470107,22.8198654888744],[120.46073676475028,22.815206823420755],[120.45974179471104,22.804882173943554],[120.4592448328588,22.799599829544302],[120.45845357262158,22.796334136265397],[120.45512963876891,22.784643943764316],[120.45041946575238,22.771597333868456],[120.44852530839671,22.76591363738013],[120.4484539317785,22.75491721353814],[120.44751744017441,22.746452877260687],[120.44598721028993,22.74086684903125],[120.44484742918831,22.734742089994512],[120.44160896747714,22.726264969721214],[120.43971458375758,22.721392974688257],[120.43587943323502,22.71392743695663],[120.43452967060932,22.709331127387507],[120.43311818732347,22.70006958560978],[120.43122678698357,22.688488060636328],[120.43150427337781,22.68392842610516],[120.43027838228325,22.678625998584682],[120.42905258083891,22.673323560119346],[120.42691606156858,22.667589836775157],[120.42770790471535,22.663752137361136],[120.42670727928412,22.655587428114103],[120.42466436001206,22.649339237471604],[120.42364847624363,22.644894966922067],[120.42263265455776,22.640450688843288],[120.42277484987159,22.63033559313265],[120.42356527009099,22.62082985882415],[120.42237114285957,22.611291144321807],[120.42175992170658,22.60180202430398]]}},{"type":"Feature","properties":{"average_dip":"(75,,)","catalog_id":"TW_29","catalog_name":"Shyu Taiwan","lower_seis_depth":"(11.11,,)","name":"Chaochou fault","net_slip_rate":"(1.76,0.59,2.93)","reference":"Shyu et al 2016","slip_type":"Reverse-Strike-Slip","upper_seis_depth":"(0.,,)"},"geometry":{"type":"LineString","coordinates":[[120.66000930493739,23.00650494061413],[120.6552829409429,22.99461487496818],[120.65493337408253,22.97913225002461],[120.65107903812984,22.965802188119508],[120.65037265081318,22.938077182257576],[120.6486911171572,22.91179011286674],[120.64794539897139,22.899546869876993],[120.64526395925986,22.879883460806166],[120.64436246269267,22.866563038906396],[120.63855858542838,22.857809417793096],[120.62748143683376,22.846949017544663],[120.62493204046459,22.81741797333942],[120.6208866675364,22.801020598078765],[120.62105932520593,22.791405008721416],[120.62635913865563,22.77624857971264],[120.6256846274614,22.755795985495965],[120.61812185648671,22.74467221805973],[120.61639267475447,22.736406387953117],[120.60941871916127,22.6727336213598],[120.60203889379443,22.650774390859084],[120.60032626220742,22.6374971131409],[120.60132631416734,22.624271709452444],[120.6242636284665,22.582591514304244],[120.62572393296753,22.580691495626343],[120.62609401733057,22.575088504913914],[120.62382490584028,22.55401961487357],[120.62231643755491,22.538533404102825],[120.62235853209758,22.523050797851884],[120.62066706053274,22.50378341713108],[120.61967331964641,22.49641580843811],[120.6149833890801,22.48794203069963],[120.61004428232113,22.471505587900843],[120.61007727826475,22.459713648128794],[120.61193666672138,22.43821469170196],[120.61174726541506,22.436790025772076],[120.61103832024139,22.413203913551296],[120.61243815262169,22.39718424200505],[120.61500756069968,22.37810672026474],[120.62127467711115,22.351296276126288],[120.62313116941606,22.34668812246209],[120.62431195314888,22.343757027488994],[120.6300416115053,22.329532207652598],[120.6382160539263,22.311366987496367]]}},{"type":"Feature","properties":{"average_dip":"(75,,)","catalog_id":"TW_30","catalog_name":"Shyu Taiwan","lower_seis_depth":"(15.0,,)","name":"Hengchun fault","net_slip_rate":"(6.15,5.86,6.44)","reference":"Chen et al. (2010a)","slip_type":"Reverse-Strike-Slip","upper_seis_depth":"(0.,,)"},"geometry":{"type":"LineString","coordinates":[[120.71833677371484,22.092147193104953],[120.72313981435033,22.081082780368813],[120.72721619308011,22.070827188492437],[120.73492909130955,22.05220539147024],[120.73900055225049,22.043704873941476],[120.74372862542246,22.032234545841494],[120.74860074840164,22.020764280165018],[120.7515185754161,22.00848069668194],[120.75604018104525,21.989447745807936],[120.75867011431758,21.975408108035754],[120.76158723439025,21.96244909155552],[120.78315097992076,21.9408795761304],[120.79161884498214,21.930495374696093],[120.8316463540067,21.869245291584544],[120.85471353825143,21.843816728129426],[120.88277876889553,21.79915107615431]]}},{"type":"Feature","properties":{"average_dip":"(30,,)","catalog_id":"TW_31","catalog_name":"Shyu Taiwan","lower_seis_depth":"(4.0,,)","name":"Hengchun offshore structure","net_slip_rate":"(3.65,2.54,4.76)","reference":"Shyu et al 2016","slip_type":"Reverse","upper_seis_depth":"(0.,,)"},"geometry":{"type":"LineString","coordinates":[[120.6838462863179,22.040592454638915],[120.68283035953333,22.030642602974357],[120.68285471122695,22.019705010931588],[120.68685808020776,22.01012412926694],[120.69056935929508,22.001625350215612],[120.69333014016013,21.997174443562713],[120.70102241410466,21.98854651510948],[120.70566701122137,21.983018541748226],[120.70973818285297,21.97451867694999],[120.71091959193276,21.963042891914743],[120.71026176261738,21.95519852564804],[120.7100232881591,21.941030765209526],[120.71054298695414,21.934550036527064],[120.71244200506149,21.925843649962463],[120.7143407858815,21.91713722976344]]}},{"type":"Feature","properties":{"average_dip":"(75,,)","catalog_id":"TW_32","catalog_name":"Shyu Taiwan","lower_seis_depth":"(10.0,,)","name":"Milun fault","net_slip_rate":"(10.15,10.12,10.19)","reference":"Chen (2013)","slip_type":"Reverse-Strike-Slip","upper_seis_depth":"(0.,,)"},"geometry":{"type":"LineString","coordinates":[[121.60828178238805,23.969539353613627],[121.60936168272363,23.98327134994334],[121.61121726765741,23.990652639295796],[121.61506522780412,23.999597942132997],[121.61844338024409,24.010419681793365],[121.62333858711595,24.01848552728107],[121.6315728042438,24.02639806144193],[121.63233304541622,24.02746509152452],[121.67962711048642,24.06059615016102],[121.69229689990198,24.071796499931544],[121.74119601241051,24.107911510978607]]}},{"type":"Feature","properties":{"average_dip":"(58,,)","catalog_id":"TW_33","catalog_name":"Shyu Taiwan","lower_seis_depth":"(20.0,,)","name":"Longitudinal Valley fault","net_slip_rate":"(11.35,5.6,17.1)","reference":"Shyu et al 2016 modified from Shyu et al. (2006a)","slip_type":"Reverse-Strike-Slip","upper_seis_depth":"(0.,,)"},"geometry":{"type":"LineString","coordinates":[[121.60863128093602,23.936024780945086],[121.59759994555294,23.917433587482584],[121.5895106702098,23.906033150388424],[121.58188393387918,23.896024610150757],[121.57502630509794,23.888243369212113],[121.56300521480438,23.878250190850384],[121.55479260057749,23.87286686068161],[121.54972621021483,23.86654560409778],[121.54041544210757,23.850297710271793],[121.53991268246791,23.842375151063354],[121.53479110248354,23.83146172979596],[121.53214282082085,23.81727291845766],[121.52638862360547,23.80230679539666],[121.52289472417115,23.787447873283185],[121.50970312264155,23.771691714005495],[121.50002656116246,23.761621011575468],[121.49180122238087,23.745808752998872],[121.48925578446621,23.734844196160086],[121.49139180815595,23.720141106811486],[121.49008658772593,23.7058811476826],[121.48267562462208,23.69048764289987],[121.47182301039989,23.678820489418968],[121.46009841411677,23.654991255273046],[121.44761412218283,23.635401885057206],[121.43256749017159,23.622340080138876],[121.4185308094573,23.601246155620828],[121.4089228139073,23.59531623920856],[121.4014025110122,23.590148788662308],[121.40191163090394,23.571396851261294],[121.39504724523796,23.55616086516914],[121.39173466982041,23.547913929786446],[121.38892043495865,23.54398596223255],[121.38864766517133,23.532882432988902],[121.38894989232986,23.519623116044],[121.39216912638207,23.50860194223956],[121.39727713537451,23.500740719941614],[121.40302577668555,23.48560629502581],[121.40330629343313,23.47391422940199],[121.40258999179328,23.46136796442387],[121.40247101028875,23.453774976346097],[121.39151832845447,23.451180057187546],[121.38823571152669,23.44820879317568],[121.38114446308686,23.436360446134657],[121.37343737005155,23.424927486877777],[121.36850848449228,23.41638915062884],[121.359600113494,23.408223598459397],[121.36008274453968,23.404237535810953],[121.35727651126136,23.39564227316679],[121.35435224044343,23.391806544450983],[121.35210444915194,23.37807508045834],[121.34785620554139,23.36511649521351],[121.3456671550448,23.35604366849053],[121.33990236977422,23.344493040540463],[121.33742382592749,23.336285238162485],[121.33691755069644,23.321156794652165],[121.33278966799978,23.308197416534398],[121.32593420532892,23.29635129611119],[121.32124870543666,23.290950774187],[121.31691831691082,23.28250995165191],[121.30891343053781,23.27352917107558],[121.30029753495081,23.26544070365941],[121.2964156943069,23.255559737385955],[121.29299098500346,23.247217797043746],[121.28341055989549,23.237526654380513],[121.27727080755936,23.223795184625747],[121.2731568389907,23.21331959138037],[121.2697378520612,23.199276361323797],[121.26178083348898,23.1876073805279],[121.25204834441898,23.18017720100674],[121.24723658612618,23.16981003353373],[121.23821761255454,23.159232975484695],[121.23778743613673,23.14727375120488],[121.23386743678871,23.12984087389174],[121.2297948284943,23.1204838845992],[121.22416815043317,23.10954070991434],[121.21760410541107,23.096309082653544],[121.21136251442799,23.089256850224835],[121.21450909349069,23.087175124460078],[121.21514481623112,23.07639877316529],[121.20934439822402,23.065643732122737],[121.2059392741238,23.058716009784863],[121.20077977891464,23.053238241190428],[121.19298062868924,23.044914599243786],[121.18675814022916,23.040798312720337],[121.18227236294535,23.030511190218018],[121.17623388584579,23.023994698731954],[121.17343038102307,23.01985185246158],[121.17004173810571,23.00920677377457],[121.1705843406218,22.997048290420345],[121.17304568700777,22.981707561120732],[121.17073729142945,22.96655087815393],[121.1659150458196,22.95387530027213],[121.16238099131225,22.94792286445194],[121.1590800181598,22.93626959217923],[121.1569939704394,22.927926267630472],[121.15255998031958,22.918500393501734],[121.1499272863484,22.908133119571172],[121.14673068228728,22.900798381111716],[121.14335105223022,22.887576059781754],[121.14527677824702,22.875417050878347],[121.14165342667641,22.863893784961473],[121.13685931071848,22.846979970596568],[121.13246757013052,22.83011211535777],[121.13298478068037,22.82056040823597],[121.13350192275044,22.811008688337044],[121.1348514437204,22.806824503390203],[121.13694979312858,22.799572091657115],[121.13859803989665,22.793574955429282],[121.14099846619347,22.7879954412019]]}},{"type":"Feature","properties":{"average_dip":"(45,,)","catalog_id":"TW_34","catalog_name":"Shyu Taiwan","lower_seis_depth":"(20.0,,)","name":"Central Range structure","net_slip_rate":"(7.28,5.52,9.05)","reference":"Shyu et al 2016 modified from Shyu et al. (2006b)","slip_type":"Reverse","upper_seis_depth":"(0.,,)"},"geometry":{"type":"LineString","coordinates":[[121.40121300888761,23.49037915178491],[121.39692572499837,23.48770806723222],[121.39251438252172,23.48495945291124],[121.39033455659307,23.483679116771945],[121.3850426828865,23.476174986293415],[121.38326443727368,23.472604181918094],[121.37879813954018,23.468193151335328],[121.37433046483379,23.46457274465329],[121.37000786590836,23.4613273014293],[121.36816141356894,23.45745854038352],[121.36618683876694,23.456396900233734],[121.36372977730949,23.452921531870576],[121.36304535481747,23.45019060390129],[121.36108723711311,23.44368859034181],[121.35614791810282,23.437057006779536],[121.35402586684887,23.434170873473157],[121.35251684972265,23.42906235960616],[121.34719972211464,23.42901349659547],[121.34496863574462,23.425047991311654],[121.34273768362448,23.4210824505737],[121.34133860076405,23.41673082160778],[121.33777494398016,23.41401696084437],[121.33427039054689,23.408134759657813],[121.3307661493093,23.40225247190657],[121.32728143140405,23.398842080181886],[121.32379689212245,23.395431607282443],[121.3252171920652,23.38908144323889],[121.32640111774582,23.382685056276205],[121.32537032012608,23.378427941862743],[121.32433959004662,23.37417081760718],[121.32333452524323,23.364474748630514],[121.32232961568066,23.354778659582383],[121.32051101657981,23.35161040480523],[121.31474830211835,23.347245239885826],[121.31198835299023,23.34129199264544],[121.30922865269049,23.335338689604693],[121.30405004322162,23.32705410834832],[121.30030219144136,23.31731865490397],[121.2965548930374,23.307583094118126],[121.29258252206756,23.300603361250648],[121.28861056867932,23.2936235173738],[121.28721270912091,23.28837473192349],[121.28581496142667,23.283125929423388],[121.28584335589397,23.27731018710879],[121.2841686008118,23.271559169998362],[121.28249399214438,23.265808129398753],[121.27966408997874,23.260100334922843],[121.27683443097636,23.25439248297283],[121.273229904516,23.24668589743965],[121.27098253996809,23.238690978984955],[121.26793076889095,23.231860474543744],[121.26580071367106,23.226552766278132],[121.26367082880685,23.221245024019513],[121.26013806405503,23.217954285150068],[121.25486249147585,23.21459137497048],[121.25271116909943,23.208830716944007],[121.25332568921175,23.204026602407716],[121.25227706278757,23.199033033000088],[121.24810992731076,23.193468024147244],[121.24404530800382,23.186942111684576],[121.23998108514155,23.180416085519944],[121.23352051237224,23.169858870411343],[121.22706095808176,23.15930136794861],[121.2247644608083,23.15277235825306],[121.21821156219522,23.147786272862295],[121.21165914763276,23.142799908205546],[121.2096776885326,23.142752745488703],[121.2028259192351,23.125086000739753],[121.19597596068678,23.10741890618321],[121.19249563863916,23.094358474362206],[121.18901599862353,23.081297939724195],[121.175368637291,23.04510770495214],[121.16089679280269,22.980781005747115],[121.14548320700938,22.92661466339093],[121.1334229657928,22.896460351446706],[121.12925570880802,22.87571334641825],[121.12320708789865,22.836330566249405],[121.12237037238108,22.827877266047903],[121.11987514945687,22.818848801938913],[121.1196553006068,22.80443879523439],[121.11757053296887,22.79003014738116]]}},{"type":"Feature","properties":{"average_dip":"(36,,)","catalog_id":"TW_35","catalog_name":"Shyu Taiwan","lower_seis_depth":"(4.0,,)","name":"Luyeh fault","net_slip_rate":"(6.34,6.17,6.51)","reference":"Shyu et al 2016 modified from Shyu et al. (2008)","slip_type":"Reverse","upper_seis_depth":"(0.,,)"},"geometry":{"type":"LineString","coordinates":[[121.13488962235894,22.944810455721093],[121.13101431342432,22.941867672513663],[121.12713917186359,22.938924792815744],[121.12376454875219,22.933684246647864],[121.12047978130573,22.929901957441317],[121.11824443195106,22.925296072015815],[121.11464608400975,22.91745068729346],[121.11328299879094,22.914211209482357],[121.11185601788014,22.907962028283894],[121.11209753530872,22.900552288776286],[121.11242905572432,22.89268415474573],[121.11046823372186,22.88866787779843],[121.10917713573205,22.88324965926696],[121.10684336506476,22.880370826480213],[121.10062253600269,22.8755141757716],[121.10032826980724,22.871643795505705],[121.10003402073929,22.867773412754158],[121.09769903481654,22.86255409424581],[121.09555923928552,22.858414780706468],[121.09439083339831,22.85427486282611],[121.09464544619746,22.849518405904327],[121.09613176047746,22.843832260605456],[121.09709898481154,22.838250834263413],[121.09471586997839,22.828539267769624],[121.09311210559305,22.82206769550397],[121.0915275902988,22.81351143190891],[121.09290705239945,22.806969190798927],[121.09686692195194,22.80090396588903]]}},{"type":"Feature","properties":{"average_dip":"(75,,)","catalog_id":"TW_36","catalog_name":"Shyu Taiwan","lower_seis_depth":"(10.55,,)","name":"Taimali coastline structure","net_slip_rate":"(7.32,5.86,8.78)","reference":"Shyu et al 2016 modified from Willett et al. (2003)","slip_type":"Reverse-Strike-Slip","upper_seis_depth":"(0.,,)"},"geometry":{"type":"LineString","coordinates":[[121.04029994792955,22.699011659040334],[121.03907587763996,22.67786970832051],[121.02872571472238,22.66178912080725],[121.0254448162616,22.658137816687145],[121.01466813445822,22.629780651738372],[121.01087625020116,22.620023956789048],[120.99312435551089,22.589760924374836],[120.9840138427277,22.574097397542953],[120.97781314813442,22.556993483556337],[120.96928997959476,22.53214740232967],[120.96616735557318,22.522379915886823],[120.95360767254571,22.486054768454068],[120.94625521540381,22.46156766348357],[120.94035525097193,22.44311190878262],[120.93116574086335,22.422764147443605],[120.92362332717725,22.404847103202332],[120.91724223706747,22.390621034167804],[120.91202200909122,22.379455964294362],[120.90874043134022,22.36505113825276],[120.9064879611428,22.35927856496259],[120.90112433941997,22.3484730994311],[120.89721043197954,22.341179117152187]]}},{"type":"Feature","properties":{"average_dip":"(60,,)","catalog_id":"TW_37","catalog_name":"Shyu Taiwan","lower_seis_depth":"(9.41,,)","name":"Northern Ilan structure","net_slip_rate":"(3.29,1.04,5.54)","reference":"Su (2011)","slip_type":"Normal","upper_seis_depth":"(0.,,)"},"geometry":{"type":"LineString","coordinates":[[121.88359099663502,24.917532243419977],[121.86707647053171,24.904126324165965],[121.8485368151947,24.886298549282543],[121.83542334107767,24.874650423820466],[121.81375184778551,24.86715482328163],[121.79904993198788,24.8619844472155],[121.77890694212178,24.844725769474945],[121.76243730574423,24.827445542185796],[121.74533583687005,24.821471077217094],[121.72027429332284,24.806170740324983],[121.67145938733397,24.74491011336015],[121.65177456736471,24.71252204317173],[121.62341417647079,24.69481977713889],[121.59643118703796,24.67323346417732],[121.57746939295744,24.669023193895892],[121.56741921294093,24.659121737936267],[121.5513154512982,24.643158059480804],[121.52051488949895,24.61756134978716],[121.50555911229236,24.604587665275027],[121.49112152654867,24.603538649233506],[121.48719633568518,24.58221482890974],[121.46998656445005,24.565782870556408],[121.46180094307812,24.55646800892362]]}},{"type":"Feature","properties":{"average_dip":"(60,,)","catalog_id":"TW_38","catalog_name":"Shyu Taiwan","lower_seis_depth":"(11.25,,)","name":"Southern Ilan structure","net_slip_rate":"(5.48,4.85,6.12)","reference":"Su (2011)","slip_type":"Normal","upper_seis_depth":"(0.,,)"},"geometry":{"type":"LineString","coordinates":[[121.68756904562095,24.666934324635463],[121.70007031480185,24.666724257882066],[121.7193622836777,24.658864266226736],[121.74262938554902,24.647173989355714],[121.7482887947606,24.645927281972877],[121.76543390134432,24.642337372927287],[121.77902156100448,24.629624220608417],[121.797481104703,24.62358662545478],[121.80456174515952,24.620746061280823],[121.81285086095002,24.614151346768203],[121.8258432225039,24.613471281621933],[121.83598266002652,24.609759400613203],[121.84980332390442,24.608463360622224],[121.87379313951958,24.608021323454697]]}}],"metadata":{"source":"GEM Global Active Faults","layer_id":"taiwan","feature_count":38}}