{"type":"FeatureCollection","features":[{"type":"Feature","geometry":{"type":"Point","coordinates":[-104.73,21.45]},"properties":{"name":"Sanganguey","classification":"potentially_active","elevation":2340,"country":"Mexico","region":"Middle America-Caribbean Volcanic Regions","last_eruption_year":null,"evidence_category":"Evidence Credible","source":"Smithsonian GVP"}},{"type":"Feature","geometry":{"type":"Point","coordinates":[-104.817,20.567]},"properties":{"name":"Mascota Volcanic Field","classification":"potentially_active","elevation":2525,"country":"Mexico","region":"Middle America-Caribbean Volcanic Regions","last_eruption_year":null,"evidence_category":"Evidence Credible","source":"Smithsonian GVP"}},{"type":"Feature","geometry":{"type":"Point","coordinates":[-104.508,21.125]},"properties":{"name":"Ceboruco","classification":"active","elevation":2280,"country":"Mexico","region":"Middle America-Caribbean Volcanic Regions","last_eruption_year":1875,"evidence_category":"Eruption Observed","source":"Smithsonian GVP"}},{"type":"Feature","geometry":{"type":"Point","coordinates":[-103.62,19.514]},"properties":{"name":"Colima","classification":"active","elevation":3850,"country":"Mexico","region":"Middle America-Caribbean Volcanic Regions","last_eruption_year":2019,"evidence_category":"Eruption Observed","source":"Smithsonian GVP"}},{"type":"Feature","geometry":{"type":"Point","coordinates":[-100.25,19.4]},"properties":{"name":"Zitacuaro-Valle de Bravo","classification":"potentially_active","elevation":3500,"country":"Mexico","region":"Middle America-Caribbean Volcanic Regions","last_eruption_year":-3050,"evidence_category":"Eruption Dated","source":"Smithsonian GVP"}},{"type":"Feature","geometry":{"type":"Point","coordinates":[-99.7579,19.7383]},"properties":{"name":"Jocotitlan","classification":"potentially_active","elevation":3911,"country":"Mexico","region":"Middle America-Caribbean Volcanic Regions","last_eruption_year":1270,"evidence_category":"Eruption Dated","source":"Smithsonian GVP"}},{"type":"Feature","geometry":{"type":"Point","coordinates":[-101.75,19.85]},"properties":{"name":"Michoacan-Guanajuato","classification":"active","elevation":3860,"country":"Mexico","region":"Middle America-Caribbean Volcanic Regions","last_eruption_year":1952,"evidence_category":"Eruption Observed","source":"Smithsonian GVP"}},{"type":"Feature","geometry":{"type":"Point","coordinates":[-99.758,19.108]},"properties":{"name":"Toluca, Nevado de","classification":"potentially_active","elevation":4680,"country":"Mexico","region":"Middle America-Caribbean Volcanic Regions","last_eruption_year":-1350,"evidence_category":"Eruption Dated","source":"Smithsonian GVP"}},{"type":"Feature","geometry":{"type":"Point","coordinates":[-98.642,19.179]},"properties":{"name":"Iztaccihuatl","classification":"potentially_active","elevation":5230,"country":"Mexico","region":"Middle America-Caribbean Volcanic Regions","last_eruption_year":null,"evidence_category":"Evidence Credible","source":"Smithsonian GVP"}},{"type":"Feature","geometry":{"type":"Point","coordinates":[-99.16,19.139]},"properties":{"name":"Chichinautzin","classification":"potentially_active","elevation":3938,"country":"Mexico","region":"Middle America-Caribbean Volcanic Regions","last_eruption_year":399,"evidence_category":"Eruption Dated","source":"Smithsonian GVP"}},{"type":"Feature","geometry":{"type":"Point","coordinates":[-98.032,19.231]},"properties":{"name":"Malinche, La","classification":"potentially_active","elevation":4461,"country":"Mexico","region":"Middle America-Caribbean Volcanic Regions","last_eruption_year":-1170,"evidence_category":"Eruption Dated","source":"Smithsonian GVP"}},{"type":"Feature","geometry":{"type":"Point","coordinates":[-97.47,19.27]},"properties":{"name":"Serdan-Oriental Volcanic Field","classification":"potentially_active","elevation":3485,"country":"Mexico","region":"Middle America-Caribbean Volcanic Regions","last_eruption_year":-3920,"evidence_category":"Eruption Dated","source":"Smithsonian GVP"}},{"type":"Feature","geometry":{"type":"Point","coordinates":[-97.45,19.68]},"properties":{"name":"Humeros, Los","classification":"potentially_active","elevation":3150,"country":"Mexico","region":"Middle America-Caribbean Volcanic Regions","last_eruption_year":-4470,"evidence_category":"Eruption Dated","source":"Smithsonian GVP"}},{"type":"Feature","geometry":{"type":"Point","coordinates":[-96.91,19.635]},"properties":{"name":"Naolinco Volcanic Field","classification":"potentially_active","elevation":2000,"country":"Mexico","region":"Middle America-Caribbean Volcanic Regions","last_eruption_year":1145,"evidence_category":"Eruption Dated","source":"Smithsonian GVP"}},{"type":"Feature","geometry":{"type":"Point","coordinates":[-98.622,19.023]},"properties":{"name":"Popocatepetl","classification":"active","elevation":5393,"country":"Mexico","region":"Middle America-Caribbean Volcanic Regions","last_eruption_year":2026,"evidence_category":"Eruption Observed","source":"Smithsonian GVP"}},{"type":"Feature","geometry":{"type":"Point","coordinates":[-97.27,19.03]},"properties":{"name":"Orizaba, Pico de","classification":"active","elevation":5564,"country":"Mexico","region":"Middle America-Caribbean Volcanic Regions","last_eruption_year":1846,"evidence_category":"Eruption Observed","source":"Smithsonian GVP"}},{"type":"Feature","geometry":{"type":"Point","coordinates":[-95.1989,18.5615]},"properties":{"name":"San Martin","classification":"active","elevation":1660,"country":"Mexico","region":"Middle America-Caribbean Volcanic Regions","last_eruption_year":1796,"evidence_category":"Eruption Observed","source":"Smithsonian GVP"}},{"type":"Feature","geometry":{"type":"Point","coordinates":[-93.2297,17.3602]},"properties":{"name":"Chichon, El","classification":"active","elevation":1150,"country":"Mexico","region":"Middle America-Caribbean Volcanic Regions","last_eruption_year":1982,"evidence_category":"Eruption Observed","source":"Smithsonian GVP"}},{"type":"Feature","geometry":{"type":"Point","coordinates":[-92.109,15.132]},"properties":{"name":"Tacana","classification":"active","elevation":4064,"country":"Mexico-Guatemala","region":"Middle America-Caribbean Volcanic Regions","last_eruption_year":1986,"evidence_category":"Eruption Observed","source":"Smithsonian GVP"}},{"type":"Feature","geometry":{"type":"Point","coordinates":[-91.903,15.043]},"properties":{"name":"Tajumulco","classification":"potentially_active","elevation":4203,"country":"Guatemala","region":"Middle America-Caribbean Volcanic Regions","last_eruption_year":null,"evidence_category":"Evidence Credible","source":"Smithsonian GVP"}},{"type":"Feature","geometry":{"type":"Point","coordinates":[-91.552,14.757]},"properties":{"name":"Santa Maria","classification":"active","elevation":3745,"country":"Guatemala","region":"Middle America-Caribbean Volcanic Regions","last_eruption_year":2026,"evidence_category":"Eruption Observed","source":"Smithsonian GVP"}},{"type":"Feature","geometry":{"type":"Point","coordinates":[-91.519,14.797]},"properties":{"name":"Almolonga","classification":"active","elevation":3173,"country":"Guatemala","region":"Middle America-Caribbean Volcanic Regions","last_eruption_year":1818,"evidence_category":"Eruption Observed","source":"Smithsonian GVP"}},{"type":"Feature","geometry":{"type":"Point","coordinates":[-91.186,14.583]},"properties":{"name":"Atitlan","classification":"active","elevation":3535,"country":"Guatemala","region":"Middle America-Caribbean Volcanic Regions","last_eruption_year":1853,"evidence_category":"Eruption Observed","source":"Smithsonian GVP"}},{"type":"Feature","geometry":{"type":"Point","coordinates":[-91.189,14.612]},"properties":{"name":"Toliman","classification":"potentially_active","elevation":3158,"country":"Guatemala","region":"Middle America-Caribbean Volcanic Regions","last_eruption_year":null,"evidence_category":"Evidence Credible","source":"Smithsonian GVP"}},{"type":"Feature","geometry":{"type":"Point","coordinates":[-90.876,14.501]},"properties":{"name":"Acatenango","classification":"active","elevation":3976,"country":"Guatemala","region":"Middle America-Caribbean Volcanic Regions","last_eruption_year":1972,"evidence_category":"Eruption Observed","source":"Smithsonian GVP"}},{"type":"Feature","geometry":{"type":"Point","coordinates":[-90.8806,14.4748]},"properties":{"name":"Fuego","classification":"active","elevation":3799,"country":"Guatemala","region":"Middle America-Caribbean Volcanic Regions","last_eruption_year":2026,"evidence_category":"Eruption Observed","source":"Smithsonian GVP"}},{"type":"Feature","geometry":{"type":"Point","coordinates":[-90.743,14.465]},"properties":{"name":"Agua","classification":"potentially_active","elevation":3760,"country":"Guatemala","region":"Middle America-Caribbean Volcanic Regions","last_eruption_year":null,"evidence_category":"Evidence Credible","source":"Smithsonian GVP"}},{"type":"Feature","geometry":{"type":"Point","coordinates":[-90.4,14.33]},"properties":{"name":"Cuilapa-Barbarena","classification":"potentially_active","elevation":1454,"country":"Guatemala","region":"Middle America-Caribbean Volcanic Regions","last_eruption_year":null,"evidence_category":"Evidence Credible","source":"Smithsonian GVP"}},{"type":"Feature","geometry":{"type":"Point","coordinates":[-90.601,14.382]},"properties":{"name":"Pacaya","classification":"active","elevation":2569,"country":"Guatemala","region":"Middle America-Caribbean Volcanic Regions","last_eruption_year":2021,"evidence_category":"Eruption Observed","source":"Smithsonian GVP"}},{"type":"Feature","geometry":{"type":"Point","coordinates":[-90.271,14.34]},"properties":{"name":"Jumaytepeque","classification":"dormant","elevation":1802,"country":"Guatemala","region":"Middle America-Caribbean Volcanic Regions","last_eruption_year":null,"evidence_category":"Evidence Uncertain","source":"Smithsonian GVP"}},{"type":"Feature","geometry":{"type":"Point","coordinates":[-90.407,14.156]},"properties":{"name":"Tecuamburro","classification":"potentially_active","elevation":1845,"country":"Guatemala","region":"Middle America-Caribbean Volcanic Regions","last_eruption_year":-960,"evidence_category":"Eruption Dated","source":"Smithsonian GVP"}},{"type":"Feature","geometry":{"type":"Point","coordinates":[-90.1,14.03]},"properties":{"name":"Moyuta","classification":"potentially_active","elevation":1662,"country":"Guatemala","region":"Middle America-Caribbean Volcanic Regions","last_eruption_year":null,"evidence_category":"Evidence Credible","source":"Smithsonian GVP"}},{"type":"Feature","geometry":{"type":"Point","coordinates":[-89.992,14.308]},"properties":{"name":"Flores","classification":"potentially_active","elevation":1600,"country":"Guatemala","region":"Middle America-Caribbean Volcanic Regions","last_eruption_year":null,"evidence_category":"Evidence Credible","source":"Smithsonian GVP"}},{"type":"Feature","geometry":{"type":"Point","coordinates":[-89.9,14.43]},"properties":{"name":"Tahual","classification":"potentially_active","elevation":1716,"country":"Guatemala","region":"Middle America-Caribbean Volcanic Regions","last_eruption_year":null,"evidence_category":"Evidence Credible","source":"Smithsonian GVP"}},{"type":"Feature","geometry":{"type":"Point","coordinates":[-89.87,14.33]},"properties":{"name":"Santiago, Cerro","classification":"potentially_active","elevation":1192,"country":"Guatemala","region":"Middle America-Caribbean Volcanic Regions","last_eruption_year":null,"evidence_category":"Evidence Credible","source":"Smithsonian GVP"}},{"type":"Feature","geometry":{"type":"Point","coordinates":[-89.78,14.4]},"properties":{"name":"Suchitan","classification":"potentially_active","elevation":2042,"country":"Guatemala","region":"Middle America-Caribbean Volcanic Regions","last_eruption_year":null,"evidence_category":"Evidence Credible","source":"Smithsonian GVP"}},{"type":"Feature","geometry":{"type":"Point","coordinates":[-89.73,14.12]},"properties":{"name":"Chingo","classification":"potentially_active","elevation":1775,"country":"Guatemala-El Salvador","region":"Middle America-Caribbean Volcanic Regions","last_eruption_year":null,"evidence_category":"Evidence Credible","source":"Smithsonian GVP"}},{"type":"Feature","geometry":{"type":"Point","coordinates":[-89.68,14.42]},"properties":{"name":"Ixtepeque","classification":"potentially_active","elevation":1292,"country":"Guatemala","region":"Middle America-Caribbean Volcanic Regions","last_eruption_year":null,"evidence_category":"Evidence Credible","source":"Smithsonian GVP"}},{"type":"Feature","geometry":{"type":"Point","coordinates":[-89.631,14.054]},"properties":{"name":"Singuil, Cerro","classification":"potentially_active","elevation":926,"country":"El Salvador","region":"Middle America-Caribbean Volcanic Regions","last_eruption_year":null,"evidence_category":"Evidence Credible","source":"Smithsonian GVP"}},{"type":"Feature","geometry":{"type":"Point","coordinates":[-89.742,13.872]},"properties":{"name":"Apaneca Range","classification":"potentially_active","elevation":2028,"country":"El Salvador","region":"Middle America-Caribbean Volcanic Regions","last_eruption_year":null,"evidence_category":"Evidence Credible","source":"Smithsonian GVP"}},{"type":"Feature","geometry":{"type":"Point","coordinates":[-89.63,13.853]},"properties":{"name":"Santa Ana","classification":"active","elevation":2381,"country":"El Salvador","region":"Middle America-Caribbean Volcanic Regions","last_eruption_year":2005,"evidence_category":"Eruption Observed","source":"Smithsonian GVP"}},{"type":"Feature","geometry":{"type":"Point","coordinates":[-89.633,13.813]},"properties":{"name":"Izalco","classification":"active","elevation":1950,"country":"El Salvador","region":"Middle America-Caribbean Volcanic Regions","last_eruption_year":1966,"evidence_category":"Eruption Observed","source":"Smithsonian GVP"}},{"type":"Feature","geometry":{"type":"Point","coordinates":[-89.55,13.87]},"properties":{"name":"Coatepeque Caldera","classification":"potentially_active","elevation":746,"country":"El Salvador","region":"Middle America-Caribbean Volcanic Regions","last_eruption_year":null,"evidence_category":"Evidence Credible","source":"Smithsonian GVP"}},{"type":"Feature","geometry":{"type":"Point","coordinates":[-89.25,14.02]},"properties":{"name":"Cinotepeque, Cerro","classification":"potentially_active","elevation":665,"country":"El Salvador","region":"Middle America-Caribbean Volcanic Regions","last_eruption_year":null,"evidence_category":"Evidence Credible","source":"Smithsonian GVP"}},{"type":"Feature","geometry":{"type":"Point","coordinates":[-89.294,13.734]},"properties":{"name":"San Salvador","classification":"active","elevation":1893,"country":"El Salvador","region":"Middle America-Caribbean Volcanic Regions","last_eruption_year":1917,"evidence_category":"Eruption Observed","source":"Smithsonian GVP"}},{"type":"Feature","geometry":{"type":"Point","coordinates":[-89.053,13.672]},"properties":{"name":"Ilopango","classification":"active","elevation":450,"country":"El Salvador","region":"Middle America-Caribbean Volcanic Regions","last_eruption_year":1880,"evidence_category":"Eruption Observed","source":"Smithsonian GVP"}},{"type":"Feature","geometry":{"type":"Point","coordinates":[-88.532,13.435]},"properties":{"name":"Taburete","classification":"dormant","elevation":1172,"country":"El Salvador","region":"Middle America-Caribbean Volcanic Regions","last_eruption_year":null,"evidence_category":"Evidence Uncertain","source":"Smithsonian GVP"}},{"type":"Feature","geometry":{"type":"Point","coordinates":[-88.8375,13.5969]},"properties":{"name":"San Vicente","classification":"potentially_active","elevation":2149,"country":"El Salvador","region":"Middle America-Caribbean Volcanic Regions","last_eruption_year":null,"evidence_category":"Evidence Credible","source":"Smithsonian GVP"}},{"type":"Feature","geometry":{"type":"Point","coordinates":[-88.471,13.419]},"properties":{"name":"Usulutan","classification":"potentially_active","elevation":1449,"country":"El Salvador","region":"Middle America-Caribbean Volcanic Regions","last_eruption_year":null,"evidence_category":"Evidence Credible","source":"Smithsonian GVP"}},{"type":"Feature","geometry":{"type":"Point","coordinates":[-88.43,13.47]},"properties":{"name":"Tigre, El","classification":"potentially_active","elevation":1640,"country":"El Salvador","region":"Middle America-Caribbean Volcanic Regions","last_eruption_year":null,"evidence_category":"Evidence Credible","source":"Smithsonian GVP"}},{"type":"Feature","geometry":{"type":"Point","coordinates":[-88.502,13.494]},"properties":{"name":"Tecapa","classification":"potentially_active","elevation":1593,"country":"El Salvador","region":"Middle America-Caribbean Volcanic Regions","last_eruption_year":null,"evidence_category":"Evidence Credible","source":"Smithsonian GVP"}},{"type":"Feature","geometry":{"type":"Point","coordinates":[-88.33,13.478]},"properties":{"name":"Chinameca","classification":"potentially_active","elevation":1300,"country":"El Salvador","region":"Middle America-Caribbean Volcanic Regions","last_eruption_year":null,"evidence_category":"Evidence Credible","source":"Smithsonian GVP"}},{"type":"Feature","geometry":{"type":"Point","coordinates":[-88.105,13.428]},"properties":{"name":"Aramuaca, Laguna","classification":"potentially_active","elevation":181,"country":"El Salvador","region":"Middle America-Caribbean Volcanic Regions","last_eruption_year":null,"evidence_category":"Evidence Credible","source":"Smithsonian GVP"}},{"type":"Feature","geometry":{"type":"Point","coordinates":[-88.269,13.434]},"properties":{"name":"San Miguel","classification":"active","elevation":2130,"country":"El Salvador","region":"Middle America-Caribbean Volcanic Regions","last_eruption_year":2023,"evidence_category":"Eruption Observed","source":"Smithsonian GVP"}},{"type":"Feature","geometry":{"type":"Point","coordinates":[-87.639,13.274]},"properties":{"name":"Tigre, Isla del","classification":"potentially_active","elevation":774,"country":"Honduras","region":"Middle America-Caribbean Volcanic Regions","last_eruption_year":null,"evidence_category":"Evidence Credible","source":"Smithsonian GVP"}},{"type":"Feature","geometry":{"type":"Point","coordinates":[-87.63,13.33]},"properties":{"name":"Zacate Grande, Isla","classification":"potentially_active","elevation":640,"country":"Honduras","region":"Middle America-Caribbean Volcanic Regions","last_eruption_year":null,"evidence_category":"Evidence Credible","source":"Smithsonian GVP"}},{"type":"Feature","geometry":{"type":"Point","coordinates":[-87.983,14.964]},"properties":{"name":"Yojoa, Lago","classification":"potentially_active","elevation":1060,"country":"Honduras","region":"Middle America-Caribbean Volcanic Regions","last_eruption_year":-7638,"evidence_category":"Eruption Dated","source":"Smithsonian GVP"}},{"type":"Feature","geometry":{"type":"Point","coordinates":[-87.57,12.98]},"properties":{"name":"Cosiguina","classification":"active","elevation":872,"country":"Nicaragua","region":"Middle America-Caribbean Volcanic Regions","last_eruption_year":1859,"evidence_category":"Eruption Observed","source":"Smithsonian GVP"}},{"type":"Feature","geometry":{"type":"Point","coordinates":[-87.004,12.702]},"properties":{"name":"San Cristobal","classification":"active","elevation":1745,"country":"Nicaragua","region":"Middle America-Caribbean Volcanic Regions","last_eruption_year":2024,"evidence_category":"Eruption Observed","source":"Smithsonian GVP"}},{"type":"Feature","geometry":{"type":"Point","coordinates":[-86.84,12.606]},"properties":{"name":"Telica","classification":"active","elevation":1036,"country":"Nicaragua","region":"Middle America-Caribbean Volcanic Regions","last_eruption_year":2025,"evidence_category":"Eruption Observed","source":"Smithsonian GVP"}},{"type":"Feature","geometry":{"type":"Point","coordinates":[-86.702,12.506]},"properties":{"name":"Negro, Cerro","classification":"active","elevation":728,"country":"Nicaragua","region":"Middle America-Caribbean Volcanic Regions","last_eruption_year":1999,"evidence_category":"Eruption Observed","source":"Smithsonian GVP"}},{"type":"Feature","geometry":{"type":"Point","coordinates":[-86.6786,12.4922]},"properties":{"name":"Las Pilas-El Hoyo Complex","classification":"active","elevation":1088,"country":"Nicaragua","region":"Middle America-Caribbean Volcanic Regions","last_eruption_year":1954,"evidence_category":"Eruption Observed","source":"Smithsonian GVP"}},{"type":"Feature","geometry":{"type":"Point","coordinates":[-86.342,12.242]},"properties":{"name":"Apoyeque","classification":"potentially_active","elevation":518,"country":"Nicaragua","region":"Middle America-Caribbean Volcanic Regions","last_eruption_year":-50,"evidence_category":"Eruption Dated","source":"Smithsonian GVP"}},{"type":"Feature","geometry":{"type":"Point","coordinates":[-86.32,12.12]},"properties":{"name":"Nejapa-Miraflores","classification":"potentially_active","elevation":360,"country":"Nicaragua","region":"Middle America-Caribbean Volcanic Regions","last_eruption_year":1060,"evidence_category":"Eruption Dated","source":"Smithsonian GVP"}},{"type":"Feature","geometry":{"type":"Point","coordinates":[-86.539,12.423]},"properties":{"name":"Momotombo","classification":"active","elevation":1270,"country":"Nicaragua","region":"Middle America-Caribbean Volcanic Regions","last_eruption_year":2016,"evidence_category":"Eruption Observed","source":"Smithsonian GVP"}},{"type":"Feature","geometry":{"type":"Point","coordinates":[-85.979,11.9]},"properties":{"name":"Granada","classification":"potentially_active","elevation":250,"country":"Nicaragua","region":"Middle America-Caribbean Volcanic Regions","last_eruption_year":null,"evidence_category":"Evidence Credible","source":"Smithsonian GVP"}},{"type":"Feature","geometry":{"type":"Point","coordinates":[-86.1688,11.9844]},"properties":{"name":"Masaya","classification":"active","elevation":594,"country":"Nicaragua","region":"Middle America-Caribbean Volcanic Regions","last_eruption_year":2026,"evidence_category":"Eruption Observed","source":"Smithsonian GVP"}},{"type":"Feature","geometry":{"type":"Point","coordinates":[-85.82,11.73]},"properties":{"name":"Zapatera","classification":"potentially_active","elevation":629,"country":"Nicaragua","region":"Middle America-Caribbean Volcanic Regions","last_eruption_year":null,"evidence_category":"Evidence Credible","source":"Smithsonian GVP"}},{"type":"Feature","geometry":{"type":"Point","coordinates":[-85.968,11.826]},"properties":{"name":"Mombacho","classification":"active","elevation":1344,"country":"Nicaragua","region":"Middle America-Caribbean Volcanic Regions","last_eruption_year":null,"evidence_category":"Unrest / Holocene","source":"Smithsonian GVP"}},{"type":"Feature","geometry":{"type":"Point","coordinates":[-85.622,11.538]},"properties":{"name":"Concepcion","classification":"active","elevation":1700,"country":"Nicaragua","region":"Middle America-Caribbean Volcanic Regions","last_eruption_year":2024,"evidence_category":"Eruption Observed","source":"Smithsonian GVP"}},{"type":"Feature","geometry":{"type":"Point","coordinates":[-85.473,10.98]},"properties":{"name":"Orosi","classification":"dormant","elevation":1659,"country":"Costa Rica","region":"Middle America-Caribbean Volcanic Regions","last_eruption_year":null,"evidence_category":"Evidence Uncertain","source":"Smithsonian GVP"}},{"type":"Feature","geometry":{"type":"Point","coordinates":[-85.3364,10.8314]},"properties":{"name":"Rincon de la Vieja","classification":"active","elevation":1729,"country":"Costa Rica","region":"Middle America-Caribbean Volcanic Regions","last_eruption_year":2024,"evidence_category":"Eruption Observed","source":"Smithsonian GVP"}},{"type":"Feature","geometry":{"type":"Point","coordinates":[-85.015,10.673]},"properties":{"name":"Tenorio","classification":"potentially_active","elevation":1916,"country":"Costa Rica","region":"Middle America-Caribbean Volcanic Regions","last_eruption_year":null,"evidence_category":"Evidence Credible","source":"Smithsonian GVP"}},{"type":"Feature","geometry":{"type":"Point","coordinates":[-84.703,10.463]},"properties":{"name":"Arenal","classification":"active","elevation":1670,"country":"Costa Rica","region":"Middle America-Caribbean Volcanic Regions","last_eruption_year":2010,"evidence_category":"Eruption Observed","source":"Smithsonian GVP"}},{"type":"Feature","geometry":{"type":"Point","coordinates":[-84.366,10.3]},"properties":{"name":"Platanar","classification":"potentially_active","elevation":2267,"country":"Costa Rica","region":"Middle America-Caribbean Volcanic Regions","last_eruption_year":null,"evidence_category":"Evidence Credible","source":"Smithsonian GVP"}},{"type":"Feature","geometry":{"type":"Point","coordinates":[-85.153,10.748]},"properties":{"name":"Miravalles","classification":"active","elevation":2028,"country":"Costa Rica","region":"Middle America-Caribbean Volcanic Regions","last_eruption_year":1946,"evidence_category":"Eruption Observed","source":"Smithsonian GVP"}},{"type":"Feature","geometry":{"type":"Point","coordinates":[-84.233,10.2]},"properties":{"name":"Poas","classification":"active","elevation":2697,"country":"Costa Rica","region":"Middle America-Caribbean Volcanic Regions","last_eruption_year":2026,"evidence_category":"Eruption Observed","source":"Smithsonian GVP"}},{"type":"Feature","geometry":{"type":"Point","coordinates":[-84.1,10.135]},"properties":{"name":"Barva","classification":"potentially_active","elevation":2906,"country":"Costa Rica","region":"Middle America-Caribbean Volcanic Regions","last_eruption_year":-6050,"evidence_category":"Eruption Dated","source":"Smithsonian GVP"}},{"type":"Feature","geometry":{"type":"Point","coordinates":[-83.852,9.979]},"properties":{"name":"Irazu","classification":"active","elevation":3436,"country":"Costa Rica","region":"Middle America-Caribbean Volcanic Regions","last_eruption_year":1977,"evidence_category":"Eruption Observed","source":"Smithsonian GVP"}},{"type":"Feature","geometry":{"type":"Point","coordinates":[-83.767,10.025]},"properties":{"name":"Turrialba","classification":"active","elevation":3340,"country":"Costa Rica","region":"Middle America-Caribbean Volcanic Regions","last_eruption_year":2022,"evidence_category":"Eruption Observed","source":"Smithsonian GVP"}},{"type":"Feature","geometry":{"type":"Point","coordinates":[-82.543,8.808]},"properties":{"name":"Baru","classification":"active","elevation":3474,"country":"Panama","region":"Middle America-Caribbean Volcanic Regions","last_eruption_year":1550,"evidence_category":"Eruption Observed","source":"Smithsonian GVP"}},{"type":"Feature","geometry":{"type":"Point","coordinates":[-63.23,17.63]},"properties":{"name":"Saba","classification":"active","elevation":887,"country":"Netherlands","region":"Middle America-Caribbean Volcanic Regions","last_eruption_year":1640,"evidence_category":"Eruption Observed","source":"Smithsonian GVP"}},{"type":"Feature","geometry":{"type":"Point","coordinates":[-62.96,17.478]},"properties":{"name":"Quill, The","classification":"potentially_active","elevation":601,"country":"Netherlands","region":"Middle America-Caribbean Volcanic Regions","last_eruption_year":250,"evidence_category":"Eruption Dated","source":"Smithsonian GVP"}},{"type":"Feature","geometry":{"type":"Point","coordinates":[-62.8,17.37]},"properties":{"name":"Liamuiga","classification":"potentially_active","elevation":1156,"country":"Saint Kitts and Nevis","region":"Middle America-Caribbean Volcanic Regions","last_eruption_year":160,"evidence_category":"Eruption Dated","source":"Smithsonian GVP"}},{"type":"Feature","geometry":{"type":"Point","coordinates":[-62.58,17.15]},"properties":{"name":"Nevis Peak","classification":"dormant","elevation":985,"country":"Saint Kitts and Nevis","region":"Middle America-Caribbean Volcanic Regions","last_eruption_year":null,"evidence_category":"Evidence Uncertain","source":"Smithsonian GVP"}},{"type":"Feature","geometry":{"type":"Point","coordinates":[-62.18,16.72]},"properties":{"name":"Soufriere Hills","classification":"active","elevation":915,"country":"United Kingdom","region":"Middle America-Caribbean Volcanic Regions","last_eruption_year":2013,"evidence_category":"Eruption Observed","source":"Smithsonian GVP"}},{"type":"Feature","geometry":{"type":"Point","coordinates":[-61.664,16.044]},"properties":{"name":"Soufriere Guadeloupe","classification":"active","elevation":1467,"country":"France","region":"Middle America-Caribbean Volcanic Regions","last_eruption_year":1977,"evidence_category":"Eruption Observed","source":"Smithsonian GVP"}},{"type":"Feature","geometry":{"type":"Point","coordinates":[-61.43,15.612]},"properties":{"name":"Diables, Morne aux","classification":"potentially_active","elevation":861,"country":"Dominica","region":"Middle America-Caribbean Volcanic Regions","last_eruption_year":null,"evidence_category":"Evidence Credible","source":"Smithsonian GVP"}},{"type":"Feature","geometry":{"type":"Point","coordinates":[-61.397,15.503]},"properties":{"name":"Diablotins, Morne","classification":"dormant","elevation":1430,"country":"Dominica","region":"Middle America-Caribbean Volcanic Regions","last_eruption_year":null,"evidence_category":"Evidence Uncertain","source":"Smithsonian GVP"}},{"type":"Feature","geometry":{"type":"Point","coordinates":[-61.305,15.307]},"properties":{"name":"Watt, Morne","classification":"active","elevation":1224,"country":"Dominica","region":"Middle America-Caribbean Volcanic Regions","last_eruption_year":1997,"evidence_category":"Eruption Observed","source":"Smithsonian GVP"}},{"type":"Feature","geometry":{"type":"Point","coordinates":[-61.33,15.37]},"properties":{"name":"Trois Pitons, Morne","classification":"potentially_active","elevation":1387,"country":"Dominica","region":"Middle America-Caribbean Volcanic Regions","last_eruption_year":920,"evidence_category":"Eruption Dated","source":"Smithsonian GVP"}},{"type":"Feature","geometry":{"type":"Point","coordinates":[-61.341,15.255]},"properties":{"name":"Plat Pays, Morne","classification":"potentially_active","elevation":940,"country":"Dominica","region":"Middle America-Caribbean Volcanic Regions","last_eruption_year":1270,"evidence_category":"Eruption Dated","source":"Smithsonian GVP"}},{"type":"Feature","geometry":{"type":"Point","coordinates":[-61.166,14.809]},"properties":{"name":"Pelee","classification":"active","elevation":1372,"country":"France","region":"Middle America-Caribbean Volcanic Regions","last_eruption_year":1932,"evidence_category":"Eruption Observed","source":"Smithsonian GVP"}},{"type":"Feature","geometry":{"type":"Point","coordinates":[-61.05,13.83]},"properties":{"name":"Qualibou","classification":"active","elevation":777,"country":"Saint Lucia","region":"Middle America-Caribbean Volcanic Regions","last_eruption_year":1766,"evidence_category":"Eruption Observed","source":"Smithsonian GVP"}},{"type":"Feature","geometry":{"type":"Point","coordinates":[-61.18,13.33]},"properties":{"name":"Soufriere St. Vincent","classification":"active","elevation":1220,"country":"Saint Vincent and the Grenadines","region":"Middle America-Caribbean Volcanic Regions","last_eruption_year":2021,"evidence_category":"Eruption Observed","source":"Smithsonian GVP"}},{"type":"Feature","geometry":{"type":"Point","coordinates":[-61.64,12.3]},"properties":{"name":"Kick 'em Jenny","classification":"active","elevation":-185,"country":"Grenada","region":"Middle America-Caribbean Volcanic Regions","last_eruption_year":2017,"evidence_category":"Eruption Observed","source":"Smithsonian GVP"}},{"type":"Feature","geometry":{"type":"Point","coordinates":[-61.67,12.15]},"properties":{"name":"St. Catherine","classification":"potentially_active","elevation":840,"country":"Grenada","region":"Middle America-Caribbean Volcanic Regions","last_eruption_year":null,"evidence_category":"Evidence Credible","source":"Smithsonian GVP"}}],"metadata":{"source":"Smithsonian Global Volcanism Program","layer_id":"central-america","feature_count":97}}