{"type":"FeatureCollection","features":[{"type":"Feature","geometry":{"type":"Point","coordinates":[110.229,19.905]},"properties":{"name":"Hainan Volcanic Field","classification":"active","elevation":196,"country":"China","region":"Eastern Asia Volcanic Regions","last_eruption_year":1933,"evidence_category":"Eruption Observed","source":"Smithsonian GVP"}},{"type":"Feature","geometry":{"type":"Point","coordinates":[109.12,15.38]},"properties":{"name":"Ly Son Group","classification":"potentially_active","elevation":157,"country":"Vietnam","region":"Eastern Asia Volcanic Regions","last_eruption_year":null,"evidence_category":"Evidence Credible","source":"Smithsonian GVP"}},{"type":"Feature","geometry":{"type":"Point","coordinates":[109.014,10.158]},"properties":{"name":"Cendres, Ile des","classification":"active","elevation":-20,"country":"Vietnam","region":"Eastern Asia Volcanic Regions","last_eruption_year":1923,"evidence_category":"Eruption Observed","source":"Smithsonian GVP"}},{"type":"Feature","geometry":{"type":"Point","coordinates":[95.25,20.92]},"properties":{"name":"Popa","classification":"potentially_active","elevation":1518,"country":"Burma (Myanmar)","region":"Eastern Asia Volcanic Regions","last_eruption_year":-6050,"evidence_category":"Eruption Dated","source":"Smithsonian GVP"}},{"type":"Feature","geometry":{"type":"Point","coordinates":[98.5,25.23]},"properties":{"name":"Tengchong","classification":"potentially_active","elevation":2865,"country":"China","region":"Eastern Asia Volcanic Regions","last_eruption_year":-5750,"evidence_category":"Eruption Dated","source":"Smithsonian GVP"}},{"type":"Feature","geometry":{"type":"Point","coordinates":[117.77,56.28]},"properties":{"name":"Udokan Plateau","classification":"potentially_active","elevation":2180,"country":"Russia","region":"Eastern Asia Volcanic Regions","last_eruption_year":-220,"evidence_category":"Eruption Dated","source":"Smithsonian GVP"}},{"type":"Feature","geometry":{"type":"Point","coordinates":[99.021,52.713]},"properties":{"name":"Jombolok","classification":"potentially_active","elevation":2047,"country":"Russia","region":"Eastern Asia Volcanic Regions","last_eruption_year":737,"evidence_category":"Eruption Dated","source":"Smithsonian GVP"}},{"type":"Feature","geometry":{"type":"Point","coordinates":[99.95,48.133]},"properties":{"name":"Taryatu-Chulutu","classification":"potentially_active","elevation":2326,"country":"Mongolia","region":"Eastern Asia Volcanic Regions","last_eruption_year":-2980,"evidence_category":"Eruption Dated","source":"Smithsonian GVP"}},{"type":"Feature","geometry":{"type":"Point","coordinates":[81.646,35.742]},"properties":{"name":"Ashikule Volcanic Field","classification":"active","elevation":5090,"country":"China","region":"Eastern Asia Volcanic Regions","last_eruption_year":1951,"evidence_category":"Eruption Observed","source":"Smithsonian GVP"}},{"type":"Feature","geometry":{"type":"Point","coordinates":[113.111,41.59]},"properties":{"name":"Honggeertu","classification":"dormant","elevation":1605,"country":"China","region":"Eastern Asia Volcanic Regions","last_eruption_year":null,"evidence_category":"Evidence Uncertain","source":"Smithsonian GVP"}},{"type":"Feature","geometry":{"type":"Point","coordinates":[120.8,47.45]},"properties":{"name":"Arxan-Chaihe","classification":"potentially_active","elevation":1677,"country":"China","region":"Eastern Asia Volcanic Regions","last_eruption_year":0,"evidence_category":"Eruption Dated","source":"Smithsonian GVP"}},{"type":"Feature","geometry":{"type":"Point","coordinates":[125.92,49.37]},"properties":{"name":"Keluo Group","classification":"potentially_active","elevation":670,"country":"China","region":"Eastern Asia Volcanic Regions","last_eruption_year":null,"evidence_category":"Evidence Credible","source":"Smithsonian GVP"}},{"type":"Feature","geometry":{"type":"Point","coordinates":[126.15,48.722]},"properties":{"name":"Wudalianchi","classification":"active","elevation":597,"country":"China","region":"Eastern Asia Volcanic Regions","last_eruption_year":1776,"evidence_category":"Eruption Observed","source":"Smithsonian GVP"}},{"type":"Feature","geometry":{"type":"Point","coordinates":[128.83,44.08]},"properties":{"name":"Jingpohu","classification":"potentially_active","elevation":1000,"country":"China","region":"Eastern Asia Volcanic Regions","last_eruption_year":-520,"evidence_category":"Eruption Dated","source":"Smithsonian GVP"}},{"type":"Feature","geometry":{"type":"Point","coordinates":[126.5,42.33]},"properties":{"name":"Longgang Group","classification":"potentially_active","elevation":1000,"country":"China","region":"Eastern Asia Volcanic Regions","last_eruption_year":350,"evidence_category":"Eruption Dated","source":"Smithsonian GVP"}},{"type":"Feature","geometry":{"type":"Point","coordinates":[128.08,41.98]},"properties":{"name":"Changbaishan","classification":"active","elevation":2744,"country":"China-North Korea","region":"Eastern Asia Volcanic Regions","last_eruption_year":1903,"evidence_category":"Eruption Observed","source":"Smithsonian GVP"}},{"type":"Feature","geometry":{"type":"Point","coordinates":[130.87,37.5]},"properties":{"name":"Ulleungdo","classification":"potentially_active","elevation":984,"country":"South Korea","region":"Eastern Asia Volcanic Regions","last_eruption_year":-2990,"evidence_category":"Eruption Dated","source":"Smithsonian GVP"}},{"type":"Feature","geometry":{"type":"Point","coordinates":[126.53,33.361]},"properties":{"name":"Halla","classification":"active","elevation":1919,"country":"South Korea","region":"Eastern Asia Volcanic Regions","last_eruption_year":1007,"evidence_category":"Eruption Observed","source":"Smithsonian GVP"}},{"type":"Feature","geometry":{"type":"Point","coordinates":[101.7982,46.6459]},"properties":{"name":"Khoid Naiman Nuur","classification":"dormant","elevation":2532,"country":"Mongolia","region":"Eastern Asia Volcanic Regions","last_eruption_year":null,"evidence_category":"Evidence Uncertain","source":"Smithsonian GVP"}}],"metadata":{"source":"Smithsonian Global Volcanism Program","layer_id":"eastern-asia","feature_count":19}}