{"type":"FeatureCollection","features":[{"type":"Feature","geometry":{"type":"Point","coordinates":[41.83,15.55]},"properties":{"name":"Tair, Jebel at","classification":"active","elevation":244,"country":"Yemen","region":"Eastern Africa Volcanic Regions","last_eruption_year":2008,"evidence_category":"Eruption Observed","source":"Smithsonian GVP"}},{"type":"Feature","geometry":{"type":"Point","coordinates":[42.75,14.02]},"properties":{"name":"Zukur","classification":"potentially_active","elevation":624,"country":"Yemen","region":"Eastern Africa Volcanic Regions","last_eruption_year":null,"evidence_category":"Evidence Credible","source":"Smithsonian GVP"}},{"type":"Feature","geometry":{"type":"Point","coordinates":[42.73,13.72]},"properties":{"name":"Hanish","classification":"potentially_active","elevation":422,"country":"Yemen","region":"Eastern Africa Volcanic Regions","last_eruption_year":null,"evidence_category":"Evidence Credible","source":"Smithsonian GVP"}},{"type":"Feature","geometry":{"type":"Point","coordinates":[42.18,15.05]},"properties":{"name":"Zubair Group","classification":"active","elevation":191,"country":"Yemen","region":"Eastern Africa Volcanic Regions","last_eruption_year":2013,"evidence_category":"Eruption Observed","source":"Smithsonian GVP"}},{"type":"Feature","geometry":{"type":"Point","coordinates":[40.3,14.242]},"properties":{"name":"Dallol","classification":"active","elevation":-48,"country":"Ethiopia","region":"Eastern Africa Volcanic Regions","last_eruption_year":2011,"evidence_category":"Eruption Observed","source":"Smithsonian GVP"}},{"type":"Feature","geometry":{"type":"Point","coordinates":[39.92,14.88]},"properties":{"name":"Alid","classification":"potentially_active","elevation":904,"country":"Eritrea","region":"Eastern Africa Volcanic Regions","last_eruption_year":null,"evidence_category":"Evidence Credible","source":"Smithsonian GVP"}},{"type":"Feature","geometry":{"type":"Point","coordinates":[40.408,13.975]},"properties":{"name":"Gada Ale","classification":"potentially_active","elevation":287,"country":"Ethiopia","region":"Eastern Africa Volcanic Regions","last_eruption_year":null,"evidence_category":"Evidence Credible","source":"Smithsonian GVP"}},{"type":"Feature","geometry":{"type":"Point","coordinates":[40.553,13.793]},"properties":{"name":"Alu-Dalafilla","classification":"active","elevation":578,"country":"Ethiopia","region":"Eastern Africa Volcanic Regions","last_eruption_year":2008,"evidence_category":"Eruption Observed","source":"Smithsonian GVP"}},{"type":"Feature","geometry":{"type":"Point","coordinates":[40.6,13.725]},"properties":{"name":"Bora Ale","classification":"potentially_active","elevation":668,"country":"Ethiopia","region":"Eastern Africa Volcanic Regions","last_eruption_year":null,"evidence_category":"Evidence Credible","source":"Smithsonian GVP"}},{"type":"Feature","geometry":{"type":"Point","coordinates":[40.666,13.601]},"properties":{"name":"Erta Ale","classification":"active","elevation":585,"country":"Ethiopia","region":"Eastern Africa Volcanic Regions","last_eruption_year":2025,"evidence_category":"Eruption Observed","source":"Smithsonian GVP"}},{"type":"Feature","geometry":{"type":"Point","coordinates":[40.7161,13.5111]},"properties":{"name":"Hayli Gubbi","classification":"active","elevation":493,"country":"Ethiopia","region":"Eastern Africa Volcanic Regions","last_eruption_year":2025,"evidence_category":"Eruption Observed","source":"Smithsonian GVP"}},{"type":"Feature","geometry":{"type":"Point","coordinates":[40.631,13.512]},"properties":{"name":"Ale Bagu","classification":"potentially_active","elevation":988,"country":"Ethiopia","region":"Eastern Africa Volcanic Regions","last_eruption_year":null,"evidence_category":"Evidence Credible","source":"Smithsonian GVP"}},{"type":"Feature","geometry":{"type":"Point","coordinates":[41.7,13.37]},"properties":{"name":"Nabro","classification":"active","elevation":2218,"country":"Eritrea","region":"Eastern Africa Volcanic Regions","last_eruption_year":2012,"evidence_category":"Eruption Observed","source":"Smithsonian GVP"}},{"type":"Feature","geometry":{"type":"Point","coordinates":[41.65,13.27]},"properties":{"name":"Mallahle","classification":"dormant","elevation":1875,"country":"Ethiopia-Eritrea","region":"Eastern Africa Volcanic Regions","last_eruption_year":null,"evidence_category":"Evidence Uncertain","source":"Smithsonian GVP"}},{"type":"Feature","geometry":{"type":"Point","coordinates":[41.725,13.18]},"properties":{"name":"Sork Ale","classification":"dormant","elevation":1611,"country":"Ethiopia-Eritrea","region":"Eastern Africa Volcanic Regions","last_eruption_year":null,"evidence_category":"Evidence Uncertain","source":"Smithsonian GVP"}},{"type":"Feature","geometry":{"type":"Point","coordinates":[41.599,13.098]},"properties":{"name":"Asavyo","classification":"potentially_active","elevation":1338,"country":"Ethiopia","region":"Eastern Africa Volcanic Regions","last_eruption_year":null,"evidence_category":"Evidence Credible","source":"Smithsonian GVP"}},{"type":"Feature","geometry":{"type":"Point","coordinates":[41.161,13.106]},"properties":{"name":"Mat Ala","classification":"potentially_active","elevation":493,"country":"Ethiopia","region":"Eastern Africa Volcanic Regions","last_eruption_year":null,"evidence_category":"Evidence Credible","source":"Smithsonian GVP"}},{"type":"Feature","geometry":{"type":"Point","coordinates":[41.063,13.284]},"properties":{"name":"Tat Ali","classification":"potentially_active","elevation":655,"country":"Ethiopia","region":"Eastern Africa Volcanic Regions","last_eruption_year":null,"evidence_category":"Evidence Credible","source":"Smithsonian GVP"}},{"type":"Feature","geometry":{"type":"Point","coordinates":[40.987,13.304]},"properties":{"name":"Borawli","classification":"potentially_active","elevation":784,"country":"Ethiopia","region":"Eastern Africa Volcanic Regions","last_eruption_year":null,"evidence_category":"Evidence Credible","source":"Smithsonian GVP"}},{"type":"Feature","geometry":{"type":"Point","coordinates":[41.809,13.579]},"properties":{"name":"Dubbi","classification":"active","elevation":1625,"country":"Eritrea","region":"Eastern Africa Volcanic Regions","last_eruption_year":1861,"evidence_category":"Eruption Observed","source":"Smithsonian GVP"}},{"type":"Feature","geometry":{"type":"Point","coordinates":[40.185,13.013]},"properties":{"name":"Ma Alalta","classification":"potentially_active","elevation":1745,"country":"Ethiopia","region":"Eastern Africa Volcanic Regions","last_eruption_year":null,"evidence_category":"Evidence Credible","source":"Smithsonian GVP"}},{"type":"Feature","geometry":{"type":"Point","coordinates":[40.573,12.888]},"properties":{"name":"Alayta","classification":"active","elevation":1496,"country":"Ethiopia","region":"Eastern Africa Volcanic Regions","last_eruption_year":1915,"evidence_category":"Eruption Observed","source":"Smithsonian GVP"}},{"type":"Feature","geometry":{"type":"Point","coordinates":[40.48,12.595]},"properties":{"name":"Dabbahu","classification":"active","elevation":1401,"country":"Ethiopia","region":"Eastern Africa Volcanic Regions","last_eruption_year":2005,"evidence_category":"Eruption Observed","source":"Smithsonian GVP"}},{"type":"Feature","geometry":{"type":"Point","coordinates":[40.07,12.38]},"properties":{"name":"Dabbayra","classification":"potentially_active","elevation":1302,"country":"Ethiopia","region":"Eastern Africa Volcanic Regions","last_eruption_year":null,"evidence_category":"Evidence Credible","source":"Smithsonian GVP"}},{"type":"Feature","geometry":{"type":"Point","coordinates":[40.82,12.17]},"properties":{"name":"Manda Hararo","classification":"active","elevation":600,"country":"Ethiopia","region":"Eastern Africa Volcanic Regions","last_eruption_year":2009,"evidence_category":"Eruption Observed","source":"Smithsonian GVP"}},{"type":"Feature","geometry":{"type":"Point","coordinates":[40.242,11.816]},"properties":{"name":"Groppo","classification":"potentially_active","elevation":852,"country":"Ethiopia","region":"Eastern Africa Volcanic Regions","last_eruption_year":null,"evidence_category":"Evidence Credible","source":"Smithsonian GVP"}},{"type":"Feature","geometry":{"type":"Point","coordinates":[40.853,13.088]},"properties":{"name":"Afdera","classification":"dormant","elevation":1250,"country":"Ethiopia","region":"Eastern Africa Volcanic Regions","last_eruption_year":null,"evidence_category":"Evidence Uncertain","source":"Smithsonian GVP"}},{"type":"Feature","geometry":{"type":"Point","coordinates":[41.48,11.75]},"properties":{"name":"Manda Gargori","classification":"potentially_active","elevation":700,"country":"Ethiopia","region":"Eastern Africa Volcanic Regions","last_eruption_year":null,"evidence_category":"Evidence Credible","source":"Smithsonian GVP"}},{"type":"Feature","geometry":{"type":"Point","coordinates":[42.2,12.38]},"properties":{"name":"Manda-Inakir","classification":"active","elevation":600,"country":"Ethiopia-Djibouti","region":"Eastern Africa Volcanic Regions","last_eruption_year":1928,"evidence_category":"Eruption Observed","source":"Smithsonian GVP"}},{"type":"Feature","geometry":{"type":"Point","coordinates":[42.404,12.469]},"properties":{"name":"Mousa Alli","classification":"potentially_active","elevation":1993,"country":"Ethiopia-Eritrea-Djibouti","region":"Eastern Africa Volcanic Regions","last_eruption_year":null,"evidence_category":"Evidence Credible","source":"Smithsonian GVP"}},{"type":"Feature","geometry":{"type":"Point","coordinates":[42.53,12.55]},"properties":{"name":"Gufa","classification":"potentially_active","elevation":600,"country":"Eritrea-Djibouti","region":"Eastern Africa Volcanic Regions","last_eruption_year":null,"evidence_category":"Evidence Credible","source":"Smithsonian GVP"}},{"type":"Feature","geometry":{"type":"Point","coordinates":[42.43,12.95]},"properties":{"name":"Assab Volcanic Field","classification":"potentially_active","elevation":987,"country":"Eritrea","region":"Eastern Africa Volcanic Regions","last_eruption_year":null,"evidence_category":"Evidence Credible","source":"Smithsonian GVP"}},{"type":"Feature","geometry":{"type":"Point","coordinates":[42.47,11.58]},"properties":{"name":"Ardoukoba","classification":"active","elevation":298,"country":"Djibouti","region":"Eastern Africa Volcanic Regions","last_eruption_year":1978,"evidence_category":"Eruption Observed","source":"Smithsonian GVP"}},{"type":"Feature","geometry":{"type":"Point","coordinates":[41.208,11.88]},"properties":{"name":"Kurub","classification":"potentially_active","elevation":625,"country":"Ethiopia","region":"Eastern Africa Volcanic Regions","last_eruption_year":null,"evidence_category":"Evidence Credible","source":"Smithsonian GVP"}},{"type":"Feature","geometry":{"type":"Point","coordinates":[41.63,11.28]},"properties":{"name":"Dama Ali","classification":"active","elevation":1068,"country":"Ethiopia","region":"Eastern Africa Volcanic Regions","last_eruption_year":1631,"evidence_category":"Eruption Observed","source":"Smithsonian GVP"}},{"type":"Feature","geometry":{"type":"Point","coordinates":[41.042,10.58]},"properties":{"name":"Yangudi","classification":"potentially_active","elevation":1383,"country":"Ethiopia","region":"Eastern Africa Volcanic Regions","last_eruption_year":null,"evidence_category":"Evidence Credible","source":"Smithsonian GVP"}},{"type":"Feature","geometry":{"type":"Point","coordinates":[41.27,11.08]},"properties":{"name":"Gabillema","classification":"potentially_active","elevation":1459,"country":"Ethiopia","region":"Eastern Africa Volcanic Regions","last_eruption_year":null,"evidence_category":"Evidence Credible","source":"Smithsonian GVP"}},{"type":"Feature","geometry":{"type":"Point","coordinates":[40.702,10.082]},"properties":{"name":"Ayelu","classification":"potentially_active","elevation":2145,"country":"Ethiopia","region":"Eastern Africa Volcanic Regions","last_eruption_year":null,"evidence_category":"Evidence Credible","source":"Smithsonian GVP"}},{"type":"Feature","geometry":{"type":"Point","coordinates":[40.33,9.78]},"properties":{"name":"Hertali","classification":"potentially_active","elevation":900,"country":"Ethiopia","region":"Eastern Africa Volcanic Regions","last_eruption_year":null,"evidence_category":"Evidence Credible","source":"Smithsonian GVP"}},{"type":"Feature","geometry":{"type":"Point","coordinates":[40.28,9.57]},"properties":{"name":"Liado Hayk","classification":"dormant","elevation":878,"country":"Ethiopia","region":"Eastern Africa Volcanic Regions","last_eruption_year":null,"evidence_category":"Evidence Uncertain","source":"Smithsonian GVP"}},{"type":"Feature","geometry":{"type":"Point","coordinates":[40.831,10.063]},"properties":{"name":"Adwa","classification":"potentially_active","elevation":1670,"country":"Ethiopia","region":"Eastern Africa Volcanic Regions","last_eruption_year":null,"evidence_category":"Evidence Credible","source":"Smithsonian GVP"}},{"type":"Feature","geometry":{"type":"Point","coordinates":[40.13,9.35]},"properties":{"name":"Dofen","classification":"potentially_active","elevation":1151,"country":"Ethiopia","region":"Eastern Africa Volcanic Regions","last_eruption_year":null,"evidence_category":"Evidence Credible","source":"Smithsonian GVP"}},{"type":"Feature","geometry":{"type":"Point","coordinates":[39.75,8.95]},"properties":{"name":"Beru","classification":"potentially_active","elevation":1100,"country":"Ethiopia","region":"Eastern Africa Volcanic Regions","last_eruption_year":null,"evidence_category":"Evidence Credible","source":"Smithsonian GVP"}},{"type":"Feature","geometry":{"type":"Point","coordinates":[39.906,8.985]},"properties":{"name":"Fentale","classification":"active","elevation":2007,"country":"Ethiopia","region":"Eastern Africa Volcanic Regions","last_eruption_year":1789,"evidence_category":"Eruption Observed","source":"Smithsonian GVP"}},{"type":"Feature","geometry":{"type":"Point","coordinates":[39.6946,8.8105]},"properties":{"name":"Kone","classification":"active","elevation":1380,"country":"Ethiopia","region":"Eastern Africa Volcanic Regions","last_eruption_year":1820,"evidence_category":"Eruption Observed","source":"Smithsonian GVP"}},{"type":"Feature","geometry":{"type":"Point","coordinates":[39.475,8.558]},"properties":{"name":"Boset","classification":"potentially_active","elevation":2447,"country":"Ethiopia","region":"Eastern Africa Volcanic Regions","last_eruption_year":null,"evidence_category":"Evidence Credible","source":"Smithsonian GVP"}},{"type":"Feature","geometry":{"type":"Point","coordinates":[38.98,8.78]},"properties":{"name":"Bishoftu Volcanic Field","classification":"potentially_active","elevation":1850,"country":"Ethiopia","region":"Eastern Africa Volcanic Regions","last_eruption_year":null,"evidence_category":"Evidence Credible","source":"Smithsonian GVP"}},{"type":"Feature","geometry":{"type":"Point","coordinates":[39.35,8.43]},"properties":{"name":"Melkassa","classification":"potentially_active","elevation":1765,"country":"Ethiopia","region":"Eastern Africa Volcanic Regions","last_eruption_year":null,"evidence_category":"Evidence Credible","source":"Smithsonian GVP"}},{"type":"Feature","geometry":{"type":"Point","coordinates":[39.172,8.363]},"properties":{"name":"Gedemsa","classification":"potentially_active","elevation":1909,"country":"Ethiopia","region":"Eastern Africa Volcanic Regions","last_eruption_year":null,"evidence_category":"Evidence Credible","source":"Smithsonian GVP"}},{"type":"Feature","geometry":{"type":"Point","coordinates":[39.0812,8.2114]},"properties":{"name":"Bora-Bericha-Tullu Moye","classification":"active","elevation":2345,"country":"Ethiopia","region":"Eastern Africa Volcanic Regions","last_eruption_year":1900,"evidence_category":"Eruption Observed","source":"Smithsonian GVP"}},{"type":"Feature","geometry":{"type":"Point","coordinates":[38.902,7.874]},"properties":{"name":"East Ziway","classification":"potentially_active","elevation":1889,"country":"Ethiopia","region":"Eastern Africa Volcanic Regions","last_eruption_year":null,"evidence_category":"Evidence Credible","source":"Smithsonian GVP"}},{"type":"Feature","geometry":{"type":"Point","coordinates":[38.35,8.05]},"properties":{"name":"Butajiri-Silti Field","classification":"potentially_active","elevation":2281,"country":"Ethiopia","region":"Eastern Africa Volcanic Regions","last_eruption_year":null,"evidence_category":"Evidence Credible","source":"Smithsonian GVP"}},{"type":"Feature","geometry":{"type":"Point","coordinates":[38.78,7.77]},"properties":{"name":"Aluto","classification":"potentially_active","elevation":2335,"country":"Ethiopia","region":"Eastern Africa Volcanic Regions","last_eruption_year":1550,"evidence_category":"Eruption Dated","source":"Smithsonian GVP"}},{"type":"Feature","geometry":{"type":"Point","coordinates":[38.5571,7.4569]},"properties":{"name":"Shala","classification":"potentially_active","elevation":2075,"country":"Ethiopia","region":"Eastern Africa Volcanic Regions","last_eruption_year":null,"evidence_category":"Evidence Credible","source":"Smithsonian GVP"}},{"type":"Feature","geometry":{"type":"Point","coordinates":[38.39,7.193]},"properties":{"name":"Corbetti","classification":"potentially_active","elevation":2289,"country":"Ethiopia","region":"Eastern Africa Volcanic Regions","last_eruption_year":-396,"evidence_category":"Evidence Credible","source":"Smithsonian GVP"}},{"type":"Feature","geometry":{"type":"Point","coordinates":[38.1,7.07]},"properties":{"name":"Bilate River Field","classification":"active","elevation":1700,"country":"Ethiopia","region":"Eastern Africa Volcanic Regions","last_eruption_year":null,"evidence_category":"Unrest / Holocene","source":"Smithsonian GVP"}},{"type":"Feature","geometry":{"type":"Point","coordinates":[35.892,5.117]},"properties":{"name":"Korath Range","classification":"dormant","elevation":912,"country":"Ethiopia","region":"Eastern Africa Volcanic Regions","last_eruption_year":null,"evidence_category":"Evidence Uncertain","source":"Smithsonian GVP"}},{"type":"Feature","geometry":{"type":"Point","coordinates":[36.0458,4.0631]},"properties":{"name":"Lake Turkana North Island","classification":"potentially_active","elevation":490,"country":"Kenya","region":"Eastern Africa Volcanic Regions","last_eruption_year":null,"evidence_category":"Evidence Credible","source":"Smithsonian GVP"}},{"type":"Feature","geometry":{"type":"Point","coordinates":[36.0365,3.496]},"properties":{"name":"Lake Turkana Central Island","classification":"potentially_active","elevation":518,"country":"Kenya","region":"Eastern Africa Volcanic Regions","last_eruption_year":null,"evidence_category":"Evidence Credible","source":"Smithsonian GVP"}},{"type":"Feature","geometry":{"type":"Point","coordinates":[37.97,2.32]},"properties":{"name":"Marsabit","classification":"dormant","elevation":1707,"country":"Kenya","region":"Eastern Africa Volcanic Regions","last_eruption_year":null,"evidence_category":"Evidence Uncertain","source":"Smithsonian GVP"}},{"type":"Feature","geometry":{"type":"Point","coordinates":[36.5958,2.6364]},"properties":{"name":"Lake Turkana South Island","classification":"active","elevation":800,"country":"Kenya","region":"Eastern Africa Volcanic Regions","last_eruption_year":1888,"evidence_category":"Eruption Observed","source":"Smithsonian GVP"}},{"type":"Feature","geometry":{"type":"Point","coordinates":[36.57,2.32]},"properties":{"name":"Barrier, The","classification":"active","elevation":1032,"country":"Kenya","region":"Eastern Africa Volcanic Regions","last_eruption_year":1921,"evidence_category":"Eruption Observed","source":"Smithsonian GVP"}},{"type":"Feature","geometry":{"type":"Point","coordinates":[36.43,1.98]},"properties":{"name":"Namarunu","classification":"potentially_active","elevation":817,"country":"Kenya","region":"Eastern Africa Volcanic Regions","last_eruption_year":-6550,"evidence_category":"Eruption Dated","source":"Smithsonian GVP"}},{"type":"Feature","geometry":{"type":"Point","coordinates":[37.9,1.57]},"properties":{"name":"Segererua Plateau","classification":"potentially_active","elevation":699,"country":"Kenya","region":"Eastern Africa Volcanic Regions","last_eruption_year":null,"evidence_category":"Evidence Credible","source":"Smithsonian GVP"}},{"type":"Feature","geometry":{"type":"Point","coordinates":[36.33,1.5]},"properties":{"name":"Emuruangogolak","classification":"potentially_active","elevation":1285,"country":"Kenya","region":"Eastern Africa Volcanic Regions","last_eruption_year":1910,"evidence_category":"Eruption Dated","source":"Smithsonian GVP"}},{"type":"Feature","geometry":{"type":"Point","coordinates":[36.23,1.15]},"properties":{"name":"Silali","classification":"potentially_active","elevation":1528,"country":"Kenya","region":"Eastern Africa Volcanic Regions","last_eruption_year":-5050,"evidence_category":"Eruption Dated","source":"Smithsonian GVP"}},{"type":"Feature","geometry":{"type":"Point","coordinates":[36.18,0.92]},"properties":{"name":"Paka","classification":"potentially_active","elevation":1697,"country":"Kenya","region":"Eastern Africa Volcanic Regions","last_eruption_year":-7550,"evidence_category":"Eruption Dated","source":"Smithsonian GVP"}},{"type":"Feature","geometry":{"type":"Point","coordinates":[36.12,0.77]},"properties":{"name":"Korosi","classification":"potentially_active","elevation":1446,"country":"Kenya","region":"Eastern Africa Volcanic Regions","last_eruption_year":null,"evidence_category":"Evidence Credible","source":"Smithsonian GVP"}},{"type":"Feature","geometry":{"type":"Point","coordinates":[36.075,0.62]},"properties":{"name":"Ol Kokwe","classification":"potentially_active","elevation":1130,"country":"Kenya","region":"Eastern Africa Volcanic Regions","last_eruption_year":null,"evidence_category":"Evidence Credible","source":"Smithsonian GVP"}},{"type":"Feature","geometry":{"type":"Point","coordinates":[37.87,0.23]},"properties":{"name":"Nyambeni Hills","classification":"potentially_active","elevation":750,"country":"Kenya","region":"Eastern Africa Volcanic Regions","last_eruption_year":null,"evidence_category":"Evidence Credible","source":"Smithsonian GVP"}},{"type":"Feature","geometry":{"type":"Point","coordinates":[36.07,-0.2]},"properties":{"name":"Menengai","classification":"potentially_active","elevation":2278,"country":"Kenya","region":"Eastern Africa Volcanic Regions","last_eruption_year":-6050,"evidence_category":"Eruption Dated","source":"Smithsonian GVP"}},{"type":"Feature","geometry":{"type":"Point","coordinates":[36.249,-0.546]},"properties":{"name":"Elmenteita Badlands","classification":"potentially_active","elevation":2126,"country":"Kenya","region":"Eastern Africa Volcanic Regions","last_eruption_year":null,"evidence_category":"Evidence Credible","source":"Smithsonian GVP"}},{"type":"Feature","geometry":{"type":"Point","coordinates":[34.5,-0.38]},"properties":{"name":"Homa Mountain","classification":"potentially_active","elevation":1751,"country":"Kenya","region":"Eastern Africa Volcanic Regions","last_eruption_year":null,"evidence_category":"Evidence Credible","source":"Smithsonian GVP"}},{"type":"Feature","geometry":{"type":"Point","coordinates":[36.22,-0.65]},"properties":{"name":"Eburru, Ol Doinyo","classification":"potentially_active","elevation":2856,"country":"Kenya","region":"Eastern Africa Volcanic Regions","last_eruption_year":null,"evidence_category":"Evidence Credible","source":"Smithsonian GVP"}},{"type":"Feature","geometry":{"type":"Point","coordinates":[36.292,-0.904]},"properties":{"name":"Olkaria","classification":"potentially_active","elevation":2434,"country":"Kenya","region":"Eastern Africa Volcanic Regions","last_eruption_year":1770,"evidence_category":"Eruption Dated","source":"Smithsonian GVP"}},{"type":"Feature","geometry":{"type":"Point","coordinates":[36.446,-0.914]},"properties":{"name":"Longonot","classification":"potentially_active","elevation":2776,"country":"Kenya","region":"Eastern Africa Volcanic Regions","last_eruption_year":1863,"evidence_category":"Eruption Dated","source":"Smithsonian GVP"}},{"type":"Feature","geometry":{"type":"Point","coordinates":[36.357,-1.151]},"properties":{"name":"Suswa","classification":"potentially_active","elevation":2356,"country":"Kenya","region":"Eastern Africa Volcanic Regions","last_eruption_year":null,"evidence_category":"Evidence Credible","source":"Smithsonian GVP"}},{"type":"Feature","geometry":{"type":"Point","coordinates":[35.914,-2.764]},"properties":{"name":"Lengai, Ol Doinyo","classification":"active","elevation":2962,"country":"Tanzania","region":"Eastern Africa Volcanic Regions","last_eruption_year":2026,"evidence_category":"Eruption Observed","source":"Smithsonian GVP"}},{"type":"Feature","geometry":{"type":"Point","coordinates":[37.88,-2.68]},"properties":{"name":"Chyulu Hills","classification":"potentially_active","elevation":2188,"country":"Kenya","region":"Eastern Africa Volcanic Regions","last_eruption_year":1855,"evidence_category":"Eruption Dated","source":"Smithsonian GVP"}},{"type":"Feature","geometry":{"type":"Point","coordinates":[33.552,-9.0036]},"properties":{"name":"Ngozi","classification":"potentially_active","elevation":2614,"country":"Tanzania","region":"Eastern Africa Volcanic Regions","last_eruption_year":1450,"evidence_category":"Eruption Dated","source":"Smithsonian GVP"}},{"type":"Feature","geometry":{"type":"Point","coordinates":[33.668,-9.135]},"properties":{"name":"Rungwe","classification":"potentially_active","elevation":2953,"country":"Tanzania","region":"Eastern Africa Volcanic Regions","last_eruption_year":1250,"evidence_category":"Eruption Dated","source":"Smithsonian GVP"}},{"type":"Feature","geometry":{"type":"Point","coordinates":[36.75,-3.244]},"properties":{"name":"Meru","classification":"active","elevation":4550,"country":"Tanzania","region":"Eastern Africa Volcanic Regions","last_eruption_year":1910,"evidence_category":"Eruption Observed","source":"Smithsonian GVP"}},{"type":"Feature","geometry":{"type":"Point","coordinates":[33.792,-9.229]},"properties":{"name":"Kyejo","classification":"active","elevation":2176,"country":"Tanzania","region":"Eastern Africa Volcanic Regions","last_eruption_year":1800,"evidence_category":"Eruption Observed","source":"Smithsonian GVP"}},{"type":"Feature","geometry":{"type":"Point","coordinates":[30.25,0.7]},"properties":{"name":"Fort Portal Volcanic Field","classification":"potentially_active","elevation":1615,"country":"Uganda","region":"Eastern Africa Volcanic Regions","last_eruption_year":-2120,"evidence_category":"Eruption Dated","source":"Smithsonian GVP"}},{"type":"Feature","geometry":{"type":"Point","coordinates":[30.275,0.4583]},"properties":{"name":"Ndali-Kasenda Volcanic Field","classification":"dormant","elevation":1300,"country":"Uganda","region":"Eastern Africa Volcanic Regions","last_eruption_year":null,"evidence_category":"Evidence Uncertain","source":"Smithsonian GVP"}},{"type":"Feature","geometry":{"type":"Point","coordinates":[29.2,-1.408]},"properties":{"name":"Nyamulagira","classification":"active","elevation":3058,"country":"DR Congo","region":"Eastern Africa Volcanic Regions","last_eruption_year":2026,"evidence_category":"Eruption Observed","source":"Smithsonian GVP"}},{"type":"Feature","geometry":{"type":"Point","coordinates":[29.25,-1.52]},"properties":{"name":"Nyiragongo","classification":"active","elevation":3470,"country":"DR Congo","region":"Eastern Africa Volcanic Regions","last_eruption_year":2026,"evidence_category":"Eruption Observed","source":"Smithsonian GVP"}},{"type":"Feature","geometry":{"type":"Point","coordinates":[29.45,-1.506]},"properties":{"name":"Karisimbi","classification":"potentially_active","elevation":4490,"country":"DR Congo-Rwanda","region":"Eastern Africa Volcanic Regions","last_eruption_year":-8050,"evidence_category":"Eruption Dated","source":"Smithsonian GVP"}},{"type":"Feature","geometry":{"type":"Point","coordinates":[37.97,6.76]},"properties":{"name":"Northern Lake Abaya Volcanic Field","classification":"potentially_active","elevation":1594,"country":"Ethiopia","region":"Eastern Africa Volcanic Regions","last_eruption_year":null,"evidence_category":"Evidence Credible","source":"Smithsonian GVP"}},{"type":"Feature","geometry":{"type":"Point","coordinates":[38.213,3.971]},"properties":{"name":"Mega Volcanic Field","classification":"potentially_active","elevation":1500,"country":"Ethiopia","region":"Eastern Africa Volcanic Regions","last_eruption_year":null,"evidence_category":"Evidence Credible","source":"Smithsonian GVP"}},{"type":"Feature","geometry":{"type":"Point","coordinates":[29.48,-1.3687]},"properties":{"name":"Mugogo","classification":"dormant","elevation":2338,"country":"DR Congo","region":"Eastern Africa Volcanic Regions","last_eruption_year":1957,"evidence_category":null,"source":"Smithsonian GVP"}}],"metadata":{"source":"Smithsonian Global Volcanism Program","layer_id":"eastern-africa","feature_count":91}}