{"type":"FeatureCollection","features":[{"type":"Feature","geometry":{"type":"Point","coordinates":[6.85,50.17]},"properties":{"name":"West Eifel Volcanic Field","classification":"potentially_active","elevation":600,"country":"Germany","region":"European Volcanic Regions","last_eruption_year":-8300,"evidence_category":"Eruption Dated","source":"Smithsonian GVP"}},{"type":"Feature","geometry":{"type":"Point","coordinates":[2.981,45.786]},"properties":{"name":"Chaine des Puys","classification":"potentially_active","elevation":1464,"country":"France","region":"European Volcanic Regions","last_eruption_year":-4040,"evidence_category":"Eruption Dated","source":"Smithsonian GVP"}},{"type":"Feature","geometry":{"type":"Point","coordinates":[2.53,42.17]},"properties":{"name":"Olot Volcanic Field","classification":"potentially_active","elevation":893,"country":"Spain","region":"European Volcanic Regions","last_eruption_year":null,"evidence_category":"Evidence Credible","source":"Smithsonian GVP"}},{"type":"Feature","geometry":{"type":"Point","coordinates":[-4.02,38.87]},"properties":{"name":"Calatrava Volcanic Field","classification":"potentially_active","elevation":1117,"country":"Spain","region":"European Volcanic Regions","last_eruption_year":-3600,"evidence_category":"Eruption Dated","source":"Smithsonian GVP"}},{"type":"Feature","geometry":{"type":"Point","coordinates":[12.7251,41.7569]},"properties":{"name":"Colli Albani","classification":"dormant","elevation":949,"country":"Italy","region":"European Volcanic Regions","last_eruption_year":null,"evidence_category":"Evidence Uncertain","source":"Smithsonian GVP"}},{"type":"Feature","geometry":{"type":"Point","coordinates":[14.139,40.827]},"properties":{"name":"Campi Flegrei","classification":"active","elevation":458,"country":"Italy","region":"European Volcanic Regions","last_eruption_year":1538,"evidence_category":"Eruption Observed","source":"Smithsonian GVP"}},{"type":"Feature","geometry":{"type":"Point","coordinates":[14.426,40.821]},"properties":{"name":"Vesuvius","classification":"active","elevation":1281,"country":"Italy","region":"European Volcanic Regions","last_eruption_year":1944,"evidence_category":"Eruption Observed","source":"Smithsonian GVP"}},{"type":"Feature","geometry":{"type":"Point","coordinates":[14.83,39.48]},"properties":{"name":"Palinuro","classification":"potentially_active","elevation":-70,"country":"Italy","region":"European Volcanic Regions","last_eruption_year":-8040,"evidence_category":"Eruption Dated","source":"Smithsonian GVP"}},{"type":"Feature","geometry":{"type":"Point","coordinates":[13.897,40.73]},"properties":{"name":"Ischia","classification":"active","elevation":789,"country":"Italy","region":"European Volcanic Regions","last_eruption_year":1302,"evidence_category":"Eruption Observed","source":"Smithsonian GVP"}},{"type":"Feature","geometry":{"type":"Point","coordinates":[15.064,38.638]},"properties":{"name":"Panarea","classification":"dormant","elevation":399,"country":"Italy","region":"European Volcanic Regions","last_eruption_year":null,"evidence_category":"Evidence Uncertain","source":"Smithsonian GVP"}},{"type":"Feature","geometry":{"type":"Point","coordinates":[14.933,38.49]},"properties":{"name":"Lipari","classification":"potentially_active","elevation":590,"country":"Italy","region":"European Volcanic Regions","last_eruption_year":1230,"evidence_category":"Eruption Dated","source":"Smithsonian GVP"}},{"type":"Feature","geometry":{"type":"Point","coordinates":[15.213,38.789]},"properties":{"name":"Stromboli","classification":"active","elevation":924,"country":"Italy","region":"European Volcanic Regions","last_eruption_year":2026,"evidence_category":"Eruption Observed","source":"Smithsonian GVP"}},{"type":"Feature","geometry":{"type":"Point","coordinates":[14.962,38.404]},"properties":{"name":"Vulcano","classification":"active","elevation":500,"country":"Italy","region":"European Volcanic Regions","last_eruption_year":1890,"evidence_category":"Eruption Observed","source":"Smithsonian GVP"}},{"type":"Feature","geometry":{"type":"Point","coordinates":[14.999,37.748]},"properties":{"name":"Etna","classification":"active","elevation":3357,"country":"Italy","region":"European Volcanic Regions","last_eruption_year":2026,"evidence_category":"Eruption Observed","source":"Smithsonian GVP"}},{"type":"Feature","geometry":{"type":"Point","coordinates":[12.02,36.77]},"properties":{"name":"Pantelleria","classification":"active","elevation":836,"country":"Italy","region":"European Volcanic Regions","last_eruption_year":1891,"evidence_category":"Eruption Observed","source":"Smithsonian GVP"}},{"type":"Feature","geometry":{"type":"Point","coordinates":[12.7,37.1]},"properties":{"name":"Campi Flegrei del Mar di Sicilia","classification":"active","elevation":-8,"country":"Italy","region":"European Volcanic Regions","last_eruption_year":1867,"evidence_category":"Eruption Observed","source":"Smithsonian GVP"}},{"type":"Feature","geometry":{"type":"Point","coordinates":[23.3331,37.6186]},"properties":{"name":"Methana","classification":"active","elevation":380,"country":"Greece","region":"European Volcanic Regions","last_eruption_year":-258,"evidence_category":"Eruption Observed","source":"Smithsonian GVP"}},{"type":"Feature","geometry":{"type":"Point","coordinates":[24.439,36.699]},"properties":{"name":"Milos","classification":"potentially_active","elevation":751,"country":"Greece","region":"European Volcanic Regions","last_eruption_year":140,"evidence_category":"Eruption Dated","source":"Smithsonian GVP"}},{"type":"Feature","geometry":{"type":"Point","coordinates":[25.396,36.404]},"properties":{"name":"Santorini","classification":"active","elevation":367,"country":"Greece","region":"European Volcanic Regions","last_eruption_year":1950,"evidence_category":"Eruption Observed","source":"Smithsonian GVP"}},{"type":"Feature","geometry":{"type":"Point","coordinates":[27.1553,36.5888]},"properties":{"name":"Nisyros","classification":"active","elevation":698,"country":"Greece","region":"European Volcanic Regions","last_eruption_year":1888,"evidence_category":"Eruption Observed","source":"Smithsonian GVP"}},{"type":"Feature","geometry":{"type":"Point","coordinates":[28.52,38.58]},"properties":{"name":"Kula","classification":"potentially_active","elevation":750,"country":"Turkiye","region":"European Volcanic Regions","last_eruption_year":null,"evidence_category":"Evidence Credible","source":"Smithsonian GVP"}},{"type":"Feature","geometry":{"type":"Point","coordinates":[34.17,38.13]},"properties":{"name":"Hasandag-Keciboyduran Volcanic Complex","classification":"potentially_active","elevation":3253,"country":"Turkiye","region":"European Volcanic Regions","last_eruption_year":null,"evidence_category":"Evidence Credible","source":"Smithsonian GVP"}},{"type":"Feature","geometry":{"type":"Point","coordinates":[35.447,38.531]},"properties":{"name":"Erciyes Volcanic Complex","classification":"potentially_active","elevation":3864,"country":"Turkiye","region":"European Volcanic Regions","last_eruption_year":-6880,"evidence_category":"Eruption Dated","source":"Smithsonian GVP"}},{"type":"Feature","geometry":{"type":"Point","coordinates":[14.399,39.284]},"properties":{"name":"Marsili","classification":"potentially_active","elevation":-779,"country":"Italy","region":"European Volcanic Regions","last_eruption_year":-1050,"evidence_category":"Eruption Dated","source":"Smithsonian GVP"}},{"type":"Feature","geometry":{"type":"Point","coordinates":[25.483,36.524]},"properties":{"name":"Kolumbo","classification":"potentially_active","elevation":-18,"country":"Greece","region":"European Volcanic Regions","last_eruption_year":1650,"evidence_category":"Eruption Dated","source":"Smithsonian GVP"}},{"type":"Feature","geometry":{"type":"Point","coordinates":[8.762,3.588]},"properties":{"name":"Basile, Pico","classification":"active","elevation":2999,"country":"Equatorial Guinea","region":"Northern Africa Volcanic Regions","last_eruption_year":1923,"evidence_category":"Eruption Observed","source":"Smithsonian GVP"}},{"type":"Feature","geometry":{"type":"Point","coordinates":[9.717,4.758]},"properties":{"name":"Tombel Graben","classification":"potentially_active","elevation":500,"country":"Cameroon","region":"Northern Africa Volcanic Regions","last_eruption_year":null,"evidence_category":"Evidence Credible","source":"Smithsonian GVP"}},{"type":"Feature","geometry":{"type":"Point","coordinates":[9.17,4.203]},"properties":{"name":"Cameroon","classification":"active","elevation":4095,"country":"Cameroon","region":"Northern Africa Volcanic Regions","last_eruption_year":2000,"evidence_category":"Eruption Observed","source":"Smithsonian GVP"}},{"type":"Feature","geometry":{"type":"Point","coordinates":[10.5,6.25]},"properties":{"name":"Oku Volcanic Field","classification":"dormant","elevation":3011,"country":"Cameroon","region":"Northern Africa Volcanic Regions","last_eruption_year":null,"evidence_category":"Evidence Uncertain","source":"Smithsonian GVP"}},{"type":"Feature","geometry":{"type":"Point","coordinates":[8.5,17.68]},"properties":{"name":"Todra Volcanic Field","classification":"potentially_active","elevation":1780,"country":"Niger","region":"Northern Africa Volcanic Regions","last_eruption_year":null,"evidence_category":"Evidence Credible","source":"Smithsonian GVP"}},{"type":"Feature","geometry":{"type":"Point","coordinates":[5,22.67]},"properties":{"name":"Tahalra Volcanic Field","classification":"potentially_active","elevation":1467,"country":"Algeria","region":"Northern Africa Volcanic Regions","last_eruption_year":null,"evidence_category":"Evidence Credible","source":"Smithsonian GVP"}},{"type":"Feature","geometry":{"type":"Point","coordinates":[5.83,23.33]},"properties":{"name":"Atakor Volcanic Field","classification":"potentially_active","elevation":2918,"country":"Algeria","region":"Northern Africa Volcanic Regions","last_eruption_year":null,"evidence_category":"Evidence Credible","source":"Smithsonian GVP"}},{"type":"Feature","geometry":{"type":"Point","coordinates":[5.83,23.92]},"properties":{"name":"Manzaz Volcanic Field","classification":"potentially_active","elevation":1672,"country":"Algeria","region":"Northern Africa Volcanic Regions","last_eruption_year":null,"evidence_category":"Evidence Credible","source":"Smithsonian GVP"}},{"type":"Feature","geometry":{"type":"Point","coordinates":[16.33,21.33]},"properties":{"name":"Toh, Tarso","classification":"potentially_active","elevation":2000,"country":"Chad","region":"Northern Africa Volcanic Regions","last_eruption_year":null,"evidence_category":"Evidence Credible","source":"Smithsonian GVP"}},{"type":"Feature","geometry":{"type":"Point","coordinates":[16.473,21.0408]},"properties":{"name":"Tousside, Tarso","classification":"potentially_active","elevation":3299,"country":"Chad","region":"Northern Africa Volcanic Regions","last_eruption_year":null,"evidence_category":"Evidence Credible","source":"Smithsonian GVP"}},{"type":"Feature","geometry":{"type":"Point","coordinates":[18.53,19.8]},"properties":{"name":"Koussi, Emi","classification":"potentially_active","elevation":3415,"country":"Chad","region":"Northern Africa Volcanic Regions","last_eruption_year":null,"evidence_category":"Evidence Credible","source":"Smithsonian GVP"}},{"type":"Feature","geometry":{"type":"Point","coordinates":[17.28,20.92]},"properties":{"name":"Voon, Tarso","classification":"active","elevation":3100,"country":"Chad","region":"Northern Africa Volcanic Regions","last_eruption_year":null,"evidence_category":"Unrest / Holocene","source":"Smithsonian GVP"}},{"type":"Feature","geometry":{"type":"Point","coordinates":[24.27,12.95]},"properties":{"name":"Marra, Jebel","classification":"potentially_active","elevation":3042,"country":"Sudan","region":"Northern Africa Volcanic Regions","last_eruption_year":-2000,"evidence_category":"Eruption Dated","source":"Smithsonian GVP"}},{"type":"Feature","geometry":{"type":"Point","coordinates":[25.85,14.57]},"properties":{"name":"Kutum Volcanic Field","classification":"dormant","elevation":1779,"country":"Sudan","region":"Northern Africa Volcanic Regions","last_eruption_year":null,"evidence_category":"Evidence Uncertain","source":"Smithsonian GVP"}},{"type":"Feature","geometry":{"type":"Point","coordinates":[26.47,15.32]},"properties":{"name":"Meidob Volcanic Field","classification":"potentially_active","elevation":2000,"country":"Sudan","region":"Northern Africa Volcanic Regions","last_eruption_year":-2950,"evidence_category":"Eruption Dated","source":"Smithsonian GVP"}},{"type":"Feature","geometry":{"type":"Point","coordinates":[32.75,18.33]},"properties":{"name":"Bayuda Volcanic Field","classification":"potentially_active","elevation":670,"country":"Sudan","region":"Northern Africa Volcanic Regions","last_eruption_year":850,"evidence_category":"Eruption Dated","source":"Smithsonian GVP"}},{"type":"Feature","geometry":{"type":"Point","coordinates":[-16.97,32.73]},"properties":{"name":"Madeira","classification":"potentially_active","elevation":1862,"country":"Portugal","region":"Northern Africa Volcanic Regions","last_eruption_year":-4500,"evidence_category":"Eruption Dated","source":"Smithsonian GVP"}},{"type":"Feature","geometry":{"type":"Point","coordinates":[-17.83,28.57]},"properties":{"name":"La Palma","classification":"active","elevation":2426,"country":"Spain","region":"Northern Africa Volcanic Regions","last_eruption_year":2021,"evidence_category":"Eruption Observed","source":"Smithsonian GVP"}},{"type":"Feature","geometry":{"type":"Point","coordinates":[-18.03,27.73]},"properties":{"name":"Hierro","classification":"active","elevation":1500,"country":"Spain","region":"Northern Africa Volcanic Regions","last_eruption_year":2012,"evidence_category":"Eruption Observed","source":"Smithsonian GVP"}},{"type":"Feature","geometry":{"type":"Point","coordinates":[-16.641,28.271]},"properties":{"name":"Tenerife","classification":"active","elevation":3715,"country":"Spain","region":"Northern Africa Volcanic Regions","last_eruption_year":1909,"evidence_category":"Eruption Observed","source":"Smithsonian GVP"}},{"type":"Feature","geometry":{"type":"Point","coordinates":[-15.58,28]},"properties":{"name":"Gran Canaria","classification":"potentially_active","elevation":1950,"country":"Spain","region":"Northern Africa Volcanic Regions","last_eruption_year":40,"evidence_category":"Eruption Dated","source":"Smithsonian GVP"}},{"type":"Feature","geometry":{"type":"Point","coordinates":[-14.02,28.358]},"properties":{"name":"Fuerteventura","classification":"potentially_active","elevation":529,"country":"Spain","region":"Northern Africa Volcanic Regions","last_eruption_year":null,"evidence_category":"Evidence Credible","source":"Smithsonian GVP"}},{"type":"Feature","geometry":{"type":"Point","coordinates":[-13.63,29.03]},"properties":{"name":"Lanzarote","classification":"active","elevation":670,"country":"Spain","region":"Northern Africa Volcanic Regions","last_eruption_year":1824,"evidence_category":"Eruption Observed","source":"Smithsonian GVP"}},{"type":"Feature","geometry":{"type":"Point","coordinates":[-24.35,14.95]},"properties":{"name":"Fogo","classification":"active","elevation":2829,"country":"Cabo Verde","region":"Northern Africa Volcanic Regions","last_eruption_year":2015,"evidence_category":"Eruption Observed","source":"Smithsonian GVP"}},{"type":"Feature","geometry":{"type":"Point","coordinates":[-24.7041,14.8514]},"properties":{"name":"Brava","classification":"potentially_active","elevation":956,"country":"Cabo Verde","region":"Northern Africa Volcanic Regions","last_eruption_year":null,"evidence_category":"Evidence Credible","source":"Smithsonian GVP"}},{"type":"Feature","geometry":{"type":"Point","coordinates":[39.83,37.67]},"properties":{"name":"Karaca Dag","classification":"potentially_active","elevation":1957,"country":"Turkiye","region":"Arabia-Central Asia Volcanic Regions","last_eruption_year":null,"evidence_category":"Evidence Credible","source":"Smithsonian GVP"}},{"type":"Feature","geometry":{"type":"Point","coordinates":[42.229,38.654]},"properties":{"name":"Nemrut Dagi","classification":"active","elevation":2948,"country":"Turkiye","region":"Arabia-Central Asia Volcanic Regions","last_eruption_year":1650,"evidence_category":"Eruption Observed","source":"Smithsonian GVP"}},{"type":"Feature","geometry":{"type":"Point","coordinates":[43.874,39.356]},"properties":{"name":"Tenduruk Dagi","classification":"active","elevation":3514,"country":"Turkiye","region":"Arabia-Central Asia Volcanic Regions","last_eruption_year":1855,"evidence_category":"Eruption Observed","source":"Smithsonian GVP"}},{"type":"Feature","geometry":{"type":"Point","coordinates":[44.3,39.7]},"properties":{"name":"Ararat","classification":"active","elevation":5165,"country":"Turkiye","region":"Arabia-Central Asia Volcanic Regions","last_eruption_year":1840,"evidence_category":"Eruption Observed","source":"Smithsonian GVP"}},{"type":"Feature","geometry":{"type":"Point","coordinates":[42.442,43.351]},"properties":{"name":"Elbrus","classification":"potentially_active","elevation":5642,"country":"Russia","region":"Arabia-Central Asia Volcanic Regions","last_eruption_year":50,"evidence_category":"Eruption Dated","source":"Smithsonian GVP"}},{"type":"Feature","geometry":{"type":"Point","coordinates":[44.5184,42.697]},"properties":{"name":"Kazbek","classification":"potentially_active","elevation":5004,"country":"Georgia","region":"Arabia-Central Asia Volcanic Regions","last_eruption_year":-750,"evidence_category":"Eruption Dated","source":"Smithsonian GVP"}},{"type":"Feature","geometry":{"type":"Point","coordinates":[43.7,41.542]},"properties":{"name":"Samsari Volcanic Center","classification":"dormant","elevation":3290,"country":"Georgia","region":"Arabia-Central Asia Volcanic Regions","last_eruption_year":null,"evidence_category":"Evidence Uncertain","source":"Smithsonian GVP"}},{"type":"Feature","geometry":{"type":"Point","coordinates":[44.2,40.53]},"properties":{"name":"Aragats","classification":"potentially_active","elevation":4095,"country":"Armenia","region":"Arabia-Central Asia Volcanic Regions","last_eruption_year":null,"evidence_category":"Evidence Credible","source":"Smithsonian GVP"}},{"type":"Feature","geometry":{"type":"Point","coordinates":[45,40.283]},"properties":{"name":"Ghegham Volcanic Ridge","classification":"potentially_active","elevation":3597,"country":"Armenia","region":"Arabia-Central Asia Volcanic Regions","last_eruption_year":-1900,"evidence_category":"Eruption Dated","source":"Smithsonian GVP"}},{"type":"Feature","geometry":{"type":"Point","coordinates":[45.497,39.797]},"properties":{"name":"Vaiyots-Sar","classification":"potentially_active","elevation":2575,"country":"Armenia","region":"Arabia-Central Asia Volcanic Regions","last_eruption_year":-2000,"evidence_category":"Eruption Dated","source":"Smithsonian GVP"}},{"type":"Feature","geometry":{"type":"Point","coordinates":[45.74,40.028]},"properties":{"name":"Porak","classification":"potentially_active","elevation":3029,"country":"Armenia-Azerbaijan","region":"Arabia-Central Asia Volcanic Regions","last_eruption_year":-778,"evidence_category":"Eruption Dated","source":"Smithsonian GVP"}},{"type":"Feature","geometry":{"type":"Point","coordinates":[45.992,39.742]},"properties":{"name":"Tskhouk-Karckar","classification":"potentially_active","elevation":3139,"country":"Armenia-Azerbaijan","region":"Arabia-Central Asia Volcanic Regions","last_eruption_year":-3000,"evidence_category":"Eruption Dated","source":"Smithsonian GVP"}},{"type":"Feature","geometry":{"type":"Point","coordinates":[37.583,32.333]},"properties":{"name":"Ash Shaam, Harrat","classification":"active","elevation":1100,"country":"Syria-Jordan-Saudi Arabia","region":"Arabia-Central Asia Volcanic Regions","last_eruption_year":-2670,"evidence_category":"Eruption Observed","source":"Smithsonian GVP"}},{"type":"Feature","geometry":{"type":"Point","coordinates":[37.75,25.17]},"properties":{"name":"Lunayyir, Harrat","classification":"active","elevation":1370,"country":"Saudi Arabia","region":"Arabia-Central Asia Volcanic Regions","last_eruption_year":1000,"evidence_category":"Eruption Observed","source":"Smithsonian GVP"}},{"type":"Feature","geometry":{"type":"Point","coordinates":[40.2,26.58]},"properties":{"name":"Ithnayn, Harrat","classification":"potentially_active","elevation":1625,"country":"Saudi Arabia","region":"Arabia-Central Asia Volcanic Regions","last_eruption_year":null,"evidence_category":"Evidence Credible","source":"Smithsonian GVP"}},{"type":"Feature","geometry":{"type":"Point","coordinates":[40,25.5]},"properties":{"name":"Khaybar, Harrat","classification":"active","elevation":2093,"country":"Saudi Arabia","region":"Arabia-Central Asia Volcanic Regions","last_eruption_year":650,"evidence_category":"Eruption Observed","source":"Smithsonian GVP"}},{"type":"Feature","geometry":{"type":"Point","coordinates":[41.38,22.8]},"properties":{"name":"Kishb, Harrat","classification":"potentially_active","elevation":1475,"country":"Saudi Arabia","region":"Arabia-Central Asia Volcanic Regions","last_eruption_year":null,"evidence_category":"Evidence Credible","source":"Smithsonian GVP"}},{"type":"Feature","geometry":{"type":"Point","coordinates":[41.63,18.37]},"properties":{"name":"Birk, Harrat al","classification":"potentially_active","elevation":587,"country":"Saudi Arabia","region":"Arabia-Central Asia Volcanic Regions","last_eruption_year":null,"evidence_category":"Evidence Credible","source":"Smithsonian GVP"}},{"type":"Feature","geometry":{"type":"Point","coordinates":[39.78,23.08]},"properties":{"name":"Rahat, Harrat","classification":"active","elevation":1744,"country":"Saudi Arabia","region":"Arabia-Central Asia Volcanic Regions","last_eruption_year":1256,"evidence_category":"Eruption Observed","source":"Smithsonian GVP"}},{"type":"Feature","geometry":{"type":"Point","coordinates":[42.83,17.05]},"properties":{"name":"Yar, Jabal","classification":"active","elevation":305,"country":"Saudi Arabia","region":"Arabia-Central Asia Volcanic Regions","last_eruption_year":1810,"evidence_category":"Eruption Observed","source":"Smithsonian GVP"}},{"type":"Feature","geometry":{"type":"Point","coordinates":[44.0978,15.6025]},"properties":{"name":"Arhab, Harra of","classification":"active","elevation":3100,"country":"Yemen","region":"Arabia-Central Asia Volcanic Regions","last_eruption_year":500,"evidence_category":"Eruption Observed","source":"Smithsonian GVP"}},{"type":"Feature","geometry":{"type":"Point","coordinates":[45.1,15.4]},"properties":{"name":"Haylan, Jabal","classification":"potentially_active","elevation":1550,"country":"Yemen","region":"Arabia-Central Asia Volcanic Regions","last_eruption_year":-1200,"evidence_category":"Eruption Dated","source":"Smithsonian GVP"}},{"type":"Feature","geometry":{"type":"Point","coordinates":[44.67,14.57]},"properties":{"name":"Dhamar, Harras of","classification":"active","elevation":3500,"country":"Yemen","region":"Arabia-Central Asia Volcanic Regions","last_eruption_year":null,"evidence_category":"Eruption Observed","source":"Smithsonian GVP"}},{"type":"Feature","geometry":{"type":"Point","coordinates":[46.12,13.58]},"properties":{"name":"Sawad, Harra Es-","classification":"active","elevation":1737,"country":"Yemen","region":"Arabia-Central Asia Volcanic Regions","last_eruption_year":1253,"evidence_category":"Eruption Observed","source":"Smithsonian GVP"}},{"type":"Feature","geometry":{"type":"Point","coordinates":[48.3,14.067]},"properties":{"name":"Balhaf-Bir Ali Volcanic Field","classification":"potentially_active","elevation":604,"country":"Yemen","region":"Arabia-Central Asia Volcanic Regions","last_eruption_year":null,"evidence_category":"Evidence Credible","source":"Smithsonian GVP"}},{"type":"Feature","geometry":{"type":"Point","coordinates":[50.935,15.515]},"properties":{"name":"Bir Borhut","classification":"dormant","elevation":464,"country":"Yemen","region":"Arabia-Central Asia Volcanic Regions","last_eruption_year":null,"evidence_category":"Evidence Uncertain","source":"Smithsonian GVP"}},{"type":"Feature","geometry":{"type":"Point","coordinates":[52.109,35.951]},"properties":{"name":"Damavand","classification":"potentially_active","elevation":5670,"country":"Iran","region":"Arabia-Central Asia Volcanic Regions","last_eruption_year":-5350,"evidence_category":"Eruption Dated","source":"Smithsonian GVP"}}],"metadata":{"source":"Smithsonian Global Volcanism Program","layer_id":"europe-africa","feature_count":77}}