{"type":"FeatureCollection","features":[{"type":"Feature","geometry":{"type":"Point","coordinates":[-23.783,64.8]},"properties":{"name":"Snaefellsjokull","classification":"potentially_active","elevation":1446,"country":"Iceland","region":"Atlantic Ocean Volcanic Regions","last_eruption_year":200,"evidence_category":"Eruption Dated","source":"Smithsonian GVP"}},{"type":"Feature","geometry":{"type":"Point","coordinates":[-23.283,64.866]},"properties":{"name":"Helgrindur","classification":"potentially_active","elevation":986,"country":"Iceland","region":"Atlantic Ocean Volcanic Regions","last_eruption_year":null,"evidence_category":"Evidence Credible","source":"Smithsonian GVP"}},{"type":"Feature","geometry":{"type":"Point","coordinates":[-22.483,64.9]},"properties":{"name":"Ljosufjoll","classification":"potentially_active","elevation":1063,"country":"Iceland","region":"Atlantic Ocean Volcanic Regions","last_eruption_year":960,"evidence_category":"Eruption Dated","source":"Smithsonian GVP"}},{"type":"Feature","geometry":{"type":"Point","coordinates":[-22.717,63.817]},"properties":{"name":"Reykjanes","classification":"active","elevation":140,"country":"Iceland","region":"Atlantic Ocean Volcanic Regions","last_eruption_year":2025,"evidence_category":"Eruption Observed","source":"Smithsonian GVP"}},{"type":"Feature","geometry":{"type":"Point","coordinates":[-22.067,63.917]},"properties":{"name":"Krysuvik-Trolladyngja","classification":"active","elevation":360,"country":"Iceland","region":"Atlantic Ocean Volcanic Regions","last_eruption_year":1340,"evidence_category":"Eruption Observed","source":"Smithsonian GVP"}},{"type":"Feature","geometry":{"type":"Point","coordinates":[-21.783,63.933]},"properties":{"name":"Brennisteinsfjoll","classification":"active","elevation":610,"country":"Iceland","region":"Atlantic Ocean Volcanic Regions","last_eruption_year":1341,"evidence_category":"Eruption Observed","source":"Smithsonian GVP"}},{"type":"Feature","geometry":{"type":"Point","coordinates":[-21.333,64.083]},"properties":{"name":"Hromundartindur","classification":"dormant","elevation":550,"country":"Iceland","region":"Atlantic Ocean Volcanic Regions","last_eruption_year":null,"evidence_category":"Evidence Uncertain","source":"Smithsonian GVP"}},{"type":"Feature","geometry":{"type":"Point","coordinates":[-21.416,64.083]},"properties":{"name":"Hengill","classification":"potentially_active","elevation":803,"country":"Iceland","region":"Atlantic Ocean Volcanic Regions","last_eruption_year":150,"evidence_category":"Eruption Dated","source":"Smithsonian GVP"}},{"type":"Feature","geometry":{"type":"Point","coordinates":[-20.883,64.05]},"properties":{"name":"Grimsnes","classification":"potentially_active","elevation":200,"country":"Iceland","region":"Atlantic Ocean Volcanic Regions","last_eruption_year":-3500,"evidence_category":"Eruption Dated","source":"Smithsonian GVP"}},{"type":"Feature","geometry":{"type":"Point","coordinates":[-20.666,64.583]},"properties":{"name":"Prestahnukur","classification":"potentially_active","elevation":1385,"country":"Iceland","region":"Atlantic Ocean Volcanic Regions","last_eruption_year":-3350,"evidence_category":"Eruption Dated","source":"Smithsonian GVP"}},{"type":"Feature","geometry":{"type":"Point","coordinates":[-19.7,64.85]},"properties":{"name":"Oddnyjarhnjukur-Langjokull","classification":"potentially_active","elevation":1100,"country":"Iceland","region":"Atlantic Ocean Volcanic Regions","last_eruption_year":950,"evidence_category":"Eruption Dated","source":"Smithsonian GVP"}},{"type":"Feature","geometry":{"type":"Point","coordinates":[-18.766,64.833]},"properties":{"name":"Hofsjokull","classification":"potentially_active","elevation":1765,"country":"Iceland","region":"Atlantic Ocean Volcanic Regions","last_eruption_year":null,"evidence_category":"Evidence Credible","source":"Smithsonian GVP"}},{"type":"Feature","geometry":{"type":"Point","coordinates":[-20.266,63.416]},"properties":{"name":"Vestmannaeyjar","classification":"active","elevation":283,"country":"Iceland","region":"Atlantic Ocean Volcanic Regions","last_eruption_year":1973,"evidence_category":"Eruption Observed","source":"Smithsonian GVP"}},{"type":"Feature","geometry":{"type":"Point","coordinates":[-19.633,63.633]},"properties":{"name":"Eyjafjallajokull","classification":"active","elevation":1651,"country":"Iceland","region":"Atlantic Ocean Volcanic Regions","last_eruption_year":2010,"evidence_category":"Eruption Observed","source":"Smithsonian GVP"}},{"type":"Feature","geometry":{"type":"Point","coordinates":[-19.083,63.633]},"properties":{"name":"Katla","classification":"active","elevation":1490,"country":"Iceland","region":"Atlantic Ocean Volcanic Regions","last_eruption_year":1918,"evidence_category":"Eruption Observed","source":"Smithsonian GVP"}},{"type":"Feature","geometry":{"type":"Point","coordinates":[-19.716,63.783]},"properties":{"name":"Tindfjallajokull","classification":"dormant","elevation":1464,"country":"Iceland","region":"Atlantic Ocean Volcanic Regions","last_eruption_year":null,"evidence_category":"Evidence Uncertain","source":"Smithsonian GVP"}},{"type":"Feature","geometry":{"type":"Point","coordinates":[-19.122,63.892]},"properties":{"name":"Torfajokull","classification":"active","elevation":1280,"country":"Iceland","region":"Atlantic Ocean Volcanic Regions","last_eruption_year":1477,"evidence_category":"Eruption Observed","source":"Smithsonian GVP"}},{"type":"Feature","geometry":{"type":"Point","coordinates":[-19.666,63.983]},"properties":{"name":"Hekla","classification":"active","elevation":1490,"country":"Iceland","region":"Atlantic Ocean Volcanic Regions","last_eruption_year":2000,"evidence_category":"Eruption Observed","source":"Smithsonian GVP"}},{"type":"Feature","geometry":{"type":"Point","coordinates":[-17.316,64.416]},"properties":{"name":"Grimsvotn","classification":"active","elevation":1719,"country":"Iceland","region":"Atlantic Ocean Volcanic Regions","last_eruption_year":2011,"evidence_category":"Eruption Observed","source":"Smithsonian GVP"}},{"type":"Feature","geometry":{"type":"Point","coordinates":[-17.516,64.633]},"properties":{"name":"Bardarbunga","classification":"active","elevation":2000,"country":"Iceland","region":"Atlantic Ocean Volcanic Regions","last_eruption_year":2015,"evidence_category":"Eruption Observed","source":"Smithsonian GVP"}},{"type":"Feature","geometry":{"type":"Point","coordinates":[-17.916,64.75]},"properties":{"name":"Tungnafellsjokull","classification":"potentially_active","elevation":1523,"country":"Iceland","region":"Atlantic Ocean Volcanic Regions","last_eruption_year":null,"evidence_category":"Evidence Credible","source":"Smithsonian GVP"}},{"type":"Feature","geometry":{"type":"Point","coordinates":[-16.647,64.653]},"properties":{"name":"Kverkfjoll","classification":"active","elevation":1930,"country":"Iceland","region":"Atlantic Ocean Volcanic Regions","last_eruption_year":1968,"evidence_category":"Eruption Observed","source":"Smithsonian GVP"}},{"type":"Feature","geometry":{"type":"Point","coordinates":[-16.783,65.033]},"properties":{"name":"Askja","classification":"active","elevation":1080,"country":"Iceland","region":"Atlantic Ocean Volcanic Regions","last_eruption_year":1961,"evidence_category":"Eruption Observed","source":"Smithsonian GVP"}},{"type":"Feature","geometry":{"type":"Point","coordinates":[-16.666,65.416]},"properties":{"name":"Fremrinamar","classification":"potentially_active","elevation":970,"country":"Iceland","region":"Atlantic Ocean Volcanic Regions","last_eruption_year":-1200,"evidence_category":"Eruption Dated","source":"Smithsonian GVP"}},{"type":"Feature","geometry":{"type":"Point","coordinates":[-16.728,65.715]},"properties":{"name":"Krafla","classification":"active","elevation":800,"country":"Iceland","region":"Atlantic Ocean Volcanic Regions","last_eruption_year":1984,"evidence_category":"Eruption Observed","source":"Smithsonian GVP"}},{"type":"Feature","geometry":{"type":"Point","coordinates":[-16.967,65.883]},"properties":{"name":"Theistareykir","classification":"potentially_active","elevation":563,"country":"Iceland","region":"Atlantic Ocean Volcanic Regions","last_eruption_year":-900,"evidence_category":"Eruption Dated","source":"Smithsonian GVP"}},{"type":"Feature","geometry":{"type":"Point","coordinates":[-17.118,66.309]},"properties":{"name":"Tjornes Fracture Zone","classification":"active","elevation":-75,"country":"Iceland","region":"Atlantic Ocean Volcanic Regions","last_eruption_year":1868,"evidence_category":"Eruption Observed","source":"Smithsonian GVP"}},{"type":"Feature","geometry":{"type":"Point","coordinates":[-16.65,64]},"properties":{"name":"Oraefajokull","classification":"active","elevation":2010,"country":"Iceland","region":"Atlantic Ocean Volcanic Regions","last_eruption_year":1728,"evidence_category":"Eruption Observed","source":"Smithsonian GVP"}},{"type":"Feature","geometry":{"type":"Point","coordinates":[-16.583,64.25]},"properties":{"name":"Esjufjoll","classification":"active","elevation":1620,"country":"Iceland","region":"Atlantic Ocean Volcanic Regions","last_eruption_year":null,"evidence_category":"Unrest / Holocene","source":"Smithsonian GVP"}},{"type":"Feature","geometry":{"type":"Point","coordinates":[-15.56,64.798]},"properties":{"name":"Snaefell","classification":"dormant","elevation":1833,"country":"Iceland","region":"Atlantic Ocean Volcanic Regions","last_eruption_year":null,"evidence_category":"Evidence Uncertain","source":"Smithsonian GVP"}},{"type":"Feature","geometry":{"type":"Point","coordinates":[-18.5,66.67]},"properties":{"name":"Kolbeinsey Ridge","classification":"active","elevation":5,"country":"Iceland","region":"Atlantic Ocean Volcanic Regions","last_eruption_year":1755,"evidence_category":"Eruption Observed","source":"Smithsonian GVP"}},{"type":"Feature","geometry":{"type":"Point","coordinates":[-8.155,71.082]},"properties":{"name":"Jan Mayen","classification":"active","elevation":2197,"country":"Norway","region":"Atlantic Ocean Volcanic Regions","last_eruption_year":1985,"evidence_category":"Eruption Observed","source":"Smithsonian GVP"}},{"type":"Feature","geometry":{"type":"Point","coordinates":[85.25,85.608]},"properties":{"name":"East Gakkel Ridge at 85\u00b0E","classification":"potentially_active","elevation":-3800,"country":"Undersea Features","region":"Atlantic Ocean Volcanic Regions","last_eruption_year":1999,"evidence_category":"Evidence Credible","source":"Smithsonian GVP"}},{"type":"Feature","geometry":{"type":"Point","coordinates":[-38.08,38.75]},"properties":{"name":"Pico Fracture Zone","classification":"active","elevation":-4200,"country":"Undersea Features","region":"Atlantic Ocean Volcanic Regions","last_eruption_year":1865,"evidence_category":"Eruption Observed","source":"Smithsonian GVP"}},{"type":"Feature","geometry":{"type":"Point","coordinates":[-31.216,39.462]},"properties":{"name":"Flores","classification":"potentially_active","elevation":914,"country":"Portugal","region":"Atlantic Ocean Volcanic Regions","last_eruption_year":-950,"evidence_category":"Eruption Dated","source":"Smithsonian GVP"}},{"type":"Feature","geometry":{"type":"Point","coordinates":[-28.713,38.576]},"properties":{"name":"Fayal","classification":"active","elevation":1041,"country":"Portugal","region":"Atlantic Ocean Volcanic Regions","last_eruption_year":1958,"evidence_category":"Eruption Observed","source":"Smithsonian GVP"}},{"type":"Feature","geometry":{"type":"Point","coordinates":[-28.4,38.47]},"properties":{"name":"Pico","classification":"active","elevation":2351,"country":"Portugal","region":"Atlantic Ocean Volcanic Regions","last_eruption_year":1720,"evidence_category":"Eruption Observed","source":"Smithsonian GVP"}},{"type":"Feature","geometry":{"type":"Point","coordinates":[-28.08,38.65]},"properties":{"name":"Sao Jorge","classification":"active","elevation":1053,"country":"Portugal","region":"Atlantic Ocean Volcanic Regions","last_eruption_year":1902,"evidence_category":"Eruption Observed","source":"Smithsonian GVP"}},{"type":"Feature","geometry":{"type":"Point","coordinates":[-27.97,39.02]},"properties":{"name":"Graciosa","classification":"potentially_active","elevation":402,"country":"Portugal","region":"Atlantic Ocean Volcanic Regions","last_eruption_year":-1950,"evidence_category":"Eruption Dated","source":"Smithsonian GVP"}},{"type":"Feature","geometry":{"type":"Point","coordinates":[-27.32,38.73]},"properties":{"name":"Terceira","classification":"active","elevation":1023,"country":"Portugal","region":"Atlantic Ocean Volcanic Regions","last_eruption_year":2000,"evidence_category":"Eruption Observed","source":"Smithsonian GVP"}},{"type":"Feature","geometry":{"type":"Point","coordinates":[-26.63,38.23]},"properties":{"name":"Don Joao de Castro Bank","classification":"active","elevation":-13,"country":"Portugal","region":"Atlantic Ocean Volcanic Regions","last_eruption_year":1720,"evidence_category":"Eruption Observed","source":"Smithsonian GVP"}},{"type":"Feature","geometry":{"type":"Point","coordinates":[-25.67,37.78]},"properties":{"name":"Picos Fissural Volcanic System","classification":"active","elevation":350,"country":"Portugal","region":"Atlantic Ocean Volcanic Regions","last_eruption_year":1652,"evidence_category":"Eruption Observed","source":"Smithsonian GVP"}},{"type":"Feature","geometry":{"type":"Point","coordinates":[-25.785,37.865]},"properties":{"name":"Sete Cidades","classification":"active","elevation":842,"country":"Portugal","region":"Atlantic Ocean Volcanic Regions","last_eruption_year":1880,"evidence_category":"Eruption Observed","source":"Smithsonian GVP"}},{"type":"Feature","geometry":{"type":"Point","coordinates":[-25.47,37.77]},"properties":{"name":"Agua de Pau","classification":"active","elevation":947,"country":"Portugal","region":"Atlantic Ocean Volcanic Regions","last_eruption_year":1564,"evidence_category":"Eruption Observed","source":"Smithsonian GVP"}},{"type":"Feature","geometry":{"type":"Point","coordinates":[-25.32,37.77]},"properties":{"name":"Furnas","classification":"active","elevation":805,"country":"Portugal","region":"Atlantic Ocean Volcanic Regions","last_eruption_year":1630,"evidence_category":"Eruption Observed","source":"Smithsonian GVP"}},{"type":"Feature","geometry":{"type":"Point","coordinates":[-25.88,37.6]},"properties":{"name":"Monaco Bank","classification":"active","elevation":-197,"country":"Portugal","region":"Atlantic Ocean Volcanic Regions","last_eruption_year":1911,"evidence_category":"Eruption Observed","source":"Smithsonian GVP"}},{"type":"Feature","geometry":{"type":"Point","coordinates":[-19.596,-0.433]},"properties":{"name":"Romanche Fracture Zone","classification":"dormant","elevation":-1528,"country":"Undersea Features","region":"Atlantic Ocean Volcanic Regions","last_eruption_year":null,"evidence_category":"Evidence Uncertain","source":"Smithsonian GVP"}},{"type":"Feature","geometry":{"type":"Point","coordinates":[-14.3667,-7.9458]},"properties":{"name":"Ascension","classification":"potentially_active","elevation":822,"country":"United Kingdom","region":"Atlantic Ocean Volcanic Regions","last_eruption_year":1508,"evidence_category":"Eruption Dated","source":"Smithsonian GVP"}},{"type":"Feature","geometry":{"type":"Point","coordinates":[-12.48,-37.42]},"properties":{"name":"Nightingale Island","classification":"active","elevation":365,"country":"United Kingdom","region":"Atlantic Ocean Volcanic Regions","last_eruption_year":2004,"evidence_category":"Eruption Observed","source":"Smithsonian GVP"}},{"type":"Feature","geometry":{"type":"Point","coordinates":[-12.28,-37.092]},"properties":{"name":"Tristan da Cunha","classification":"active","elevation":2060,"country":"United Kingdom","region":"Atlantic Ocean Volcanic Regions","last_eruption_year":1962,"evidence_category":"Eruption Observed","source":"Smithsonian GVP"}},{"type":"Feature","geometry":{"type":"Point","coordinates":[3.351,-54.408]},"properties":{"name":"Bouvet","classification":"potentially_active","elevation":741,"country":"Norway","region":"Atlantic Ocean Volcanic Regions","last_eruption_year":-50,"evidence_category":"Eruption Dated","source":"Smithsonian GVP"}},{"type":"Feature","geometry":{"type":"Point","coordinates":[-5.22,-32.958]},"properties":{"name":"Walvis Ridge at 33\u00b0S","classification":"active","elevation":-1200,"country":"Undersea Features","region":"Atlantic Ocean Volcanic Regions","last_eruption_year":2002,"evidence_category":"Eruption Observed","source":"Smithsonian GVP"}},{"type":"Feature","geometry":{"type":"Point","coordinates":[-16.817,65.583]},"properties":{"name":"Heidarspordar","classification":"potentially_active","elevation":490,"country":"Iceland","region":"Atlantic Ocean Volcanic Regions","last_eruption_year":-300,"evidence_category":"Eruption Dated","source":"Smithsonian GVP"}},{"type":"Feature","geometry":{"type":"Point","coordinates":[-23,63.733]},"properties":{"name":"Eldey","classification":"active","elevation":70,"country":"Iceland","region":"Atlantic Ocean Volcanic Regions","last_eruption_year":1926,"evidence_category":"Eruption Observed","source":"Smithsonian GVP"}},{"type":"Feature","geometry":{"type":"Point","coordinates":[-17.617,64.267]},"properties":{"name":"Thordarhyrna","classification":"active","elevation":1650,"country":"Iceland","region":"Atlantic Ocean Volcanic Regions","last_eruption_year":1904,"evidence_category":"Eruption Observed","source":"Smithsonian GVP"}},{"type":"Feature","geometry":{"type":"Point","coordinates":[-22.258,63.895]},"properties":{"name":"Fagradalsfjall","classification":"active","elevation":250,"country":"Iceland","region":"Atlantic Ocean Volcanic Regions","last_eruption_year":2023,"evidence_category":"Eruption Observed","source":"Smithsonian GVP"}},{"type":"Feature","geometry":{"type":"Point","coordinates":[-115.616,33.197]},"properties":{"name":"Salton Buttes","classification":"potentially_active","elevation":-40,"country":"United States","region":"Eastern Pacific Volcanic Regions","last_eruption_year":210,"evidence_category":"Eruption Dated","source":"Smithsonian GVP"}},{"type":"Feature","geometry":{"type":"Point","coordinates":[-129.1,47.95]},"properties":{"name":"Endeavour Segment","classification":"potentially_active","elevation":-2050,"country":"Canada","region":"Eastern Pacific Volcanic Regions","last_eruption_year":-3490,"evidence_category":"Eruption Dated","source":"Smithsonian GVP"}},{"type":"Feature","geometry":{"type":"Point","coordinates":[-129.33,46.88]},"properties":{"name":"Cobb Segment","classification":"potentially_active","elevation":-2100,"country":"Canada","region":"Eastern Pacific Volcanic Regions","last_eruption_year":-1180,"evidence_category":"Eruption Dated","source":"Smithsonian GVP"}},{"type":"Feature","geometry":{"type":"Point","coordinates":[-129.58,46.52]},"properties":{"name":"CoAxial Segment","classification":"active","elevation":-2400,"country":"Undersea Features","region":"Eastern Pacific Volcanic Regions","last_eruption_year":1993,"evidence_category":"Eruption Observed","source":"Smithsonian GVP"}},{"type":"Feature","geometry":{"type":"Point","coordinates":[-130,45.95]},"properties":{"name":"Axial Seamount","classification":"active","elevation":-1410,"country":"Undersea Features","region":"Eastern Pacific Volcanic Regions","last_eruption_year":2015,"evidence_category":"Eruption Observed","source":"Smithsonian GVP"}},{"type":"Feature","geometry":{"type":"Point","coordinates":[-130.3,44.83]},"properties":{"name":"Cleft Segment","classification":"active","elevation":-2140,"country":"Undersea Features","region":"Eastern Pacific Volcanic Regions","last_eruption_year":1986,"evidence_category":"Eruption Observed","source":"Smithsonian GVP"}},{"type":"Feature","geometry":{"type":"Point","coordinates":[-126.78,42.67]},"properties":{"name":"North Gorda Ridge Segment","classification":"active","elevation":-3000,"country":"United States","region":"Eastern Pacific Volcanic Regions","last_eruption_year":1996,"evidence_category":"Eruption Observed","source":"Smithsonian GVP"}},{"type":"Feature","geometry":{"type":"Point","coordinates":[-127.5,40.98]},"properties":{"name":"Escanaba Segment","classification":"potentially_active","elevation":-1700,"country":"United States","region":"Eastern Pacific Volcanic Regions","last_eruption_year":-2260,"evidence_category":"Eruption Dated","source":"Smithsonian GVP"}},{"type":"Feature","geometry":{"type":"Point","coordinates":[-155.27,18.92]},"properties":{"name":"Kama'ehuakanaloa","classification":"active","elevation":-975,"country":"United States","region":"Eastern Pacific Volcanic Regions","last_eruption_year":1996,"evidence_category":"Eruption Observed","source":"Smithsonian GVP"}},{"type":"Feature","geometry":{"type":"Point","coordinates":[-155.287,19.421]},"properties":{"name":"Kilauea","classification":"active","elevation":1222,"country":"United States","region":"Eastern Pacific Volcanic Regions","last_eruption_year":2026,"evidence_category":"Eruption Observed","source":"Smithsonian GVP"}},{"type":"Feature","geometry":{"type":"Point","coordinates":[-155.608,19.475]},"properties":{"name":"Mauna Loa","classification":"active","elevation":4170,"country":"United States","region":"Eastern Pacific Volcanic Regions","last_eruption_year":2022,"evidence_category":"Eruption Observed","source":"Smithsonian GVP"}},{"type":"Feature","geometry":{"type":"Point","coordinates":[-155.47,19.82]},"properties":{"name":"Mauna Kea","classification":"potentially_active","elevation":4205,"country":"United States","region":"Eastern Pacific Volcanic Regions","last_eruption_year":-2460,"evidence_category":"Eruption Dated","source":"Smithsonian GVP"}},{"type":"Feature","geometry":{"type":"Point","coordinates":[-155.87,19.692]},"properties":{"name":"Hualalai","classification":"active","elevation":2523,"country":"United States","region":"Eastern Pacific Volcanic Regions","last_eruption_year":1801,"evidence_category":"Eruption Observed","source":"Smithsonian GVP"}},{"type":"Feature","geometry":{"type":"Point","coordinates":[-156.2537,20.7099]},"properties":{"name":"Haleakala","classification":"potentially_active","elevation":3053,"country":"United States","region":"Eastern Pacific Volcanic Regions","last_eruption_year":1750,"evidence_category":"Eruption Dated","source":"Smithsonian GVP"}},{"type":"Feature","geometry":{"type":"Point","coordinates":[-105.32,16.55]},"properties":{"name":"Northern EPR at 17\u00b0N","classification":"potentially_active","elevation":-2700,"country":"Mexico","region":"Eastern Pacific Volcanic Regions","last_eruption_year":-50,"evidence_category":"Eruption Dated","source":"Smithsonian GVP"}},{"type":"Feature","geometry":{"type":"Point","coordinates":[-105.43,15.83]},"properties":{"name":"Northern EPR at 16\u00b0N","classification":"potentially_active","elevation":-2300,"country":"Mexico","region":"Eastern Pacific Volcanic Regions","last_eruption_year":-50,"evidence_category":"Eruption Dated","source":"Smithsonian GVP"}},{"type":"Feature","geometry":{"type":"Point","coordinates":[-103.58,10.73]},"properties":{"name":"Northern EPR at 10.7\u00b0N","classification":"active","elevation":-2900,"country":"Undersea Features","region":"Eastern Pacific Volcanic Regions","last_eruption_year":2003,"evidence_category":"Eruption Observed","source":"Smithsonian GVP"}},{"type":"Feature","geometry":{"type":"Point","coordinates":[-104.3,9.83]},"properties":{"name":"Northern EPR at 9.8\u00b0N","classification":"active","elevation":-2500,"country":"Undersea Features","region":"Eastern Pacific Volcanic Regions","last_eruption_year":2025,"evidence_category":"Eruption Observed","source":"Smithsonian GVP"}},{"type":"Feature","geometry":{"type":"Point","coordinates":[-86.15,0.792]},"properties":{"name":"Galapagos Rift at 86\u00b0W","classification":"active","elevation":-2430,"country":"Ecuador","region":"Eastern Pacific Volcanic Regions","last_eruption_year":1996,"evidence_category":"Eruption Observed","source":"Smithsonian GVP"}},{"type":"Feature","geometry":{"type":"Point","coordinates":[-114.4082,29.9728]},"properties":{"name":"San Luis, Isla","classification":"potentially_active","elevation":183,"country":"Mexico","region":"Eastern Pacific Volcanic Regions","last_eruption_year":-1141,"evidence_category":"Evidence Credible","source":"Smithsonian GVP"}},{"type":"Feature","geometry":{"type":"Point","coordinates":[-114.5,29.33]},"properties":{"name":"Jaraguay Volcanic Field","classification":"potentially_active","elevation":960,"country":"Mexico","region":"Eastern Pacific Volcanic Regions","last_eruption_year":null,"evidence_category":"Evidence Credible","source":"Smithsonian GVP"}},{"type":"Feature","geometry":{"type":"Point","coordinates":[-113.75,28.5]},"properties":{"name":"San Borja Volcanic Field","classification":"potentially_active","elevation":1360,"country":"Mexico","region":"Eastern Pacific Volcanic Regions","last_eruption_year":null,"evidence_category":"Evidence Credible","source":"Smithsonian GVP"}},{"type":"Feature","geometry":{"type":"Point","coordinates":[-111.881,27.438]},"properties":{"name":"Tortuga, Isla","classification":"potentially_active","elevation":224,"country":"Mexico","region":"Eastern Pacific Volcanic Regions","last_eruption_year":null,"evidence_category":"Evidence Credible","source":"Smithsonian GVP"}},{"type":"Feature","geometry":{"type":"Point","coordinates":[-111.92,26]},"properties":{"name":"Comondu-La Purisima","classification":"dormant","elevation":780,"country":"Mexico","region":"Eastern Pacific Volcanic Regions","last_eruption_year":null,"evidence_category":"Evidence Uncertain","source":"Smithsonian GVP"}},{"type":"Feature","geometry":{"type":"Point","coordinates":[-110.95,18.78]},"properties":{"name":"Socorro","classification":"active","elevation":1050,"country":"Mexico","region":"Eastern Pacific Volcanic Regions","last_eruption_year":1994,"evidence_category":"Eruption Observed","source":"Smithsonian GVP"}},{"type":"Feature","geometry":{"type":"Point","coordinates":[-110.82,19.3]},"properties":{"name":"Barcena","classification":"active","elevation":332,"country":"Mexico","region":"Eastern Pacific Volcanic Regions","last_eruption_year":1953,"evidence_category":"Eruption Observed","source":"Smithsonian GVP"}},{"type":"Feature","geometry":{"type":"Point","coordinates":[-91.546,-0.02]},"properties":{"name":"Ecuador","classification":"potentially_active","elevation":790,"country":"Ecuador","region":"Eastern Pacific Volcanic Regions","last_eruption_year":1150,"evidence_category":"Eruption Dated","source":"Smithsonian GVP"}},{"type":"Feature","geometry":{"type":"Point","coordinates":[-91.55,-0.37]},"properties":{"name":"Fernandina","classification":"active","elevation":1476,"country":"Ecuador","region":"Eastern Pacific Volcanic Regions","last_eruption_year":2024,"evidence_category":"Eruption Observed","source":"Smithsonian GVP"}},{"type":"Feature","geometry":{"type":"Point","coordinates":[-91.35,0.02]},"properties":{"name":"Wolf","classification":"active","elevation":1710,"country":"Ecuador","region":"Eastern Pacific Volcanic Regions","last_eruption_year":2022,"evidence_category":"Eruption Observed","source":"Smithsonian GVP"}},{"type":"Feature","geometry":{"type":"Point","coordinates":[-91.28,-0.18]},"properties":{"name":"Darwin","classification":"potentially_active","elevation":1330,"country":"Ecuador","region":"Eastern Pacific Volcanic Regions","last_eruption_year":1813,"evidence_category":"Eruption Dated","source":"Smithsonian GVP"}},{"type":"Feature","geometry":{"type":"Point","coordinates":[-91.12,-0.43]},"properties":{"name":"Alcedo","classification":"active","elevation":1130,"country":"Ecuador","region":"Eastern Pacific Volcanic Regions","last_eruption_year":1993,"evidence_category":"Eruption Observed","source":"Smithsonian GVP"}},{"type":"Feature","geometry":{"type":"Point","coordinates":[-91.17,-0.83]},"properties":{"name":"Negra, Sierra","classification":"active","elevation":1124,"country":"Ecuador","region":"Eastern Pacific Volcanic Regions","last_eruption_year":2018,"evidence_category":"Eruption Observed","source":"Smithsonian GVP"}},{"type":"Feature","geometry":{"type":"Point","coordinates":[-91.408,-0.92]},"properties":{"name":"Azul, Cerro","classification":"active","elevation":1640,"country":"Ecuador","region":"Eastern Pacific Volcanic Regions","last_eruption_year":2008,"evidence_category":"Eruption Observed","source":"Smithsonian GVP"}},{"type":"Feature","geometry":{"type":"Point","coordinates":[-90.7553,0.5858]},"properties":{"name":"Pinta","classification":"active","elevation":729,"country":"Ecuador","region":"Eastern Pacific Volcanic Regions","last_eruption_year":null,"evidence_category":"Eruption Observed","source":"Smithsonian GVP"}},{"type":"Feature","geometry":{"type":"Point","coordinates":[-89.958,0.32]},"properties":{"name":"Genovesa","classification":"potentially_active","elevation":64,"country":"Ecuador","region":"Eastern Pacific Volcanic Regions","last_eruption_year":null,"evidence_category":"Evidence Credible","source":"Smithsonian GVP"}},{"type":"Feature","geometry":{"type":"Point","coordinates":[-90.47,0.33]},"properties":{"name":"Marchena","classification":"active","elevation":343,"country":"Ecuador","region":"Eastern Pacific Volcanic Regions","last_eruption_year":1991,"evidence_category":"Eruption Observed","source":"Smithsonian GVP"}},{"type":"Feature","geometry":{"type":"Point","coordinates":[-90.33,-0.62]},"properties":{"name":"Santa Cruz","classification":"potentially_active","elevation":864,"country":"Ecuador","region":"Eastern Pacific Volcanic Regions","last_eruption_year":null,"evidence_category":"Evidence Credible","source":"Smithsonian GVP"}},{"type":"Feature","geometry":{"type":"Point","coordinates":[-90.77,-0.22]},"properties":{"name":"Santiago","classification":"active","elevation":920,"country":"Ecuador","region":"Eastern Pacific Volcanic Regions","last_eruption_year":1906,"evidence_category":"Eruption Observed","source":"Smithsonian GVP"}},{"type":"Feature","geometry":{"type":"Point","coordinates":[-89.4292,-0.8292]},"properties":{"name":"San Cristobal","classification":"potentially_active","elevation":707,"country":"Ecuador","region":"Eastern Pacific Volcanic Regions","last_eruption_year":null,"evidence_category":"Evidence Credible","source":"Smithsonian GVP"}},{"type":"Feature","geometry":{"type":"Point","coordinates":[-127.05,42.15]},"properties":{"name":"Jackson Segment","classification":"active","elevation":-3100,"country":"United States","region":"Eastern Pacific Volcanic Regions","last_eruption_year":null,"evidence_category":"Unrest / Holocene","source":"Smithsonian GVP"}},{"type":"Feature","geometry":{"type":"Point","coordinates":[-128.64,48.78]},"properties":{"name":"West Valley Segment","classification":"active","elevation":-2550,"country":"Canada","region":"Eastern Pacific Volcanic Regions","last_eruption_year":null,"evidence_category":"Unrest / Holocene","source":"Smithsonian GVP"}},{"type":"Feature","geometry":{"type":"Point","coordinates":[-129.879,44.267]},"properties":{"name":"East Blanco Depression","classification":"active","elevation":-3000,"country":"Undersea Features","region":"Eastern Pacific Volcanic Regions","last_eruption_year":null,"evidence_category":"Unrest / Holocene","source":"Smithsonian GVP"}},{"type":"Feature","geometry":{"type":"Point","coordinates":[162.47,-66.42]},"properties":{"name":"Young Island","classification":"dormant","elevation":1340,"country":"Antarctica","region":"Antarctic-Scotia Volcanic Regions","last_eruption_year":null,"evidence_category":"Evidence Uncertain","source":"Smithsonian GVP"}},{"type":"Feature","geometry":{"type":"Point","coordinates":[164.83,-67.4]},"properties":{"name":"Sturge Island","classification":"dormant","elevation":1167,"country":"Antarctica","region":"Antarctic-Scotia Volcanic Regions","last_eruption_year":null,"evidence_category":"Evidence Uncertain","source":"Smithsonian GVP"}},{"type":"Feature","geometry":{"type":"Point","coordinates":[165.5,-72.67]},"properties":{"name":"Pleiades, The","classification":"potentially_active","elevation":3040,"country":"Antarctica","region":"Antarctic-Scotia Volcanic Regions","last_eruption_year":-1050,"evidence_category":"Eruption Dated","source":"Smithsonian GVP"}},{"type":"Feature","geometry":{"type":"Point","coordinates":[164.7,-74.35]},"properties":{"name":"Melbourne","classification":"potentially_active","elevation":2732,"country":"Antarctica","region":"Antarctic-Scotia Volcanic Regions","last_eruption_year":1892,"evidence_category":"Eruption Dated","source":"Smithsonian GVP"}},{"type":"Feature","geometry":{"type":"Point","coordinates":[163,-76.83]},"properties":{"name":"McMurdo Province at 76.8\u00b0S","classification":"dormant","elevation":-500,"country":"Antarctica","region":"Antarctic-Scotia Volcanic Regions","last_eruption_year":null,"evidence_category":"Evidence Uncertain","source":"Smithsonian GVP"}},{"type":"Feature","geometry":{"type":"Point","coordinates":[163.25,-66.78]},"properties":{"name":"Buckle Island","classification":"active","elevation":1239,"country":"Antarctica","region":"Antarctic-Scotia Volcanic Regions","last_eruption_year":1899,"evidence_category":"Eruption Observed","source":"Smithsonian GVP"}},{"type":"Feature","geometry":{"type":"Point","coordinates":[163.53,-78.5]},"properties":{"name":"Morning","classification":"dormant","elevation":2723,"country":"Antarctica","region":"Antarctic-Scotia Volcanic Regions","last_eruption_year":null,"evidence_category":"Evidence Uncertain","source":"Smithsonian GVP"}},{"type":"Feature","geometry":{"type":"Point","coordinates":[163.33,-78.25]},"properties":{"name":"Royal Society Range","classification":"dormant","elevation":3000,"country":"Antarctica","region":"Antarctic-Scotia Volcanic Regions","last_eruption_year":null,"evidence_category":"Evidence Uncertain","source":"Smithsonian GVP"}},{"type":"Feature","geometry":{"type":"Point","coordinates":[-136,-76.05]},"properties":{"name":"Berlin","classification":"potentially_active","elevation":3478,"country":"Antarctica","region":"Antarctic-Scotia Volcanic Regions","last_eruption_year":-8350,"evidence_category":"Eruption Dated","source":"Smithsonian GVP"}},{"type":"Feature","geometry":{"type":"Point","coordinates":[-132.33,-75.8]},"properties":{"name":"Andrus","classification":"dormant","elevation":2978,"country":"Antarctica","region":"Antarctic-Scotia Volcanic Regions","last_eruption_year":null,"evidence_category":"Evidence Uncertain","source":"Smithsonian GVP"}},{"type":"Feature","geometry":{"type":"Point","coordinates":[-112.08,-76.28]},"properties":{"name":"Takahe","classification":"potentially_active","elevation":3460,"country":"Antarctica","region":"Antarctic-Scotia Volcanic Regions","last_eruption_year":-5550,"evidence_category":"Eruption Dated","source":"Smithsonian GVP"}},{"type":"Feature","geometry":{"type":"Point","coordinates":[-99.42,-74.33]},"properties":{"name":"Hudson Mountains","classification":"potentially_active","elevation":749,"country":"Antarctica","region":"Antarctic-Scotia Volcanic Regions","last_eruption_year":-207,"evidence_category":"Eruption Dated","source":"Smithsonian GVP"}},{"type":"Feature","geometry":{"type":"Point","coordinates":[167.17,-77.53]},"properties":{"name":"Erebus","classification":"active","elevation":3794,"country":"Antarctica","region":"Antarctic-Scotia Volcanic Regions","last_eruption_year":2026,"evidence_category":"Eruption Observed","source":"Smithsonian GVP"}},{"type":"Feature","geometry":{"type":"Point","coordinates":[-57.93,-62.1]},"properties":{"name":"Penguin Island","classification":"active","elevation":180,"country":"Antarctica","region":"Antarctic-Scotia Volcanic Regions","last_eruption_year":1905,"evidence_category":"Eruption Observed","source":"Smithsonian GVP"}},{"type":"Feature","geometry":{"type":"Point","coordinates":[-60.6367,-62.9567]},"properties":{"name":"Deception Island","classification":"active","elevation":602,"country":"Antarctica","region":"Antarctic-Scotia Volcanic Regions","last_eruption_year":1970,"evidence_category":"Eruption Observed","source":"Smithsonian GVP"}},{"type":"Feature","geometry":{"type":"Point","coordinates":[-55.78,-63.579]},"properties":{"name":"Paulet","classification":"potentially_active","elevation":353,"country":"Antarctica","region":"Antarctic-Scotia Volcanic Regions","last_eruption_year":null,"evidence_category":"Evidence Credible","source":"Smithsonian GVP"}},{"type":"Feature","geometry":{"type":"Point","coordinates":[-56.713,-62.063]},"properties":{"name":"Bridgeman Island","classification":"dormant","elevation":240,"country":"Antarctica","region":"Antarctic-Scotia Volcanic Regions","last_eruption_year":null,"evidence_category":"Evidence Uncertain","source":"Smithsonian GVP"}},{"type":"Feature","geometry":{"type":"Point","coordinates":[-27.225,-59.442]},"properties":{"name":"Southern Thule","classification":"active","elevation":1075,"country":"United Kingdom","region":"Antarctic-Scotia Volcanic Regions","last_eruption_year":1975,"evidence_category":"Eruption Observed","source":"Smithsonian GVP"}},{"type":"Feature","geometry":{"type":"Point","coordinates":[-26.374,-58.445]},"properties":{"name":"Montagu Island","classification":"active","elevation":1370,"country":"United Kingdom","region":"Antarctic-Scotia Volcanic Regions","last_eruption_year":2007,"evidence_category":"Eruption Observed","source":"Smithsonian GVP"}},{"type":"Feature","geometry":{"type":"Point","coordinates":[-26.533,-59.017]},"properties":{"name":"Bristol Island","classification":"active","elevation":1100,"country":"United Kingdom","region":"Antarctic-Scotia Volcanic Regions","last_eruption_year":2016,"evidence_category":"Eruption Observed","source":"Smithsonian GVP"}},{"type":"Feature","geometry":{"type":"Point","coordinates":[-26.483,-57.8]},"properties":{"name":"Saunders","classification":"active","elevation":843,"country":"United Kingdom","region":"Antarctic-Scotia Volcanic Regions","last_eruption_year":2026,"evidence_category":"Eruption Observed","source":"Smithsonian GVP"}},{"type":"Feature","geometry":{"type":"Point","coordinates":[-26.67,-57.08]},"properties":{"name":"Candlemas Island","classification":"active","elevation":550,"country":"United Kingdom","region":"Antarctic-Scotia Volcanic Regions","last_eruption_year":1911,"evidence_category":"Eruption Observed","source":"Smithsonian GVP"}},{"type":"Feature","geometry":{"type":"Point","coordinates":[-27.176,-56.712]},"properties":{"name":"Hodson","classification":"potentially_active","elevation":835,"country":"United Kingdom","region":"Antarctic-Scotia Volcanic Regions","last_eruption_year":null,"evidence_category":"Evidence Credible","source":"Smithsonian GVP"}},{"type":"Feature","geometry":{"type":"Point","coordinates":[-28.14,-56.656]},"properties":{"name":"Leskov Island","classification":"active","elevation":190,"country":"United Kingdom","region":"Antarctic-Scotia Volcanic Regions","last_eruption_year":null,"evidence_category":"Unrest / Holocene","source":"Smithsonian GVP"}},{"type":"Feature","geometry":{"type":"Point","coordinates":[-27.57,-56.3]},"properties":{"name":"Zavodovski","classification":"active","elevation":551,"country":"United Kingdom","region":"Antarctic-Scotia Volcanic Regions","last_eruption_year":2016,"evidence_category":"Eruption Observed","source":"Smithsonian GVP"}},{"type":"Feature","geometry":{"type":"Point","coordinates":[-28.167,-55.912]},"properties":{"name":"Protector Seamounts","classification":"active","elevation":-55,"country":"United Kingdom","region":"Antarctic-Scotia Volcanic Regions","last_eruption_year":1962,"evidence_category":"Eruption Observed","source":"Smithsonian GVP"}},{"type":"Feature","geometry":{"type":"Point","coordinates":[-57.67,-62.02]},"properties":{"name":"Melville","classification":"dormant","elevation":549,"country":"Antarctica","region":"Antarctic-Scotia Volcanic Regions","last_eruption_year":null,"evidence_category":"Evidence Uncertain","source":"Smithsonian GVP"}},{"type":"Feature","geometry":{"type":"Point","coordinates":[-57.75,-64.15]},"properties":{"name":"Mount Haddington Volcanic Field","classification":"potentially_active","elevation":1544,"country":"Antarctica","region":"Antarctic-Scotia Volcanic Regions","last_eruption_year":null,"evidence_category":"Evidence Credible","source":"Smithsonian GVP"}},{"type":"Feature","geometry":{"type":"Point","coordinates":[-169.058,-14.215]},"properties":{"name":"Vailulu'u","classification":"active","elevation":-592,"country":"United States","region":"Southern Pacific Volcanic Regions","last_eruption_year":2003,"evidence_category":"Eruption Observed","source":"Smithsonian GVP"}},{"type":"Feature","geometry":{"type":"Point","coordinates":[-169.454,-14.23]},"properties":{"name":"Ta'u","classification":"potentially_active","elevation":931,"country":"United States","region":"Southern Pacific Volcanic Regions","last_eruption_year":null,"evidence_category":"Evidence Credible","source":"Smithsonian GVP"}},{"type":"Feature","geometry":{"type":"Point","coordinates":[-169.618,-14.175]},"properties":{"name":"Ofu-Olosega","classification":"active","elevation":639,"country":"United States","region":"Southern Pacific Volcanic Regions","last_eruption_year":1866,"evidence_category":"Eruption Observed","source":"Smithsonian GVP"}},{"type":"Feature","geometry":{"type":"Point","coordinates":[-170.7019,-14.2903]},"properties":{"name":"Tutuila","classification":"potentially_active","elevation":653,"country":"United States","region":"Southern Pacific Volcanic Regions","last_eruption_year":440,"evidence_category":"Eruption Dated","source":"Smithsonian GVP"}},{"type":"Feature","geometry":{"type":"Point","coordinates":[-171.72,-13.935]},"properties":{"name":"Upolu","classification":"potentially_active","elevation":1100,"country":"Samoa","region":"Southern Pacific Volcanic Regions","last_eruption_year":null,"evidence_category":"Evidence Credible","source":"Smithsonian GVP"}},{"type":"Feature","geometry":{"type":"Point","coordinates":[-172.525,-13.612]},"properties":{"name":"Savaii","classification":"active","elevation":1858,"country":"Samoa","region":"Southern Pacific Volcanic Regions","last_eruption_year":1911,"evidence_category":"Eruption Observed","source":"Smithsonian GVP"}},{"type":"Feature","geometry":{"type":"Point","coordinates":[-148.821,-17.564]},"properties":{"name":"Teahitia","classification":"potentially_active","elevation":-1743,"country":"France","region":"Southern Pacific Volcanic Regions","last_eruption_year":1985,"evidence_category":"Eruption Dated","source":"Smithsonian GVP"}},{"type":"Feature","geometry":{"type":"Point","coordinates":[-148.586,-17.662]},"properties":{"name":"Rocard","classification":"potentially_active","elevation":-2515,"country":"France","region":"Southern Pacific Volcanic Regions","last_eruption_year":1972,"evidence_category":"Eruption Dated","source":"Smithsonian GVP"}},{"type":"Feature","geometry":{"type":"Point","coordinates":[-148.525,-18.325]},"properties":{"name":"Moua Pihaa","classification":"potentially_active","elevation":-312,"country":"France","region":"Southern Pacific Volcanic Regions","last_eruption_year":1970,"evidence_category":"Eruption Dated","source":"Smithsonian GVP"}},{"type":"Feature","geometry":{"type":"Point","coordinates":[-148.068,-17.874]},"properties":{"name":"Mehetia","classification":"potentially_active","elevation":389,"country":"France","region":"Southern Pacific Volcanic Regions","last_eruption_year":null,"evidence_category":"Evidence Credible","source":"Smithsonian GVP"}},{"type":"Feature","geometry":{"type":"Point","coordinates":[-129.27,-25.37]},"properties":{"name":"Adams Seamount","classification":"potentially_active","elevation":-39,"country":"United Kingdom","region":"Southern Pacific Volcanic Regions","last_eruption_year":-50,"evidence_category":"Eruption Dated","source":"Smithsonian GVP"}},{"type":"Feature","geometry":{"type":"Point","coordinates":[-140.25,-28.98]},"properties":{"name":"Macdonald","classification":"active","elevation":-39,"country":"France","region":"Southern Pacific Volcanic Regions","last_eruption_year":1989,"evidence_category":"Eruption Observed","source":"Smithsonian GVP"}},{"type":"Feature","geometry":{"type":"Point","coordinates":[-107.95,-8.27]},"properties":{"name":"Southern EPR at 8\u00b0S","classification":"active","elevation":-2800,"country":"Undersea Features","region":"Southern Pacific Volcanic Regions","last_eruption_year":1969,"evidence_category":"Eruption Observed","source":"Smithsonian GVP"}},{"type":"Feature","geometry":{"type":"Point","coordinates":[-113.206,-17.436]},"properties":{"name":"Southern EPR at 17.5\u00b0S (Segment K)","classification":"active","elevation":-2566,"country":"Undersea Features","region":"Southern Pacific Volcanic Regions","last_eruption_year":1990,"evidence_category":"Eruption Observed","source":"Smithsonian GVP"}},{"type":"Feature","geometry":{"type":"Point","coordinates":[-113.35,-18.175]},"properties":{"name":"Southern EPR at 18.2\u00b0S (Segment J)","classification":"potentially_active","elevation":-2650,"country":"Undersea Features","region":"Southern Pacific Volcanic Regions","last_eruption_year":1890,"evidence_category":"Eruption Dated","source":"Smithsonian GVP"}},{"type":"Feature","geometry":{"type":"Point","coordinates":[-113.42,-18.53]},"properties":{"name":"Southern EPR at 18.5\u00b0S (Segment I)","classification":"potentially_active","elevation":-2600,"country":"Undersea Features","region":"Southern Pacific Volcanic Regions","last_eruption_year":1915,"evidence_category":"Eruption Dated","source":"Smithsonian GVP"}},{"type":"Feature","geometry":{"type":"Point","coordinates":[-139.845,-53.998]},"properties":{"name":"Hollister Ridge","classification":"dormant","elevation":-1000,"country":"Undersea Features","region":"Southern Pacific Volcanic Regions","last_eruption_year":null,"evidence_category":"Evidence Uncertain","source":"Smithsonian GVP"}},{"type":"Feature","geometry":{"type":"Point","coordinates":[-143.373,-56.153]},"properties":{"name":"Udintsev Transform","classification":"dormant","elevation":-5700,"country":"Undersea Features","region":"Southern Pacific Volcanic Regions","last_eruption_year":null,"evidence_category":"Evidence Uncertain","source":"Smithsonian GVP"}},{"type":"Feature","geometry":{"type":"Point","coordinates":[-109.356,-27.114]},"properties":{"name":"Rapa Nui","classification":"potentially_active","elevation":501,"country":"Chile","region":"Southern Pacific Volcanic Regions","last_eruption_year":null,"evidence_category":"Evidence Credible","source":"Smithsonian GVP"}},{"type":"Feature","geometry":{"type":"Point","coordinates":[-169.787,-14.601]},"properties":{"name":"Malumalu","classification":"potentially_active","elevation":-145,"country":"United States","region":"Southern Pacific Volcanic Regions","last_eruption_year":null,"evidence_category":"Evidence Credible","source":"Smithsonian GVP"}},{"type":"Feature","geometry":{"type":"Point","coordinates":[43.35,-11.4861]},"properties":{"name":"Grille, La","classification":"potentially_active","elevation":1064,"country":"Union of the Comoros","region":"Somalian-Antarctic Volcanic Regions","last_eruption_year":null,"evidence_category":"Evidence Credible","source":"Smithsonian GVP"}},{"type":"Feature","geometry":{"type":"Point","coordinates":[45.17,-12.83]},"properties":{"name":"Mayotte","classification":"potentially_active","elevation":660,"country":"France","region":"Somalian-Antarctic Volcanic Regions","last_eruption_year":-2050,"evidence_category":"Eruption Dated","source":"Smithsonian GVP"}},{"type":"Feature","geometry":{"type":"Point","coordinates":[43.3639,-11.7658]},"properties":{"name":"Karthala","classification":"active","elevation":2350,"country":"Union of the Comoros","region":"Somalian-Antarctic Volcanic Regions","last_eruption_year":2007,"evidence_category":"Eruption Observed","source":"Smithsonian GVP"}},{"type":"Feature","geometry":{"type":"Point","coordinates":[55.708,-21.244]},"properties":{"name":"Fournaise, Piton de la","classification":"active","elevation":2632,"country":"France","region":"Somalian-Antarctic Volcanic Regions","last_eruption_year":2026,"evidence_category":"Eruption Observed","source":"Smithsonian GVP"}},{"type":"Feature","geometry":{"type":"Point","coordinates":[77.8221,-37.7216]},"properties":{"name":"Boomerang Seamount","classification":"potentially_active","elevation":-650,"country":"France","region":"Somalian-Antarctic Volcanic Regions","last_eruption_year":1995,"evidence_category":"Eruption Dated","source":"Smithsonian GVP"}},{"type":"Feature","geometry":{"type":"Point","coordinates":[77.52,-37.83]},"properties":{"name":"Amsterdam Island","classification":"potentially_active","elevation":881,"country":"France","region":"Somalian-Antarctic Volcanic Regions","last_eruption_year":null,"evidence_category":"Evidence Credible","source":"Smithsonian GVP"}},{"type":"Feature","geometry":{"type":"Point","coordinates":[77.53,-38.72]},"properties":{"name":"St. Paul","classification":"active","elevation":268,"country":"France","region":"Somalian-Antarctic Volcanic Regions","last_eruption_year":1793,"evidence_category":"Eruption Observed","source":"Smithsonian GVP"}},{"type":"Feature","geometry":{"type":"Point","coordinates":[72.595,-53.0394]},"properties":{"name":"McDonald Islands","classification":"active","elevation":263,"country":"Australia","region":"Somalian-Antarctic Volcanic Regions","last_eruption_year":2005,"evidence_category":"Eruption Observed","source":"Smithsonian GVP"}},{"type":"Feature","geometry":{"type":"Point","coordinates":[73.513,-53.106]},"properties":{"name":"Heard","classification":"active","elevation":2745,"country":"Australia","region":"Somalian-Antarctic Volcanic Regions","last_eruption_year":2026,"evidence_category":"Eruption Observed","source":"Smithsonian GVP"}},{"type":"Feature","geometry":{"type":"Point","coordinates":[69.5,-49.58]},"properties":{"name":"Kerguelen Islands","classification":"dormant","elevation":1840,"country":"France","region":"Somalian-Antarctic Volcanic Regions","last_eruption_year":null,"evidence_category":"Evidence Uncertain","source":"Smithsonian GVP"}},{"type":"Feature","geometry":{"type":"Point","coordinates":[52.2,-46.43]},"properties":{"name":"Est, Ile de l'","classification":"dormant","elevation":1090,"country":"France","region":"Somalian-Antarctic Volcanic Regions","last_eruption_year":null,"evidence_category":"Evidence Uncertain","source":"Smithsonian GVP"}},{"type":"Feature","geometry":{"type":"Point","coordinates":[51.75,-46.42]},"properties":{"name":"Possession, Ile de la","classification":"potentially_active","elevation":934,"country":"France","region":"Somalian-Antarctic Volcanic Regions","last_eruption_year":null,"evidence_category":"Evidence Credible","source":"Smithsonian GVP"}},{"type":"Feature","geometry":{"type":"Point","coordinates":[50.23,-46.1]},"properties":{"name":"Cochons, Ile aux","classification":"potentially_active","elevation":775,"country":"France","region":"Somalian-Antarctic Volcanic Regions","last_eruption_year":null,"evidence_category":"Evidence Credible","source":"Smithsonian GVP"}},{"type":"Feature","geometry":{"type":"Point","coordinates":[37.95,-46.63]},"properties":{"name":"Prince Edward Island","classification":"potentially_active","elevation":672,"country":"South Africa","region":"Somalian-Antarctic Volcanic Regions","last_eruption_year":null,"evidence_category":"Evidence Credible","source":"Smithsonian GVP"}},{"type":"Feature","geometry":{"type":"Point","coordinates":[37.75,-46.9]},"properties":{"name":"Marion Island","classification":"active","elevation":1230,"country":"South Africa","region":"Somalian-Antarctic Volcanic Regions","last_eruption_year":2004,"evidence_category":"Eruption Observed","source":"Smithsonian GVP"}},{"type":"Feature","geometry":{"type":"Point","coordinates":[45.7075,-12.9121]},"properties":{"name":"Fani Maore","classification":"active","elevation":-2500,"country":"France","region":"Somalian-Antarctic Volcanic Regions","last_eruption_year":2019,"evidence_category":"Eruption Observed","source":"Smithsonian GVP"}},{"type":"Feature","geometry":{"type":"Point","coordinates":[142.5,-37.77]},"properties":{"name":"Newer Volcanics Province","classification":"potentially_active","elevation":1011,"country":"Australia","region":"Eastern Australia Volcanic Regions","last_eruption_year":-2900,"evidence_category":"Eruption Dated","source":"Smithsonian GVP"}},{"type":"Feature","geometry":{"type":"Point","coordinates":[144.567,-18.367]},"properties":{"name":"McBride Volcanic Province","classification":"potentially_active","elevation":1020,"country":"Australia","region":"Eastern Australia Volcanic Regions","last_eruption_year":-5050,"evidence_category":"Eruption Dated","source":"Smithsonian GVP"}}],"metadata":{"source":"Smithsonian Global Volcanism Program","layer_id":"global-other","feature_count":164}}