{"type":"FeatureCollection","features":[{"type":"Feature","geometry":{"type":"Point","coordinates":[139.098,34.9]},"properties":{"name":"Izu-Tobu","classification":"active","elevation":1406,"country":"Japan","region":"Northwestern Pacific Volcanic Regions","last_eruption_year":1989,"evidence_category":"Eruption Observed","source":"Smithsonian GVP"}},{"type":"Feature","geometry":{"type":"Point","coordinates":[139.021,35.233]},"properties":{"name":"Hakoneyama","classification":"potentially_active","elevation":1438,"country":"Japan","region":"Northwestern Pacific Volcanic Regions","last_eruption_year":2015,"evidence_category":"Eruption Dated","source":"Smithsonian GVP"}},{"type":"Feature","geometry":{"type":"Point","coordinates":[138.32,36.087]},"properties":{"name":"Yokodake","classification":"potentially_active","elevation":2480,"country":"Japan","region":"Northwestern Pacific Volcanic Regions","last_eruption_year":1200,"evidence_category":"Eruption Dated","source":"Smithsonian GVP"}},{"type":"Feature","geometry":{"type":"Point","coordinates":[138.728,35.361]},"properties":{"name":"Fujisan","classification":"active","elevation":3776,"country":"Japan","region":"Northwestern Pacific Volcanic Regions","last_eruption_year":1708,"evidence_category":"Eruption Observed","source":"Smithsonian GVP"}},{"type":"Feature","geometry":{"type":"Point","coordinates":[138.036,36.921]},"properties":{"name":"Niigata-Yakeyama","classification":"active","elevation":2400,"country":"Japan","region":"Northwestern Pacific Volcanic Regions","last_eruption_year":1998,"evidence_category":"Eruption Observed","source":"Smithsonian GVP"}},{"type":"Feature","geometry":{"type":"Point","coordinates":[138.114,36.891]},"properties":{"name":"Myokosan","classification":"potentially_active","elevation":2454,"country":"Japan","region":"Northwestern Pacific Volcanic Regions","last_eruption_year":-750,"evidence_category":"Eruption Dated","source":"Smithsonian GVP"}},{"type":"Feature","geometry":{"type":"Point","coordinates":[138.523,36.406]},"properties":{"name":"Asamayama","classification":"active","elevation":2568,"country":"Japan","region":"Northwestern Pacific Volcanic Regions","last_eruption_year":2019,"evidence_category":"Eruption Observed","source":"Smithsonian GVP"}},{"type":"Feature","geometry":{"type":"Point","coordinates":[138.519,36.688]},"properties":{"name":"Shiga","classification":"dormant","elevation":2041,"country":"Japan","region":"Northwestern Pacific Volcanic Regions","last_eruption_year":null,"evidence_category":"Evidence Uncertain","source":"Smithsonian GVP"}},{"type":"Feature","geometry":{"type":"Point","coordinates":[138.851,36.477]},"properties":{"name":"Harunasan","classification":"potentially_active","elevation":1449,"country":"Japan","region":"Northwestern Pacific Volcanic Regions","last_eruption_year":550,"evidence_category":"Eruption Dated","source":"Smithsonian GVP"}},{"type":"Feature","geometry":{"type":"Point","coordinates":[138.528,36.618]},"properties":{"name":"Kusatsu-Shiranesan","classification":"active","elevation":2165,"country":"Japan","region":"Northwestern Pacific Volcanic Regions","last_eruption_year":2018,"evidence_category":"Eruption Observed","source":"Smithsonian GVP"}},{"type":"Feature","geometry":{"type":"Point","coordinates":[139.285,36.955]},"properties":{"name":"Hiuchigatake","classification":"active","elevation":2356,"country":"Japan","region":"Northwestern Pacific Volcanic Regions","last_eruption_year":1544,"evidence_category":"Eruption Observed","source":"Smithsonian GVP"}},{"type":"Feature","geometry":{"type":"Point","coordinates":[139.193,36.56]},"properties":{"name":"Akagisan","classification":"dormant","elevation":1828,"country":"Japan","region":"Northwestern Pacific Volcanic Regions","last_eruption_year":null,"evidence_category":"Evidence Uncertain","source":"Smithsonian GVP"}},{"type":"Feature","geometry":{"type":"Point","coordinates":[139.491,36.765]},"properties":{"name":"Nantaisan","classification":"potentially_active","elevation":2486,"country":"Japan","region":"Northwestern Pacific Volcanic Regions","last_eruption_year":-9540,"evidence_category":"Eruption Dated","source":"Smithsonian GVP"}},{"type":"Feature","geometry":{"type":"Point","coordinates":[139.4756,36.8067]},"properties":{"name":"Omanago Group","classification":"potentially_active","elevation":2341,"country":"Japan","region":"Northwestern Pacific Volcanic Regions","last_eruption_year":-3050,"evidence_category":"Eruption Dated","source":"Smithsonian GVP"}},{"type":"Feature","geometry":{"type":"Point","coordinates":[139.777,36.9]},"properties":{"name":"Takaharayama","classification":"potentially_active","elevation":1795,"country":"Japan","region":"Northwestern Pacific Volcanic Regions","last_eruption_year":-4570,"evidence_category":"Eruption Dated","source":"Smithsonian GVP"}},{"type":"Feature","geometry":{"type":"Point","coordinates":[139.376,36.799]},"properties":{"name":"Nikko-Shiranesan","classification":"active","elevation":2578,"country":"Japan","region":"Northwestern Pacific Volcanic Regions","last_eruption_year":1952,"evidence_category":"Eruption Observed","source":"Smithsonian GVP"}},{"type":"Feature","geometry":{"type":"Point","coordinates":[139.566,37.444]},"properties":{"name":"Numazawa","classification":"potentially_active","elevation":835,"country":"Japan","region":"Northwestern Pacific Volcanic Regions","last_eruption_year":-3400,"evidence_category":"Eruption Dated","source":"Smithsonian GVP"}},{"type":"Feature","geometry":{"type":"Point","coordinates":[139.963,37.125]},"properties":{"name":"Nasudake","classification":"active","elevation":1915,"country":"Japan","region":"Northwestern Pacific Volcanic Regions","last_eruption_year":1963,"evidence_category":"Eruption Observed","source":"Smithsonian GVP"}},{"type":"Feature","geometry":{"type":"Point","coordinates":[140.072,37.601]},"properties":{"name":"Bandaisan","classification":"active","elevation":1816,"country":"Japan","region":"Northwestern Pacific Volcanic Regions","last_eruption_year":1888,"evidence_category":"Eruption Observed","source":"Smithsonian GVP"}},{"type":"Feature","geometry":{"type":"Point","coordinates":[140.281,37.647]},"properties":{"name":"Adatarayama","classification":"active","elevation":1728,"country":"Japan","region":"Northwestern Pacific Volcanic Regions","last_eruption_year":1996,"evidence_category":"Eruption Observed","source":"Smithsonian GVP"}},{"type":"Feature","geometry":{"type":"Point","coordinates":[140.244,37.735]},"properties":{"name":"Azumayama","classification":"active","elevation":1949,"country":"Japan","region":"Northwestern Pacific Volcanic Regions","last_eruption_year":1977,"evidence_category":"Eruption Observed","source":"Smithsonian GVP"}},{"type":"Feature","geometry":{"type":"Point","coordinates":[140.1617,38.5992]},"properties":{"name":"Hijiori","classification":"potentially_active","elevation":552,"country":"Japan","region":"Northwestern Pacific Volcanic Regions","last_eruption_year":null,"evidence_category":"Evidence Credible","source":"Smithsonian GVP"}},{"type":"Feature","geometry":{"type":"Point","coordinates":[140.44,38.144]},"properties":{"name":"Zaozan [Zaosan]","classification":"active","elevation":1841,"country":"Japan","region":"Northwestern Pacific Volcanic Regions","last_eruption_year":1940,"evidence_category":"Eruption Observed","source":"Smithsonian GVP"}},{"type":"Feature","geometry":{"type":"Point","coordinates":[140.734,38.729]},"properties":{"name":"Naruko","classification":"active","elevation":470,"country":"Japan","region":"Northwestern Pacific Volcanic Regions","last_eruption_year":837,"evidence_category":"Eruption Observed","source":"Smithsonian GVP"}},{"type":"Feature","geometry":{"type":"Point","coordinates":[140.788,38.961]},"properties":{"name":"Kurikomayama","classification":"active","elevation":1627,"country":"Japan","region":"Northwestern Pacific Volcanic Regions","last_eruption_year":1950,"evidence_category":"Eruption Observed","source":"Smithsonian GVP"}},{"type":"Feature","geometry":{"type":"Point","coordinates":[140.049,39.099]},"properties":{"name":"Chokaisan","classification":"active","elevation":2236,"country":"Japan","region":"Northwestern Pacific Volcanic Regions","last_eruption_year":1974,"evidence_category":"Eruption Observed","source":"Smithsonian GVP"}},{"type":"Feature","geometry":{"type":"Point","coordinates":[140.799,39.761]},"properties":{"name":"Akita-Komagatake","classification":"active","elevation":1637,"country":"Japan","region":"Northwestern Pacific Volcanic Regions","last_eruption_year":1971,"evidence_category":"Eruption Observed","source":"Smithsonian GVP"}},{"type":"Feature","geometry":{"type":"Point","coordinates":[141.001,39.853]},"properties":{"name":"Iwatesan","classification":"active","elevation":2038,"country":"Japan","region":"Northwestern Pacific Volcanic Regions","last_eruption_year":1919,"evidence_category":"Eruption Observed","source":"Smithsonian GVP"}},{"type":"Feature","geometry":{"type":"Point","coordinates":[140.854,39.958]},"properties":{"name":"Hachimantai","classification":"potentially_active","elevation":1613,"country":"Japan","region":"Northwestern Pacific Volcanic Regions","last_eruption_year":-5350,"evidence_category":"Eruption Dated","source":"Smithsonian GVP"}},{"type":"Feature","geometry":{"type":"Point","coordinates":[139.725,39.95]},"properties":{"name":"Megata","classification":"potentially_active","elevation":160,"country":"Japan","region":"Northwestern Pacific Volcanic Regions","last_eruption_year":-2050,"evidence_category":"Eruption Dated","source":"Smithsonian GVP"}},{"type":"Feature","geometry":{"type":"Point","coordinates":[140.757,39.964]},"properties":{"name":"Akita-Yakeyama","classification":"active","elevation":1366,"country":"Japan","region":"Northwestern Pacific Volcanic Regions","last_eruption_year":1997,"evidence_category":"Eruption Observed","source":"Smithsonian GVP"}},{"type":"Feature","geometry":{"type":"Point","coordinates":[140.88,40.51]},"properties":{"name":"Towada","classification":"active","elevation":1011,"country":"Japan","region":"Northwestern Pacific Volcanic Regions","last_eruption_year":915,"evidence_category":"Eruption Observed","source":"Smithsonian GVP"}},{"type":"Feature","geometry":{"type":"Point","coordinates":[140.303,40.656]},"properties":{"name":"Iwakisan","classification":"active","elevation":1625,"country":"Japan","region":"Northwestern Pacific Volcanic Regions","last_eruption_year":1863,"evidence_category":"Eruption Observed","source":"Smithsonian GVP"}},{"type":"Feature","geometry":{"type":"Point","coordinates":[140.877,40.659]},"properties":{"name":"Hakkodasan","classification":"potentially_active","elevation":1585,"country":"Japan","region":"Northwestern Pacific Volcanic Regions","last_eruption_year":1550,"evidence_category":"Eruption Dated","source":"Smithsonian GVP"}},{"type":"Feature","geometry":{"type":"Point","coordinates":[141.12,41.279]},"properties":{"name":"Osorezan","classification":"active","elevation":878,"country":"Japan","region":"Northwestern Pacific Volcanic Regions","last_eruption_year":1787,"evidence_category":"Eruption Observed","source":"Smithsonian GVP"}},{"type":"Feature","geometry":{"type":"Point","coordinates":[139.279,34.52]},"properties":{"name":"Toshima","classification":"potentially_active","elevation":508,"country":"Japan","region":"Northwestern Pacific Volcanic Regions","last_eruption_year":-4550,"evidence_category":"Eruption Dated","source":"Smithsonian GVP"}},{"type":"Feature","geometry":{"type":"Point","coordinates":[139.394,34.724]},"properties":{"name":"Izu-Oshima","classification":"active","elevation":746,"country":"Japan","region":"Northwestern Pacific Volcanic Regions","last_eruption_year":1990,"evidence_category":"Eruption Observed","source":"Smithsonian GVP"}},{"type":"Feature","geometry":{"type":"Point","coordinates":[139.27,34.397]},"properties":{"name":"Niijima","classification":"active","elevation":432,"country":"Japan","region":"Northwestern Pacific Volcanic Regions","last_eruption_year":886,"evidence_category":"Eruption Observed","source":"Smithsonian GVP"}},{"type":"Feature","geometry":{"type":"Point","coordinates":[139.153,34.219]},"properties":{"name":"Kozushima","classification":"active","elevation":572,"country":"Japan","region":"Northwestern Pacific Volcanic Regions","last_eruption_year":838,"evidence_category":"Eruption Observed","source":"Smithsonian GVP"}},{"type":"Feature","geometry":{"type":"Point","coordinates":[139.602,33.874]},"properties":{"name":"Mikurajima","classification":"potentially_active","elevation":851,"country":"Japan","region":"Northwestern Pacific Volcanic Regions","last_eruption_year":-4100,"evidence_category":"Eruption Dated","source":"Smithsonian GVP"}},{"type":"Feature","geometry":{"type":"Point","coordinates":[139.68,33.4]},"properties":{"name":"Kurose Hole","classification":"dormant","elevation":-114,"country":"Japan","region":"Northwestern Pacific Volcanic Regions","last_eruption_year":null,"evidence_category":"Evidence Uncertain","source":"Smithsonian GVP"}},{"type":"Feature","geometry":{"type":"Point","coordinates":[139.526,34.094]},"properties":{"name":"Miyakejima","classification":"active","elevation":775,"country":"Japan","region":"Northwestern Pacific Volcanic Regions","last_eruption_year":2010,"evidence_category":"Eruption Observed","source":"Smithsonian GVP"}},{"type":"Feature","geometry":{"type":"Point","coordinates":[139.766,33.137]},"properties":{"name":"Hachijojima","classification":"active","elevation":854,"country":"Japan","region":"Northwestern Pacific Volcanic Regions","last_eruption_year":1606,"evidence_category":"Eruption Observed","source":"Smithsonian GVP"}},{"type":"Feature","geometry":{"type":"Point","coordinates":[139.85,32.1]},"properties":{"name":"Kita-Bayonnaise","classification":"dormant","elevation":-360,"country":"Japan","region":"Northwestern Pacific Volcanic Regions","last_eruption_year":null,"evidence_category":"Evidence Uncertain","source":"Smithsonian GVP"}},{"type":"Feature","geometry":{"type":"Point","coordinates":[139.759,32.458]},"properties":{"name":"Aogashima","classification":"active","elevation":423,"country":"Japan","region":"Northwestern Pacific Volcanic Regions","last_eruption_year":1785,"evidence_category":"Eruption Observed","source":"Smithsonian GVP"}},{"type":"Feature","geometry":{"type":"Point","coordinates":[139.918,31.888]},"properties":{"name":"Myojinsho","classification":"active","elevation":11,"country":"Japan","region":"Northwestern Pacific Volcanic Regions","last_eruption_year":1970,"evidence_category":"Eruption Observed","source":"Smithsonian GVP"}},{"type":"Feature","geometry":{"type":"Point","coordinates":[140.051,31.44]},"properties":{"name":"Sumisujima","classification":"active","elevation":136,"country":"Japan","region":"Northwestern Pacific Volcanic Regions","last_eruption_year":1916,"evidence_category":"Eruption Observed","source":"Smithsonian GVP"}},{"type":"Feature","geometry":{"type":"Point","coordinates":[140.342,29.794]},"properties":{"name":"Sofugan","classification":"dormant","elevation":99,"country":"Japan","region":"Northwestern Pacific Volcanic Regions","last_eruption_year":null,"evidence_category":"Evidence Uncertain","source":"Smithsonian GVP"}},{"type":"Feature","geometry":{"type":"Point","coordinates":[140.633,28.575]},"properties":{"name":"Suiyo Seamount","classification":"active","elevation":-991,"country":"Japan","region":"Northwestern Pacific Volcanic Regions","last_eruption_year":null,"evidence_category":"Unrest / Holocene","source":"Smithsonian GVP"}},{"type":"Feature","geometry":{"type":"Point","coordinates":[140.572,28.327]},"properties":{"name":"Mokuyo Seamount","classification":"active","elevation":-933,"country":"Japan","region":"Northwestern Pacific Volcanic Regions","last_eruption_year":null,"evidence_category":"Unrest / Holocene","source":"Smithsonian GVP"}},{"type":"Feature","geometry":{"type":"Point","coordinates":[140.8,27.68]},"properties":{"name":"Doyo Seamount","classification":"active","elevation":-590,"country":"Japan","region":"Northwestern Pacific Volcanic Regions","last_eruption_year":null,"evidence_category":"Unrest / Holocene","source":"Smithsonian GVP"}},{"type":"Feature","geometry":{"type":"Point","coordinates":[140.874,27.247]},"properties":{"name":"Nishinoshima","classification":"active","elevation":100,"country":"Japan","region":"Northwestern Pacific Volcanic Regions","last_eruption_year":2023,"evidence_category":"Eruption Observed","source":"Smithsonian GVP"}},{"type":"Feature","geometry":{"type":"Point","coordinates":[140.929,26.667]},"properties":{"name":"Kaikata Seamount","classification":"active","elevation":-165,"country":"Japan","region":"Northwestern Pacific Volcanic Regions","last_eruption_year":null,"evidence_category":"Unrest / Holocene","source":"Smithsonian GVP"}},{"type":"Feature","geometry":{"type":"Point","coordinates":[140.303,30.484]},"properties":{"name":"Izu-Torishima","classification":"active","elevation":394,"country":"Japan","region":"Northwestern Pacific Volcanic Regions","last_eruption_year":2002,"evidence_category":"Eruption Observed","source":"Smithsonian GVP"}},{"type":"Feature","geometry":{"type":"Point","coordinates":[141.0955,26.1217]},"properties":{"name":"Kaitoku Seamount","classification":"active","elevation":-95,"country":"Japan","region":"Northwestern Pacific Volcanic Regions","last_eruption_year":2023,"evidence_category":"Eruption Observed","source":"Smithsonian GVP"}},{"type":"Feature","geometry":{"type":"Point","coordinates":[141.284,25.424]},"properties":{"name":"Kita-Ioto","classification":"active","elevation":792,"country":"Japan","region":"Northwestern Pacific Volcanic Regions","last_eruption_year":2022,"evidence_category":"Eruption Observed","source":"Smithsonian GVP"}},{"type":"Feature","geometry":{"type":"Point","coordinates":[141.417,24.417]},"properties":{"name":"Kita-Fukutokutai","classification":"active","elevation":-73,"country":"Japan","region":"Northwestern Pacific Volcanic Regions","last_eruption_year":1954,"evidence_category":"Eruption Observed","source":"Smithsonian GVP"}},{"type":"Feature","geometry":{"type":"Point","coordinates":[141.289,24.751]},"properties":{"name":"Ioto","classification":"active","elevation":169,"country":"Japan","region":"Northwestern Pacific Volcanic Regions","last_eruption_year":2025,"evidence_category":"Eruption Observed","source":"Smithsonian GVP"}},{"type":"Feature","geometry":{"type":"Point","coordinates":[141.935,23.5]},"properties":{"name":"Minami-Hiyoshi","classification":"active","elevation":-107,"country":"Japan","region":"Northwestern Pacific Volcanic Regions","last_eruption_year":1975,"evidence_category":"Eruption Observed","source":"Smithsonian GVP"}},{"type":"Feature","geometry":{"type":"Point","coordinates":[142.326,23.078]},"properties":{"name":"Nikko","classification":"active","elevation":-392,"country":"Japan","region":"Northwestern Pacific Volcanic Regions","last_eruption_year":null,"evidence_category":"Unrest / Holocene","source":"Smithsonian GVP"}},{"type":"Feature","geometry":{"type":"Point","coordinates":[143.47,21.93]},"properties":{"name":"Fukujin","classification":"active","elevation":-217,"country":"United States","region":"Northwestern Pacific Volcanic Regions","last_eruption_year":1974,"evidence_category":"Eruption Observed","source":"Smithsonian GVP"}},{"type":"Feature","geometry":{"type":"Point","coordinates":[143.71,21.765]},"properties":{"name":"Kasuga 1","classification":"active","elevation":-598,"country":"United States","region":"Northwestern Pacific Volcanic Regions","last_eruption_year":1959,"evidence_category":"Eruption Observed","source":"Smithsonian GVP"}},{"type":"Feature","geometry":{"type":"Point","coordinates":[143.637,21.6]},"properties":{"name":"Kasuga 2","classification":"potentially_active","elevation":-274,"country":"United States","region":"Northwestern Pacific Volcanic Regions","last_eruption_year":null,"evidence_category":"Evidence Credible","source":"Smithsonian GVP"}},{"type":"Feature","geometry":{"type":"Point","coordinates":[144.043,21.485]},"properties":{"name":"NW Eifuku","classification":"active","elevation":-1535,"country":"United States","region":"Northwestern Pacific Volcanic Regions","last_eruption_year":null,"evidence_category":"Unrest / Holocene","source":"Smithsonian GVP"}},{"type":"Feature","geometry":{"type":"Point","coordinates":[144.194,21.324]},"properties":{"name":"Daikoku","classification":"active","elevation":-323,"country":"United States","region":"Northwestern Pacific Volcanic Regions","last_eruption_year":null,"evidence_category":"Unrest / Holocene","source":"Smithsonian GVP"}},{"type":"Feature","geometry":{"type":"Point","coordinates":[141.481,24.285]},"properties":{"name":"Fukutoku-Oka-no-Ba","classification":"active","elevation":-29,"country":"Japan","region":"Northwestern Pacific Volcanic Regions","last_eruption_year":2021,"evidence_category":"Eruption Observed","source":"Smithsonian GVP"}},{"type":"Feature","geometry":{"type":"Point","coordinates":[145.03,20.437]},"properties":{"name":"Ahyi","classification":"potentially_active","elevation":-55,"country":"United States","region":"Northwestern Pacific Volcanic Regions","last_eruption_year":2026,"evidence_category":"Eruption Dated","source":"Smithsonian GVP"}},{"type":"Feature","geometry":{"type":"Point","coordinates":[145.1,20.13]},"properties":{"name":"Supply Reef","classification":"dormant","elevation":-8,"country":"United States","region":"Northwestern Pacific Volcanic Regions","last_eruption_year":null,"evidence_category":"Evidence Uncertain","source":"Smithsonian GVP"}},{"type":"Feature","geometry":{"type":"Point","coordinates":[145.22,20.02]},"properties":{"name":"Maug Islands","classification":"active","elevation":227,"country":"United States","region":"Northwestern Pacific Volcanic Regions","last_eruption_year":null,"evidence_category":"Unrest / Holocene","source":"Smithsonian GVP"}},{"type":"Feature","geometry":{"type":"Point","coordinates":[144.893,20.546]},"properties":{"name":"Farallon de Pajaros","classification":"active","elevation":337,"country":"United States","region":"Northwestern Pacific Volcanic Regions","last_eruption_year":1953,"evidence_category":"Eruption Observed","source":"Smithsonian GVP"}},{"type":"Feature","geometry":{"type":"Point","coordinates":[145.406,19.671]},"properties":{"name":"Asuncion","classification":"active","elevation":857,"country":"United States","region":"Northwestern Pacific Volcanic Regions","last_eruption_year":1906,"evidence_category":"Eruption Observed","source":"Smithsonian GVP"}},{"type":"Feature","geometry":{"type":"Point","coordinates":[145.67,18.77]},"properties":{"name":"Agrigan","classification":"active","elevation":965,"country":"United States","region":"Northwestern Pacific Volcanic Regions","last_eruption_year":1917,"evidence_category":"Eruption Observed","source":"Smithsonian GVP"}},{"type":"Feature","geometry":{"type":"Point","coordinates":[145.8,18.13]},"properties":{"name":"Pagan","classification":"active","elevation":570,"country":"United States","region":"Northwestern Pacific Volcanic Regions","last_eruption_year":2021,"evidence_category":"Eruption Observed","source":"Smithsonian GVP"}},{"type":"Feature","geometry":{"type":"Point","coordinates":[145.83,17.6]},"properties":{"name":"Alamagan","classification":"potentially_active","elevation":744,"country":"United States","region":"Northwestern Pacific Volcanic Regions","last_eruption_year":870,"evidence_category":"Eruption Dated","source":"Smithsonian GVP"}},{"type":"Feature","geometry":{"type":"Point","coordinates":[145.85,16.88]},"properties":{"name":"Zealandia Bank","classification":"active","elevation":0,"country":"United States","region":"Northwestern Pacific Volcanic Regions","last_eruption_year":null,"evidence_category":"Unrest / Holocene","source":"Smithsonian GVP"}},{"type":"Feature","geometry":{"type":"Point","coordinates":[145.7803,16.6991]},"properties":{"name":"Sarigan","classification":"potentially_active","elevation":494,"country":"United States","region":"Northwestern Pacific Volcanic Regions","last_eruption_year":null,"evidence_category":"Evidence Credible","source":"Smithsonian GVP"}},{"type":"Feature","geometry":{"type":"Point","coordinates":[145.84,17.3137]},"properties":{"name":"Guguan","classification":"active","elevation":232,"country":"United States","region":"Northwestern Pacific Volcanic Regions","last_eruption_year":1883,"evidence_category":"Eruption Observed","source":"Smithsonian GVP"}},{"type":"Feature","geometry":{"type":"Point","coordinates":[145.67,15.93]},"properties":{"name":"East Diamante","classification":"active","elevation":-127,"country":"United States","region":"Northwestern Pacific Volcanic Regions","last_eruption_year":null,"evidence_category":"Unrest / Holocene","source":"Smithsonian GVP"}},{"type":"Feature","geometry":{"type":"Point","coordinates":[145.572,15.605]},"properties":{"name":"Ruby","classification":"active","elevation":-174,"country":"United States","region":"Northwestern Pacific Volcanic Regions","last_eruption_year":2023,"evidence_category":"Eruption Observed","source":"Smithsonian GVP"}},{"type":"Feature","geometry":{"type":"Point","coordinates":[145.67,16.35]},"properties":{"name":"Anatahan","classification":"active","elevation":790,"country":"United States","region":"Northwestern Pacific Volcanic Regions","last_eruption_year":2008,"evidence_category":"Eruption Observed","source":"Smithsonian GVP"}},{"type":"Feature","geometry":{"type":"Point","coordinates":[144.775,14.601]},"properties":{"name":"NW Rota-1","classification":"active","elevation":-455,"country":"United States","region":"Northwestern Pacific Volcanic Regions","last_eruption_year":2010,"evidence_category":"Eruption Observed","source":"Smithsonian GVP"}},{"type":"Feature","geometry":{"type":"Point","coordinates":[145.249,14.958]},"properties":{"name":"Esmeralda Bank","classification":"active","elevation":-74,"country":"United States","region":"Northwestern Pacific Volcanic Regions","last_eruption_year":null,"evidence_category":"Unrest / Holocene","source":"Smithsonian GVP"}},{"type":"Feature","geometry":{"type":"Point","coordinates":[143.92,13.4]},"properties":{"name":"Forecast Seamount","classification":"active","elevation":-1456,"country":"United States","region":"Northwestern Pacific Volcanic Regions","last_eruption_year":null,"evidence_category":"Unrest / Holocene","source":"Smithsonian GVP"}},{"type":"Feature","geometry":{"type":"Point","coordinates":[144.02,13.25]},"properties":{"name":"Seamount X","classification":"active","elevation":-1230,"country":"United States","region":"Northwestern Pacific Volcanic Regions","last_eruption_year":null,"evidence_category":"Unrest / Holocene","source":"Smithsonian GVP"}},{"type":"Feature","geometry":{"type":"Point","coordinates":[141.166,41.805]},"properties":{"name":"Esan","classification":"active","elevation":618,"country":"Japan","region":"Northwestern Pacific Volcanic Regions","last_eruption_year":1874,"evidence_category":"Eruption Observed","source":"Smithsonian GVP"}},{"type":"Feature","geometry":{"type":"Point","coordinates":[139.367,41.51]},"properties":{"name":"Oshima-Oshima","classification":"active","elevation":732,"country":"Japan","region":"Northwestern Pacific Volcanic Regions","last_eruption_year":1790,"evidence_category":"Eruption Observed","source":"Smithsonian GVP"}},{"type":"Feature","geometry":{"type":"Point","coordinates":[140.677,42.063]},"properties":{"name":"Hokkaido-Komagatake","classification":"active","elevation":1131,"country":"Japan","region":"Northwestern Pacific Volcanic Regions","last_eruption_year":2000,"evidence_category":"Eruption Observed","source":"Smithsonian GVP"}},{"type":"Feature","geometry":{"type":"Point","coordinates":[140.659,42.875]},"properties":{"name":"Niseko","classification":"potentially_active","elevation":1308,"country":"Japan","region":"Northwestern Pacific Volcanic Regions","last_eruption_year":-4900,"evidence_category":"Eruption Dated","source":"Smithsonian GVP"}},{"type":"Feature","geometry":{"type":"Point","coordinates":[140.812,42.827]},"properties":{"name":"Yoteizan","classification":"potentially_active","elevation":1888,"country":"Japan","region":"Northwestern Pacific Volcanic Regions","last_eruption_year":-1050,"evidence_category":"Eruption Dated","source":"Smithsonian GVP"}},{"type":"Feature","geometry":{"type":"Point","coordinates":[141.16,42.491]},"properties":{"name":"Kuttara","classification":"potentially_active","elevation":549,"country":"Japan","region":"Northwestern Pacific Volcanic Regions","last_eruption_year":1820,"evidence_category":"Eruption Dated","source":"Smithsonian GVP"}},{"type":"Feature","geometry":{"type":"Point","coordinates":[140.839,42.544]},"properties":{"name":"Toya","classification":"active","elevation":733,"country":"Japan","region":"Northwestern Pacific Volcanic Regions","last_eruption_year":2001,"evidence_category":"Eruption Observed","source":"Smithsonian GVP"}},{"type":"Feature","geometry":{"type":"Point","coordinates":[141.242,45.179]},"properties":{"name":"Rishirizan","classification":"potentially_active","elevation":1721,"country":"Japan","region":"Northwestern Pacific Volcanic Regions","last_eruption_year":-5830,"evidence_category":"Eruption Dated","source":"Smithsonian GVP"}},{"type":"Feature","geometry":{"type":"Point","coordinates":[141.38,42.688]},"properties":{"name":"Shikotsu","classification":"active","elevation":1320,"country":"Japan","region":"Northwestern Pacific Volcanic Regions","last_eruption_year":1981,"evidence_category":"Eruption Observed","source":"Smithsonian GVP"}},{"type":"Feature","geometry":{"type":"Point","coordinates":[142.686,43.418]},"properties":{"name":"Tokachidake","classification":"active","elevation":2077,"country":"Japan","region":"Northwestern Pacific Volcanic Regions","last_eruption_year":2004,"evidence_category":"Eruption Observed","source":"Smithsonian GVP"}},{"type":"Feature","geometry":{"type":"Point","coordinates":[143.031,43.418]},"properties":{"name":"Maruyama","classification":"active","elevation":2013,"country":"Japan","region":"Northwestern Pacific Volcanic Regions","last_eruption_year":1898,"evidence_category":"Eruption Observed","source":"Smithsonian GVP"}},{"type":"Feature","geometry":{"type":"Point","coordinates":[142.854,43.664]},"properties":{"name":"Taisetsuzan","classification":"potentially_active","elevation":2291,"country":"Japan","region":"Northwestern Pacific Volcanic Regions","last_eruption_year":1739,"evidence_category":"Eruption Dated","source":"Smithsonian GVP"}},{"type":"Feature","geometry":{"type":"Point","coordinates":[144.013,43.384]},"properties":{"name":"Akan","classification":"active","elevation":1499,"country":"Japan","region":"Northwestern Pacific Volcanic Regions","last_eruption_year":2026,"evidence_category":"Eruption Observed","source":"Smithsonian GVP"}},{"type":"Feature","geometry":{"type":"Point","coordinates":[144.561,43.572]},"properties":{"name":"Mashu","classification":"potentially_active","elevation":857,"country":"Japan","region":"Northwestern Pacific Volcanic Regions","last_eruption_year":1080,"evidence_category":"Eruption Dated","source":"Smithsonian GVP"}},{"type":"Feature","geometry":{"type":"Point","coordinates":[145.122,44.076]},"properties":{"name":"Rausudake","classification":"potentially_active","elevation":1660,"country":"Japan","region":"Northwestern Pacific Volcanic Regions","last_eruption_year":1800,"evidence_category":"Eruption Dated","source":"Smithsonian GVP"}},{"type":"Feature","geometry":{"type":"Point","coordinates":[144.427,43.615]},"properties":{"name":"Kussharo","classification":"potentially_active","elevation":574,"country":"Japan","region":"Northwestern Pacific Volcanic Regions","last_eruption_year":1320,"evidence_category":"Eruption Dated","source":"Smithsonian GVP"}},{"type":"Feature","geometry":{"type":"Point","coordinates":[145.161,44.133]},"properties":{"name":"Shiretoko-Iozan","classification":"active","elevation":1562,"country":"Japan","region":"Northwestern Pacific Volcanic Regions","last_eruption_year":1936,"evidence_category":"Eruption Observed","source":"Smithsonian GVP"}},{"type":"Feature","geometry":{"type":"Point","coordinates":[145.504,43.844]},"properties":{"name":"Tomariyama [Golovnin]","classification":"active","elevation":535,"country":"Japan - administered by Russia","region":"Northwestern Pacific Volcanic Regions","last_eruption_year":1848,"evidence_category":"Eruption Observed","source":"Smithsonian GVP"}},{"type":"Feature","geometry":{"type":"Point","coordinates":[146.1401,44.4541]},"properties":{"name":"Ruruidake [Smirnov]","classification":"potentially_active","elevation":1447,"country":"Japan - administered by Russia","region":"Northwestern Pacific Volcanic Regions","last_eruption_year":null,"evidence_category":"Evidence Credible","source":"Smithsonian GVP"}},{"type":"Feature","geometry":{"type":"Point","coordinates":[145.733,43.979]},"properties":{"name":"Raususan [Mendeleev]","classification":"active","elevation":882,"country":"Japan - administered by Russia","region":"Northwestern Pacific Volcanic Regions","last_eruption_year":1880,"evidence_category":"Eruption Observed","source":"Smithsonian GVP"}},{"type":"Feature","geometry":{"type":"Point","coordinates":[146.252,44.353]},"properties":{"name":"Chachadake [Tiatia]","classification":"active","elevation":1822,"country":"Japan - administered by Russia","region":"Northwestern Pacific Volcanic Regions","last_eruption_year":1981,"evidence_category":"Eruption Observed","source":"Smithsonian GVP"}},{"type":"Feature","geometry":{"type":"Point","coordinates":[146.932,44.462]},"properties":{"name":"Berutarubesan [Berutarube]","classification":"potentially_active","elevation":1221,"country":"Japan - administered by Russia","region":"Northwestern Pacific Volcanic Regions","last_eruption_year":null,"evidence_category":"Evidence Credible","source":"Smithsonian GVP"}},{"type":"Feature","geometry":{"type":"Point","coordinates":[147.131,44.808]},"properties":{"name":"Etorofu-Atosanupuri [Atosanupuri]","classification":"active","elevation":1206,"country":"Japan - administered by Russia","region":"Northwestern Pacific Volcanic Regions","last_eruption_year":1932,"evidence_category":"Eruption Observed","source":"Smithsonian GVP"}},{"type":"Feature","geometry":{"type":"Point","coordinates":[147.403,44.857]},"properties":{"name":"Hitokappu Volcano Group [Bogatyr Ridge]","classification":"potentially_active","elevation":1610,"country":"Japan - administered by Russia","region":"Northwestern Pacific Volcanic Regions","last_eruption_year":null,"evidence_category":"Evidence Credible","source":"Smithsonian GVP"}},{"type":"Feature","geometry":{"type":"Point","coordinates":[147.871,45.012]},"properties":{"name":"Etorofu-Yakeyama [Grozny Group]","classification":"active","elevation":1158,"country":"Japan - administered by Russia","region":"Northwestern Pacific Volcanic Regions","last_eruption_year":2013,"evidence_category":"Eruption Observed","source":"Smithsonian GVP"}},{"type":"Feature","geometry":{"type":"Point","coordinates":[148.0148,45.103]},"properties":{"name":"Sashiusudake [Baransky]","classification":"active","elevation":1107,"country":"Japan - administered by Russia","region":"Northwestern Pacific Volcanic Regions","last_eruption_year":1951,"evidence_category":"Eruption Observed","source":"Smithsonian GVP"}},{"type":"Feature","geometry":{"type":"Point","coordinates":[147.92,45.338]},"properties":{"name":"Chirippusan [Chirip]","classification":"active","elevation":1587,"country":"Japan - administered by Russia","region":"Northwestern Pacific Volcanic Regions","last_eruption_year":1860,"evidence_category":"Eruption Observed","source":"Smithsonian GVP"}},{"type":"Feature","geometry":{"type":"Point","coordinates":[148.838,45.389]},"properties":{"name":"Moyorodake [Medvezhia]","classification":"active","elevation":1124,"country":"Japan - administered by Russia","region":"Northwestern Pacific Volcanic Regions","last_eruption_year":1999,"evidence_category":"Eruption Observed","source":"Smithsonian GVP"}},{"type":"Feature","geometry":{"type":"Point","coordinates":[149.6762,45.7593]},"properties":{"name":"Ivao Group","classification":"potentially_active","elevation":1426,"country":"Russia","region":"Northwestern Pacific Volcanic Regions","last_eruption_year":null,"evidence_category":"Evidence Credible","source":"Smithsonian GVP"}},{"type":"Feature","geometry":{"type":"Point","coordinates":[150.083,46.042]},"properties":{"name":"Kolokol Group","classification":"active","elevation":1328,"country":"Russia","region":"Northwestern Pacific Volcanic Regions","last_eruption_year":1973,"evidence_category":"Eruption Observed","source":"Smithsonian GVP"}},{"type":"Feature","geometry":{"type":"Point","coordinates":[150.8526,46.2944]},"properties":{"name":"Kuril Arc at 46.3\u00b0N","classification":"dormant","elevation":-100,"country":"Japan - administered by Russia","region":"Northwestern Pacific Volcanic Regions","last_eruption_year":null,"evidence_category":"Evidence Uncertain","source":"Smithsonian GVP"}},{"type":"Feature","geometry":{"type":"Point","coordinates":[150.871,46.532]},"properties":{"name":"Chirpoi","classification":"active","elevation":742,"country":"Russia","region":"Northwestern Pacific Volcanic Regions","last_eruption_year":2016,"evidence_category":"Eruption Observed","source":"Smithsonian GVP"}},{"type":"Feature","geometry":{"type":"Point","coordinates":[151.786,46.815]},"properties":{"name":"Milna","classification":"active","elevation":1504,"country":"Russia","region":"Northwestern Pacific Volcanic Regions","last_eruption_year":1914,"evidence_category":"Eruption Observed","source":"Smithsonian GVP"}},{"type":"Feature","geometry":{"type":"Point","coordinates":[151.9518,46.9178]},"properties":{"name":"Zavaritzki Caldera","classification":"active","elevation":612,"country":"Russia","region":"Northwestern Pacific Volcanic Regions","last_eruption_year":1957,"evidence_category":"Eruption Observed","source":"Smithsonian GVP"}},{"type":"Feature","geometry":{"type":"Point","coordinates":[152.25,47.12]},"properties":{"name":"Uratman","classification":"potentially_active","elevation":678,"country":"Russia","region":"Northwestern Pacific Volcanic Regions","last_eruption_year":null,"evidence_category":"Evidence Credible","source":"Smithsonian GVP"}},{"type":"Feature","geometry":{"type":"Point","coordinates":[152.1167,47.0139]},"properties":{"name":"Prevo Peak","classification":"active","elevation":1360,"country":"Russia","region":"Northwestern Pacific Volcanic Regions","last_eruption_year":1825,"evidence_category":"Eruption Observed","source":"Smithsonian GVP"}},{"type":"Feature","geometry":{"type":"Point","coordinates":[152.475,47.35]},"properties":{"name":"Ketoi","classification":"active","elevation":1172,"country":"Russia","region":"Northwestern Pacific Volcanic Regions","last_eruption_year":1960,"evidence_category":"Eruption Observed","source":"Smithsonian GVP"}},{"type":"Feature","geometry":{"type":"Point","coordinates":[152.893,47.5861]},"properties":{"name":"Srednii","classification":"potentially_active","elevation":36,"country":"Russia","region":"Northwestern Pacific Volcanic Regions","last_eruption_year":null,"evidence_category":"Evidence Credible","source":"Smithsonian GVP"}},{"type":"Feature","geometry":{"type":"Point","coordinates":[152.8139,47.5125]},"properties":{"name":"Ushishur","classification":"active","elevation":357,"country":"Russia","region":"Northwestern Pacific Volcanic Regions","last_eruption_year":1884,"evidence_category":"Eruption Observed","source":"Smithsonian GVP"}},{"type":"Feature","geometry":{"type":"Point","coordinates":[153.02,47.77]},"properties":{"name":"Rasshua","classification":"active","elevation":956,"country":"Russia","region":"Northwestern Pacific Volcanic Regions","last_eruption_year":1957,"evidence_category":"Eruption Observed","source":"Smithsonian GVP"}},{"type":"Feature","geometry":{"type":"Point","coordinates":[153.2,48.092]},"properties":{"name":"Sarychev Peak","classification":"active","elevation":1496,"country":"Russia","region":"Northwestern Pacific Volcanic Regions","last_eruption_year":2021,"evidence_category":"Eruption Observed","source":"Smithsonian GVP"}},{"type":"Feature","geometry":{"type":"Point","coordinates":[153.25,48.292]},"properties":{"name":"Raikoke","classification":"active","elevation":551,"country":"Russia","region":"Northwestern Pacific Volcanic Regions","last_eruption_year":2019,"evidence_category":"Eruption Observed","source":"Smithsonian GVP"}},{"type":"Feature","geometry":{"type":"Point","coordinates":[153.48,48.98]},"properties":{"name":"Chirinkotan","classification":"active","elevation":724,"country":"Russia","region":"Northwestern Pacific Volcanic Regions","last_eruption_year":2022,"evidence_category":"Eruption Observed","source":"Smithsonian GVP"}},{"type":"Feature","geometry":{"type":"Point","coordinates":[153.93,48.958]},"properties":{"name":"Ekarma","classification":"active","elevation":1170,"country":"Russia","region":"Northwestern Pacific Volcanic Regions","last_eruption_year":2010,"evidence_category":"Eruption Observed","source":"Smithsonian GVP"}},{"type":"Feature","geometry":{"type":"Point","coordinates":[154.182,48.873]},"properties":{"name":"Sinarka","classification":"active","elevation":911,"country":"Russia","region":"Northwestern Pacific Volcanic Regions","last_eruption_year":1878,"evidence_category":"Eruption Observed","source":"Smithsonian GVP"}},{"type":"Feature","geometry":{"type":"Point","coordinates":[154.508,49.12]},"properties":{"name":"Kharimkotan","classification":"active","elevation":1145,"country":"Russia","region":"Northwestern Pacific Volcanic Regions","last_eruption_year":1933,"evidence_category":"Eruption Observed","source":"Smithsonian GVP"}},{"type":"Feature","geometry":{"type":"Point","coordinates":[154.725,49.34]},"properties":{"name":"Tao-Rusyr Caldera","classification":"active","elevation":1272,"country":"Russia","region":"Northwestern Pacific Volcanic Regions","last_eruption_year":1952,"evidence_category":"Eruption Observed","source":"Smithsonian GVP"}},{"type":"Feature","geometry":{"type":"Point","coordinates":[154.8126,49.5641]},"properties":{"name":"Nemo Peak","classification":"active","elevation":994,"country":"Russia","region":"Northwestern Pacific Volcanic Regions","last_eruption_year":1938,"evidence_category":"Eruption Observed","source":"Smithsonian GVP"}},{"type":"Feature","geometry":{"type":"Point","coordinates":[154.9781,50.1973]},"properties":{"name":"Shirinki","classification":"potentially_active","elevation":693,"country":"Russia","region":"Northwestern Pacific Volcanic Regions","last_eruption_year":null,"evidence_category":"Evidence Credible","source":"Smithsonian GVP"}},{"type":"Feature","geometry":{"type":"Point","coordinates":[155.246,50.267]},"properties":{"name":"Fuss Peak","classification":"active","elevation":1742,"country":"Russia","region":"Northwestern Pacific Volcanic Regions","last_eruption_year":1854,"evidence_category":"Eruption Observed","source":"Smithsonian GVP"}},{"type":"Feature","geometry":{"type":"Point","coordinates":[155.3847,50.1419]},"properties":{"name":"Karpinsky Group","classification":"active","elevation":1326,"country":"Russia","region":"Northwestern Pacific Volcanic Regions","last_eruption_year":null,"evidence_category":"Unrest / Holocene","source":"Smithsonian GVP"}},{"type":"Feature","geometry":{"type":"Point","coordinates":[155.461,50.324]},"properties":{"name":"Chikurachki","classification":"active","elevation":1781,"country":"Russia","region":"Northwestern Pacific Volcanic Regions","last_eruption_year":2023,"evidence_category":"Eruption Observed","source":"Smithsonian GVP"}},{"type":"Feature","geometry":{"type":"Point","coordinates":[155.9867,50.5819]},"properties":{"name":"Vernadsky Ridge","classification":"potentially_active","elevation":1183,"country":"Russia","region":"Northwestern Pacific Volcanic Regions","last_eruption_year":null,"evidence_category":"Evidence Credible","source":"Smithsonian GVP"}},{"type":"Feature","geometry":{"type":"Point","coordinates":[156.014,50.686]},"properties":{"name":"Ebeko","classification":"active","elevation":1103,"country":"Russia","region":"Northwestern Pacific Volcanic Regions","last_eruption_year":2024,"evidence_category":"Eruption Observed","source":"Smithsonian GVP"}},{"type":"Feature","geometry":{"type":"Point","coordinates":[155.565,50.861]},"properties":{"name":"Alaid","classification":"active","elevation":2285,"country":"Russia","region":"Northwestern Pacific Volcanic Regions","last_eruption_year":2022,"evidence_category":"Eruption Observed","source":"Smithsonian GVP"}},{"type":"Feature","geometry":{"type":"Point","coordinates":[156.875,51.306]},"properties":{"name":"Kambalny","classification":"potentially_active","elevation":2116,"country":"Russia","region":"Northwestern Pacific Volcanic Regions","last_eruption_year":2017,"evidence_category":"Eruption Dated","source":"Smithsonian GVP"}},{"type":"Feature","geometry":{"type":"Point","coordinates":[156.629,51.533]},"properties":{"name":"Yavinsky","classification":"potentially_active","elevation":646,"country":"Russia","region":"Northwestern Pacific Volcanic Regions","last_eruption_year":-4050,"evidence_category":"Eruption Dated","source":"Smithsonian GVP"}},{"type":"Feature","geometry":{"type":"Point","coordinates":[156.978,51.452]},"properties":{"name":"Diky Greben","classification":"potentially_active","elevation":1040,"country":"Russia","region":"Northwestern Pacific Volcanic Regions","last_eruption_year":350,"evidence_category":"Eruption Dated","source":"Smithsonian GVP"}},{"type":"Feature","geometry":{"type":"Point","coordinates":[157.12,51.45]},"properties":{"name":"Kurile Lake","classification":"potentially_active","elevation":81,"country":"Russia","region":"Northwestern Pacific Volcanic Regions","last_eruption_year":-6440,"evidence_category":"Eruption Dated","source":"Smithsonian GVP"}},{"type":"Feature","geometry":{"type":"Point","coordinates":[156.753,51.356]},"properties":{"name":"Koshelev","classification":"active","elevation":1822,"country":"Russia","region":"Northwestern Pacific Volcanic Regions","last_eruption_year":1690,"evidence_category":"Eruption Observed","source":"Smithsonian GVP"}},{"type":"Feature","geometry":{"type":"Point","coordinates":[157.203,51.498]},"properties":{"name":"Iliinsky","classification":"active","elevation":1555,"country":"Russia","region":"Northwestern Pacific Volcanic Regions","last_eruption_year":1901,"evidence_category":"Eruption Observed","source":"Smithsonian GVP"}},{"type":"Feature","geometry":{"type":"Point","coordinates":[157.328,51.577]},"properties":{"name":"Zheltovsky","classification":"active","elevation":1926,"country":"Russia","region":"Northwestern Pacific Volcanic Regions","last_eruption_year":1923,"evidence_category":"Eruption Observed","source":"Smithsonian GVP"}},{"type":"Feature","geometry":{"type":"Point","coordinates":[157.53,52.02]},"properties":{"name":"Olkoviy-Ozernoy Volcanic Field","classification":"potentially_active","elevation":681,"country":"Russia","region":"Northwestern Pacific Volcanic Regions","last_eruption_year":null,"evidence_category":"Evidence Credible","source":"Smithsonian GVP"}},{"type":"Feature","geometry":{"type":"Point","coordinates":[157.711,52.062]},"properties":{"name":"Khodutka","classification":"potentially_active","elevation":2039,"country":"Russia","region":"Northwestern Pacific Volcanic Regions","last_eruption_year":-300,"evidence_category":"Eruption Dated","source":"Smithsonian GVP"}},{"type":"Feature","geometry":{"type":"Point","coordinates":[157.827,52.355]},"properties":{"name":"Asacha","classification":"potentially_active","elevation":1910,"country":"Russia","region":"Northwestern Pacific Volcanic Regions","last_eruption_year":null,"evidence_category":"Evidence Credible","source":"Smithsonian GVP"}},{"type":"Feature","geometry":{"type":"Point","coordinates":[157.9332,52.435]},"properties":{"name":"Visokiy","classification":"potentially_active","elevation":1227,"country":"Russia","region":"Northwestern Pacific Volcanic Regions","last_eruption_year":null,"evidence_category":"Evidence Credible","source":"Smithsonian GVP"}},{"type":"Feature","geometry":{"type":"Point","coordinates":[157.5292,51.8042]},"properties":{"name":"Ksudach","classification":"active","elevation":1007,"country":"Russia","region":"Northwestern Pacific Volcanic Regions","last_eruption_year":1907,"evidence_category":"Eruption Observed","source":"Smithsonian GVP"}},{"type":"Feature","geometry":{"type":"Point","coordinates":[158.196,52.449]},"properties":{"name":"Mutnovsky","classification":"active","elevation":2288,"country":"Russia","region":"Northwestern Pacific Volcanic Regions","last_eruption_year":2000,"evidence_category":"Eruption Observed","source":"Smithsonian GVP"}},{"type":"Feature","geometry":{"type":"Point","coordinates":[158.0358,52.5549]},"properties":{"name":"Gorely","classification":"active","elevation":1799,"country":"Russia","region":"Northwestern Pacific Volcanic Regions","last_eruption_year":2010,"evidence_category":"Eruption Observed","source":"Smithsonian GVP"}},{"type":"Feature","geometry":{"type":"Point","coordinates":[157.58,52.63]},"properties":{"name":"Tolmachev Dol","classification":"potentially_active","elevation":1021,"country":"Russia","region":"Northwestern Pacific Volcanic Regions","last_eruption_year":300,"evidence_category":"Eruption Dated","source":"Smithsonian GVP"}},{"type":"Feature","geometry":{"type":"Point","coordinates":[158.28,52.7]},"properties":{"name":"Vilyuchinsky","classification":"potentially_active","elevation":2173,"country":"Russia","region":"Northwestern Pacific Volcanic Regions","last_eruption_year":-8050,"evidence_category":"Eruption Dated","source":"Smithsonian GVP"}},{"type":"Feature","geometry":{"type":"Point","coordinates":[158.24,52.802]},"properties":{"name":"Barkhatnaya Sopka","classification":"potentially_active","elevation":874,"country":"Russia","region":"Northwestern Pacific Volcanic Regions","last_eruption_year":-3550,"evidence_category":"Eruption Dated","source":"Smithsonian GVP"}},{"type":"Feature","geometry":{"type":"Point","coordinates":[157.339,52.543]},"properties":{"name":"Opala","classification":"active","elevation":2439,"country":"Russia","region":"Northwestern Pacific Volcanic Regions","last_eruption_year":1776,"evidence_category":"Eruption Observed","source":"Smithsonian GVP"}},{"type":"Feature","geometry":{"type":"Point","coordinates":[158.712,53.321]},"properties":{"name":"Koryaksky","classification":"active","elevation":3430,"country":"Russia","region":"Northwestern Pacific Volcanic Regions","last_eruption_year":2009,"evidence_category":"Eruption Observed","source":"Smithsonian GVP"}},{"type":"Feature","geometry":{"type":"Point","coordinates":[158.836,53.256]},"properties":{"name":"Avachinsky","classification":"active","elevation":2717,"country":"Russia","region":"Northwestern Pacific Volcanic Regions","last_eruption_year":2001,"evidence_category":"Eruption Observed","source":"Smithsonian GVP"}},{"type":"Feature","geometry":{"type":"Point","coordinates":[158.922,53.637]},"properties":{"name":"Dzenzursky","classification":"potentially_active","elevation":2285,"country":"Russia","region":"Northwestern Pacific Volcanic Regions","last_eruption_year":null,"evidence_category":"Evidence Credible","source":"Smithsonian GVP"}},{"type":"Feature","geometry":{"type":"Point","coordinates":[158.4478,53.7525]},"properties":{"name":"Veer","classification":"potentially_active","elevation":520,"country":"Russia","region":"Northwestern Pacific Volcanic Regions","last_eruption_year":390,"evidence_category":"Eruption Dated","source":"Smithsonian GVP"}},{"type":"Feature","geometry":{"type":"Point","coordinates":[158.052,53.833]},"properties":{"name":"Kostakan","classification":"potentially_active","elevation":1150,"country":"Russia","region":"Northwestern Pacific Volcanic Regions","last_eruption_year":1350,"evidence_category":"Eruption Dated","source":"Smithsonian GVP"}},{"type":"Feature","geometry":{"type":"Point","coordinates":[158.07,53.905]},"properties":{"name":"Bakening","classification":"potentially_active","elevation":2278,"country":"Russia","region":"Northwestern Pacific Volcanic Regions","last_eruption_year":-550,"evidence_category":"Eruption Dated","source":"Smithsonian GVP"}},{"type":"Feature","geometry":{"type":"Point","coordinates":[158.3851,53.9065]},"properties":{"name":"Zavaritsky","classification":"potentially_active","elevation":1547,"country":"Russia","region":"Northwestern Pacific Volcanic Regions","last_eruption_year":-800,"evidence_category":"Eruption Dated","source":"Smithsonian GVP"}},{"type":"Feature","geometry":{"type":"Point","coordinates":[159.45,53.98]},"properties":{"name":"Akademia Nauk","classification":"active","elevation":1180,"country":"Russia","region":"Northwestern Pacific Volcanic Regions","last_eruption_year":1996,"evidence_category":"Eruption Observed","source":"Smithsonian GVP"}},{"type":"Feature","geometry":{"type":"Point","coordinates":[159.15,53.589]},"properties":{"name":"Zhupanovsky","classification":"active","elevation":2899,"country":"Russia","region":"Northwestern Pacific Volcanic Regions","last_eruption_year":2016,"evidence_category":"Eruption Observed","source":"Smithsonian GVP"}},{"type":"Feature","geometry":{"type":"Point","coordinates":[159.443,54.049]},"properties":{"name":"Karymsky","classification":"active","elevation":1513,"country":"Russia","region":"Northwestern Pacific Volcanic Regions","last_eruption_year":2025,"evidence_category":"Eruption Observed","source":"Smithsonian GVP"}},{"type":"Feature","geometry":{"type":"Point","coordinates":[159.674,54.135]},"properties":{"name":"Maly Semyachik","classification":"active","elevation":1527,"country":"Russia","region":"Northwestern Pacific Volcanic Regions","last_eruption_year":1952,"evidence_category":"Eruption Observed","source":"Smithsonian GVP"}},{"type":"Feature","geometry":{"type":"Point","coordinates":[160.02,54.32]},"properties":{"name":"Bolshoi Semiachik","classification":"potentially_active","elevation":1720,"country":"Russia","region":"Northwestern Pacific Volcanic Regions","last_eruption_year":-4450,"evidence_category":"Eruption Dated","source":"Smithsonian GVP"}},{"type":"Feature","geometry":{"type":"Point","coordinates":[159.804,54.528]},"properties":{"name":"Taunshits","classification":"potentially_active","elevation":2301,"country":"Russia","region":"Northwestern Pacific Volcanic Regions","last_eruption_year":-550,"evidence_category":"Eruption Dated","source":"Smithsonian GVP"}},{"type":"Feature","geometry":{"type":"Point","coordinates":[159.9741,54.4885]},"properties":{"name":"Uzon","classification":"potentially_active","elevation":1617,"country":"Russia","region":"Northwestern Pacific Volcanic Regions","last_eruption_year":200,"evidence_category":"Eruption Dated","source":"Smithsonian GVP"}},{"type":"Feature","geometry":{"type":"Point","coordinates":[160.251,54.489]},"properties":{"name":"Kikhpinych","classification":"potentially_active","elevation":1515,"country":"Russia","region":"Northwestern Pacific Volcanic Regions","last_eruption_year":1550,"evidence_category":"Eruption Dated","source":"Smithsonian GVP"}},{"type":"Feature","geometry":{"type":"Point","coordinates":[160.27,54.596]},"properties":{"name":"Krasheninnikov","classification":"potentially_active","elevation":1816,"country":"Russia","region":"Northwestern Pacific Volcanic Regions","last_eruption_year":2026,"evidence_category":"Eruption Dated","source":"Smithsonian GVP"}},{"type":"Feature","geometry":{"type":"Point","coordinates":[160.533,54.753]},"properties":{"name":"Kronotsky","classification":"potentially_active","elevation":3482,"country":"Russia","region":"Northwestern Pacific Volcanic Regions","last_eruption_year":-3350,"evidence_category":"Eruption Dated","source":"Smithsonian GVP"}},{"type":"Feature","geometry":{"type":"Point","coordinates":[160.703,54.974]},"properties":{"name":"Gamchen","classification":"potentially_active","elevation":2539,"country":"Russia","region":"Northwestern Pacific Volcanic Regions","last_eruption_year":-188,"evidence_category":"Eruption Dated","source":"Smithsonian GVP"}},{"type":"Feature","geometry":{"type":"Point","coordinates":[160.765,55.064]},"properties":{"name":"Vysoky","classification":"potentially_active","elevation":2129,"country":"Russia","region":"Northwestern Pacific Volcanic Regions","last_eruption_year":-550,"evidence_category":"Eruption Dated","source":"Smithsonian GVP"}},{"type":"Feature","geometry":{"type":"Point","coordinates":[160.725,55.033]},"properties":{"name":"Komarov","classification":"potentially_active","elevation":2065,"country":"Russia","region":"Northwestern Pacific Volcanic Regions","last_eruption_year":950,"evidence_category":"Eruption Dated","source":"Smithsonian GVP"}},{"type":"Feature","geometry":{"type":"Point","coordinates":[160.32,55.131]},"properties":{"name":"Kizimen","classification":"active","elevation":2334,"country":"Russia","region":"Northwestern Pacific Volcanic Regions","last_eruption_year":2013,"evidence_category":"Eruption Observed","source":"Smithsonian GVP"}},{"type":"Feature","geometry":{"type":"Point","coordinates":[160.527,55.758]},"properties":{"name":"Udina","classification":"potentially_active","elevation":2886,"country":"Russia","region":"Northwestern Pacific Volcanic Regions","last_eruption_year":null,"evidence_category":"Evidence Credible","source":"Smithsonian GVP"}},{"type":"Feature","geometry":{"type":"Point","coordinates":[160.603,55.862]},"properties":{"name":"Zimina","classification":"dormant","elevation":3057,"country":"Russia","region":"Northwestern Pacific Volcanic Regions","last_eruption_year":null,"evidence_category":"Evidence Uncertain","source":"Smithsonian GVP"}},{"type":"Feature","geometry":{"type":"Point","coordinates":[160.326,55.832]},"properties":{"name":"Tolbachik","classification":"active","elevation":3611,"country":"Russia","region":"Northwestern Pacific Volcanic Regions","last_eruption_year":2013,"evidence_category":"Eruption Observed","source":"Smithsonian GVP"}},{"type":"Feature","geometry":{"type":"Point","coordinates":[160.593,56.02]},"properties":{"name":"Kamen","classification":"potentially_active","elevation":4585,"country":"Russia","region":"Northwestern Pacific Volcanic Regions","last_eruption_year":null,"evidence_category":"Evidence Credible","source":"Smithsonian GVP"}},{"type":"Feature","geometry":{"type":"Point","coordinates":[160.595,55.972]},"properties":{"name":"Bezymianny","classification":"active","elevation":2882,"country":"Russia","region":"Northwestern Pacific Volcanic Regions","last_eruption_year":2025,"evidence_category":"Eruption Observed","source":"Smithsonian GVP"}},{"type":"Feature","geometry":{"type":"Point","coordinates":[160.509,56.113]},"properties":{"name":"Ushkovsky","classification":"active","elevation":3943,"country":"Russia","region":"Northwestern Pacific Volcanic Regions","last_eruption_year":1890,"evidence_category":"Eruption Observed","source":"Smithsonian GVP"}},{"type":"Feature","geometry":{"type":"Point","coordinates":[160.642,56.056]},"properties":{"name":"Klyuchevskoy","classification":"active","elevation":4754,"country":"Russia","region":"Northwestern Pacific Volcanic Regions","last_eruption_year":2025,"evidence_category":"Eruption Observed","source":"Smithsonian GVP"}},{"type":"Feature","geometry":{"type":"Point","coordinates":[157.407,54.761]},"properties":{"name":"Khangar","classification":"potentially_active","elevation":1967,"country":"Russia","region":"Northwestern Pacific Volcanic Regions","last_eruption_year":1500,"evidence_category":"Eruption Dated","source":"Smithsonian GVP"}},{"type":"Feature","geometry":{"type":"Point","coordinates":[157.47,55.55]},"properties":{"name":"Cherpuk Group","classification":"potentially_active","elevation":1868,"country":"Russia","region":"Northwestern Pacific Volcanic Regions","last_eruption_year":-4550,"evidence_category":"Eruption Dated","source":"Smithsonian GVP"}},{"type":"Feature","geometry":{"type":"Point","coordinates":[161.36,56.653]},"properties":{"name":"Sheveluch","classification":"active","elevation":3283,"country":"Russia","region":"Northwestern Pacific Volcanic Regions","last_eruption_year":2026,"evidence_category":"Eruption Observed","source":"Smithsonian GVP"}},{"type":"Feature","geometry":{"type":"Point","coordinates":[157.718,55.678]},"properties":{"name":"Ichinsky","classification":"active","elevation":3596,"country":"Russia","region":"Northwestern Pacific Volcanic Regions","last_eruption_year":1740,"evidence_category":"Eruption Observed","source":"Smithsonian GVP"}},{"type":"Feature","geometry":{"type":"Point","coordinates":[157.917,56.483]},"properties":{"name":"Bolshoi-Kekuknaysky","classification":"potentially_active","elevation":1401,"country":"Russia","region":"Northwestern Pacific Volcanic Regions","last_eruption_year":-5310,"evidence_category":"Eruption Dated","source":"Smithsonian GVP"}},{"type":"Feature","geometry":{"type":"Point","coordinates":[159.647,56.656]},"properties":{"name":"Alney-Chashakondzha","classification":"potentially_active","elevation":2570,"country":"Russia","region":"Northwestern Pacific Volcanic Regions","last_eruption_year":1600,"evidence_category":"Eruption Dated","source":"Smithsonian GVP"}},{"type":"Feature","geometry":{"type":"Point","coordinates":[161.09,57.153]},"properties":{"name":"Shisheika","classification":"potentially_active","elevation":355,"country":"Russia","region":"Northwestern Pacific Volcanic Regions","last_eruption_year":-2240,"evidence_category":"Eruption Dated","source":"Smithsonian GVP"}},{"type":"Feature","geometry":{"type":"Point","coordinates":[159.83,57.2]},"properties":{"name":"Terpuk","classification":"potentially_active","elevation":765,"country":"Russia","region":"Northwestern Pacific Volcanic Regions","last_eruption_year":-800,"evidence_category":"Eruption Dated","source":"Smithsonian GVP"}},{"type":"Feature","geometry":{"type":"Point","coordinates":[160.067,57.317]},"properties":{"name":"Sedanka Lava Field","classification":"potentially_active","elevation":1399,"country":"Russia","region":"Northwestern Pacific Volcanic Regions","last_eruption_year":-7050,"evidence_category":"Eruption Dated","source":"Smithsonian GVP"}},{"type":"Feature","geometry":{"type":"Point","coordinates":[160.2,57.33]},"properties":{"name":"Gorny Institute","classification":"potentially_active","elevation":2125,"country":"Russia","region":"Northwestern Pacific Volcanic Regions","last_eruption_year":1250,"evidence_category":"Eruption Dated","source":"Smithsonian GVP"}},{"type":"Feature","geometry":{"type":"Point","coordinates":[160.97,57.35]},"properties":{"name":"Kinenin","classification":"potentially_active","elevation":583,"country":"Russia","region":"Northwestern Pacific Volcanic Regions","last_eruption_year":850,"evidence_category":"Eruption Dated","source":"Smithsonian GVP"}},{"type":"Feature","geometry":{"type":"Point","coordinates":[161.37,57.35]},"properties":{"name":"Bliznetsy","classification":"potentially_active","elevation":265,"country":"Russia","region":"Northwestern Pacific Volcanic Regions","last_eruption_year":-1060,"evidence_category":"Eruption Dated","source":"Smithsonian GVP"}},{"type":"Feature","geometry":{"type":"Point","coordinates":[160.108,57.406]},"properties":{"name":"Titila","classification":"potentially_active","elevation":1523,"country":"Russia","region":"Northwestern Pacific Volcanic Regions","last_eruption_year":-550,"evidence_category":"Eruption Dated","source":"Smithsonian GVP"}},{"type":"Feature","geometry":{"type":"Point","coordinates":[160.53,57.55]},"properties":{"name":"Elovsky","classification":"potentially_active","elevation":1381,"country":"Russia","region":"Northwestern Pacific Volcanic Regions","last_eruption_year":-7550,"evidence_category":"Eruption Dated","source":"Smithsonian GVP"}},{"type":"Feature","geometry":{"type":"Point","coordinates":[160.65,57.97]},"properties":{"name":"Nylgimelkin","classification":"potentially_active","elevation":1764,"country":"Russia","region":"Northwestern Pacific Volcanic Regions","last_eruption_year":-3550,"evidence_category":"Eruption Dated","source":"Smithsonian GVP"}},{"type":"Feature","geometry":{"type":"Point","coordinates":[160.82,58.13]},"properties":{"name":"Spokoiny","classification":"potentially_active","elevation":2171,"country":"Russia","region":"Northwestern Pacific Volcanic Regions","last_eruption_year":-3450,"evidence_category":"Eruption Dated","source":"Smithsonian GVP"}},{"type":"Feature","geometry":{"type":"Point","coordinates":[160.82,58.18]},"properties":{"name":"Ostry","classification":"potentially_active","elevation":2552,"country":"Russia","region":"Northwestern Pacific Volcanic Regions","last_eruption_year":-2050,"evidence_category":"Eruption Dated","source":"Smithsonian GVP"}},{"type":"Feature","geometry":{"type":"Point","coordinates":[160.87,58.28]},"properties":{"name":"Severny","classification":"potentially_active","elevation":1936,"country":"Russia","region":"Northwestern Pacific Volcanic Regions","last_eruption_year":-1550,"evidence_category":"Eruption Dated","source":"Smithsonian GVP"}},{"type":"Feature","geometry":{"type":"Point","coordinates":[145.78,16.58]},"properties":{"name":"South Sarigan Seamount","classification":"active","elevation":-184,"country":"United States","region":"Northwestern Pacific Volcanic Regions","last_eruption_year":2010,"evidence_category":"Eruption Observed","source":"Smithsonian GVP"}},{"type":"Feature","geometry":{"type":"Point","coordinates":[147.918,45.028]},"properties":{"name":"Odamoisan [Tebenkov]","classification":"dormant","elevation":1208,"country":"Japan - administered by Russia","region":"Northwestern Pacific Volcanic Regions","last_eruption_year":null,"evidence_category":"Evidence Uncertain","source":"Smithsonian GVP"}},{"type":"Feature","geometry":{"type":"Point","coordinates":[145.086,44.044]},"properties":{"name":"Tenchozan","classification":"potentially_active","elevation":1046,"country":"Japan","region":"Northwestern Pacific Volcanic Regions","last_eruption_year":null,"evidence_category":"Eruption Dated","source":"Smithsonian GVP"}},{"type":"Feature","geometry":{"type":"Point","coordinates":[144.506,15.406]},"properties":{"name":"Mariana Back-Arc Segment at 15.5\u00b0N","classification":"potentially_active","elevation":-4100,"country":"United States","region":"Northwestern Pacific Volcanic Regions","last_eruption_year":2015,"evidence_category":"Eruption Dated","source":"Smithsonian GVP"}}],"metadata":{"source":"Smithsonian Global Volcanism Program","layer_id":"northwestern-pacific","feature_count":207}}