{"type":"FeatureCollection","features":[{"type":"Feature","geometry":{"type":"Point","coordinates":[167.33,55.42]},"properties":{"name":"Piip","classification":"potentially_active","elevation":-300,"country":"Russia","region":"North America Volcanic Regions","last_eruption_year":-5050,"evidence_category":"Eruption Dated","source":"Smithsonian GVP"}},{"type":"Feature","geometry":{"type":"Point","coordinates":[175.911,52.35]},"properties":{"name":"Buldir","classification":"dormant","elevation":656,"country":"United States","region":"North America Volcanic Regions","last_eruption_year":null,"evidence_category":"Evidence Uncertain","source":"Smithsonian GVP"}},{"type":"Feature","geometry":{"type":"Point","coordinates":[177.602,52.103]},"properties":{"name":"Kiska","classification":"active","elevation":1220,"country":"United States","region":"North America Volcanic Regions","last_eruption_year":1990,"evidence_category":"Eruption Observed","source":"Smithsonian GVP"}},{"type":"Feature","geometry":{"type":"Point","coordinates":[178.136,52.015]},"properties":{"name":"Segula","classification":"potentially_active","elevation":1160,"country":"United States","region":"North America Volcanic Regions","last_eruption_year":null,"evidence_category":"Evidence Credible","source":"Smithsonian GVP"}},{"type":"Feature","geometry":{"type":"Point","coordinates":[178.33,51.97]},"properties":{"name":"Davidof","classification":"dormant","elevation":328,"country":"United States","region":"North America Volcanic Regions","last_eruption_year":null,"evidence_category":"Evidence Uncertain","source":"Smithsonian GVP"}},{"type":"Feature","geometry":{"type":"Point","coordinates":[178.543,51.95]},"properties":{"name":"Little Sitkin","classification":"active","elevation":1174,"country":"United States","region":"North America Volcanic Regions","last_eruption_year":1830,"evidence_category":"Eruption Observed","source":"Smithsonian GVP"}},{"type":"Feature","geometry":{"type":"Point","coordinates":[179.58,51.93]},"properties":{"name":"Semisopochnoi","classification":"active","elevation":1221,"country":"United States","region":"North America Volcanic Regions","last_eruption_year":2023,"evidence_category":"Eruption Observed","source":"Smithsonian GVP"}},{"type":"Feature","geometry":{"type":"Point","coordinates":[-178.794,51.79]},"properties":{"name":"Gareloi","classification":"active","elevation":1573,"country":"United States","region":"North America Volcanic Regions","last_eruption_year":1989,"evidence_category":"Eruption Observed","source":"Smithsonian GVP"}},{"type":"Feature","geometry":{"type":"Point","coordinates":[-178.146,51.885]},"properties":{"name":"Tanaga","classification":"active","elevation":1806,"country":"United States","region":"North America Volcanic Regions","last_eruption_year":1914,"evidence_category":"Eruption Observed","source":"Smithsonian GVP"}},{"type":"Feature","geometry":{"type":"Point","coordinates":[-178.006,51.873]},"properties":{"name":"Takawangha","classification":"potentially_active","elevation":1449,"country":"United States","region":"North America Volcanic Regions","last_eruption_year":1550,"evidence_category":"Eruption Dated","source":"Smithsonian GVP"}},{"type":"Feature","geometry":{"type":"Point","coordinates":[-177.438,51.91]},"properties":{"name":"Bobrof","classification":"dormant","elevation":738,"country":"United States","region":"North America Volcanic Regions","last_eruption_year":null,"evidence_category":"Evidence Uncertain","source":"Smithsonian GVP"}},{"type":"Feature","geometry":{"type":"Point","coordinates":[-177.168,51.923]},"properties":{"name":"Kanaga","classification":"active","elevation":1307,"country":"United States","region":"North America Volcanic Regions","last_eruption_year":2023,"evidence_category":"Eruption Observed","source":"Smithsonian GVP"}},{"type":"Feature","geometry":{"type":"Point","coordinates":[-176.747,51.944]},"properties":{"name":"Moffett","classification":"potentially_active","elevation":1196,"country":"United States","region":"North America Volcanic Regions","last_eruption_year":-1600,"evidence_category":"Eruption Dated","source":"Smithsonian GVP"}},{"type":"Feature","geometry":{"type":"Point","coordinates":[-176.13,52.076]},"properties":{"name":"Great Sitkin","classification":"active","elevation":1740,"country":"United States","region":"North America Volcanic Regions","last_eruption_year":2026,"evidence_category":"Eruption Observed","source":"Smithsonian GVP"}},{"type":"Feature","geometry":{"type":"Point","coordinates":[-175.508,52.177]},"properties":{"name":"Kasatochi","classification":"active","elevation":314,"country":"United States","region":"North America Volcanic Regions","last_eruption_year":2008,"evidence_category":"Eruption Observed","source":"Smithsonian GVP"}},{"type":"Feature","geometry":{"type":"Point","coordinates":[-175.13,52.22]},"properties":{"name":"Koniuji","classification":"potentially_active","elevation":273,"country":"United States","region":"North America Volcanic Regions","last_eruption_year":-1150,"evidence_category":"Eruption Dated","source":"Smithsonian GVP"}},{"type":"Feature","geometry":{"type":"Point","coordinates":[-174.139,52.331]},"properties":{"name":"Atka Volcanic Complex","classification":"active","elevation":1518,"country":"United States","region":"North America Volcanic Regions","last_eruption_year":2025,"evidence_category":"Eruption Observed","source":"Smithsonian GVP"}},{"type":"Feature","geometry":{"type":"Point","coordinates":[-172.51,52.315]},"properties":{"name":"Seguam","classification":"active","elevation":1054,"country":"United States","region":"North America Volcanic Regions","last_eruption_year":1993,"evidence_category":"Eruption Observed","source":"Smithsonian GVP"}},{"type":"Feature","geometry":{"type":"Point","coordinates":[-171.252,52.5]},"properties":{"name":"Amukta","classification":"active","elevation":1066,"country":"United States","region":"North America Volcanic Regions","last_eruption_year":1996,"evidence_category":"Eruption Observed","source":"Smithsonian GVP"}},{"type":"Feature","geometry":{"type":"Point","coordinates":[-171.1383,52.5716]},"properties":{"name":"Chagulak","classification":"dormant","elevation":1028,"country":"United States","region":"North America Volcanic Regions","last_eruption_year":null,"evidence_category":"Evidence Uncertain","source":"Smithsonian GVP"}},{"type":"Feature","geometry":{"type":"Point","coordinates":[-170.6317,52.6394]},"properties":{"name":"Yunaska","classification":"active","elevation":550,"country":"United States","region":"North America Volcanic Regions","last_eruption_year":1937,"evidence_category":"Eruption Observed","source":"Smithsonian GVP"}},{"type":"Feature","geometry":{"type":"Point","coordinates":[-170.111,52.742]},"properties":{"name":"Herbert","classification":"potentially_active","elevation":1280,"country":"United States","region":"North America Volcanic Regions","last_eruption_year":null,"evidence_category":"Evidence Credible","source":"Smithsonian GVP"}},{"type":"Feature","geometry":{"type":"Point","coordinates":[-170.054,52.894]},"properties":{"name":"Carlisle","classification":"active","elevation":1620,"country":"United States","region":"North America Volcanic Regions","last_eruption_year":1828,"evidence_category":"Eruption Observed","source":"Smithsonian GVP"}},{"type":"Feature","geometry":{"type":"Point","coordinates":[-169.944,52.825]},"properties":{"name":"Cleveland","classification":"active","elevation":1730,"country":"United States","region":"North America Volcanic Regions","last_eruption_year":2020,"evidence_category":"Eruption Observed","source":"Smithsonian GVP"}},{"type":"Feature","geometry":{"type":"Point","coordinates":[-169.77,52.83]},"properties":{"name":"Tana","classification":"potentially_active","elevation":1170,"country":"United States","region":"North America Volcanic Regions","last_eruption_year":null,"evidence_category":"Evidence Credible","source":"Smithsonian GVP"}},{"type":"Feature","geometry":{"type":"Point","coordinates":[-169.77,53.065]},"properties":{"name":"Uliaga","classification":"potentially_active","elevation":888,"country":"United States","region":"North America Volcanic Regions","last_eruption_year":null,"evidence_category":"Evidence Credible","source":"Smithsonian GVP"}},{"type":"Feature","geometry":{"type":"Point","coordinates":[-169.72,52.974]},"properties":{"name":"Kagamil","classification":"active","elevation":893,"country":"United States","region":"North America Volcanic Regions","last_eruption_year":1929,"evidence_category":"Eruption Observed","source":"Smithsonian GVP"}},{"type":"Feature","geometry":{"type":"Point","coordinates":[-168.6875,53.1264]},"properties":{"name":"Vsevidof","classification":"active","elevation":2160,"country":"United States","region":"North America Volcanic Regions","last_eruption_year":1878,"evidence_category":"Eruption Observed","source":"Smithsonian GVP"}},{"type":"Feature","geometry":{"type":"Point","coordinates":[-168.539,53.157]},"properties":{"name":"Recheschnoi","classification":"potentially_active","elevation":1984,"country":"United States","region":"North America Volcanic Regions","last_eruption_year":null,"evidence_category":"Evidence Credible","source":"Smithsonian GVP"}},{"type":"Feature","geometry":{"type":"Point","coordinates":[-168.13,53.43]},"properties":{"name":"Okmok","classification":"active","elevation":1073,"country":"United States","region":"North America Volcanic Regions","last_eruption_year":2008,"evidence_category":"Eruption Observed","source":"Smithsonian GVP"}},{"type":"Feature","geometry":{"type":"Point","coordinates":[-168.03,53.93]},"properties":{"name":"Bogoslof","classification":"active","elevation":150,"country":"United States","region":"North America Volcanic Regions","last_eruption_year":2017,"evidence_category":"Eruption Observed","source":"Smithsonian GVP"}},{"type":"Feature","geometry":{"type":"Point","coordinates":[-166.923,53.891]},"properties":{"name":"Makushin","classification":"active","elevation":1800,"country":"United States","region":"North America Volcanic Regions","last_eruption_year":1995,"evidence_category":"Eruption Observed","source":"Smithsonian GVP"}},{"type":"Feature","geometry":{"type":"Point","coordinates":[-165.986,54.134]},"properties":{"name":"Akutan","classification":"active","elevation":1303,"country":"United States","region":"North America Volcanic Regions","last_eruption_year":1992,"evidence_category":"Eruption Observed","source":"Smithsonian GVP"}},{"type":"Feature","geometry":{"type":"Point","coordinates":[-164.65,54.516]},"properties":{"name":"Westdahl","classification":"active","elevation":1563,"country":"United States","region":"North America Volcanic Regions","last_eruption_year":1992,"evidence_category":"Eruption Observed","source":"Smithsonian GVP"}},{"type":"Feature","geometry":{"type":"Point","coordinates":[-164.43,54.65]},"properties":{"name":"Fisher","classification":"active","elevation":1112,"country":"United States","region":"North America Volcanic Regions","last_eruption_year":1830,"evidence_category":"Eruption Observed","source":"Smithsonian GVP"}},{"type":"Feature","geometry":{"type":"Point","coordinates":[-163.97,54.756]},"properties":{"name":"Shishaldin","classification":"active","elevation":2857,"country":"United States","region":"North America Volcanic Regions","last_eruption_year":2023,"evidence_category":"Eruption Observed","source":"Smithsonian GVP"}},{"type":"Feature","geometry":{"type":"Point","coordinates":[-163.589,54.8]},"properties":{"name":"Roundtop","classification":"potentially_active","elevation":1871,"country":"United States","region":"North America Volcanic Regions","last_eruption_year":-7600,"evidence_category":"Eruption Dated","source":"Smithsonian GVP"}},{"type":"Feature","geometry":{"type":"Point","coordinates":[-163.1472,55.4184]},"properties":{"name":"Amak","classification":"active","elevation":547,"country":"United States","region":"North America Volcanic Regions","last_eruption_year":1796,"evidence_category":"Eruption Observed","source":"Smithsonian GVP"}},{"type":"Feature","geometry":{"type":"Point","coordinates":[-162.835,55.067]},"properties":{"name":"Frosty","classification":"potentially_active","elevation":1728,"country":"United States","region":"North America Volcanic Regions","last_eruption_year":null,"evidence_category":"Evidence Credible","source":"Smithsonian GVP"}},{"type":"Feature","geometry":{"type":"Point","coordinates":[-162.276,55.183]},"properties":{"name":"Dutton","classification":"potentially_active","elevation":1465,"country":"United States","region":"North America Volcanic Regions","last_eruption_year":null,"evidence_category":"Evidence Credible","source":"Smithsonian GVP"}},{"type":"Feature","geometry":{"type":"Point","coordinates":[-162.0445,55.3519]},"properties":{"name":"Emmons Lake Volcanic Center","classification":"potentially_active","elevation":1534,"country":"United States","region":"North America Volcanic Regions","last_eruption_year":null,"evidence_category":"Evidence Credible","source":"Smithsonian GVP"}},{"type":"Feature","geometry":{"type":"Point","coordinates":[-161.894,55.417]},"properties":{"name":"Pavlof","classification":"active","elevation":2493,"country":"United States","region":"North America Volcanic Regions","last_eruption_year":2022,"evidence_category":"Eruption Observed","source":"Smithsonian GVP"}},{"type":"Feature","geometry":{"type":"Point","coordinates":[-161.854,55.457]},"properties":{"name":"Pavlof Sister","classification":"potentially_active","elevation":2142,"country":"United States","region":"North America Volcanic Regions","last_eruption_year":null,"evidence_category":"Evidence Credible","source":"Smithsonian GVP"}},{"type":"Feature","geometry":{"type":"Point","coordinates":[-161.214,55.641]},"properties":{"name":"Dana","classification":"potentially_active","elevation":1354,"country":"United States","region":"North America Volcanic Regions","last_eruption_year":-1890,"evidence_category":"Eruption Dated","source":"Smithsonian GVP"}},{"type":"Feature","geometry":{"type":"Point","coordinates":[-159.797,56.011]},"properties":{"name":"Kupreanof","classification":"dormant","elevation":1895,"country":"United States","region":"North America Volcanic Regions","last_eruption_year":null,"evidence_category":"Evidence Uncertain","source":"Smithsonian GVP"}},{"type":"Feature","geometry":{"type":"Point","coordinates":[-159.38,56.17]},"properties":{"name":"Veniaminof","classification":"active","elevation":2507,"country":"United States","region":"North America Volcanic Regions","last_eruption_year":2021,"evidence_category":"Eruption Observed","source":"Smithsonian GVP"}},{"type":"Feature","geometry":{"type":"Point","coordinates":[-158.785,56.552]},"properties":{"name":"Black Peak","classification":"potentially_active","elevation":1032,"country":"United States","region":"North America Volcanic Regions","last_eruption_year":-1900,"evidence_category":"Eruption Dated","source":"Smithsonian GVP"}},{"type":"Feature","geometry":{"type":"Point","coordinates":[-158.17,56.88]},"properties":{"name":"Aniakchak","classification":"active","elevation":1341,"country":"United States","region":"North America Volcanic Regions","last_eruption_year":1931,"evidence_category":"Eruption Observed","source":"Smithsonian GVP"}},{"type":"Feature","geometry":{"type":"Point","coordinates":[-157.185,57.019]},"properties":{"name":"Yantarni","classification":"potentially_active","elevation":1345,"country":"United States","region":"North America Volcanic Regions","last_eruption_year":-800,"evidence_category":"Eruption Dated","source":"Smithsonian GVP"}},{"type":"Feature","geometry":{"type":"Point","coordinates":[-156.99,57.135]},"properties":{"name":"Chiginagak","classification":"active","elevation":2221,"country":"United States","region":"North America Volcanic Regions","last_eruption_year":1998,"evidence_category":"Eruption Observed","source":"Smithsonian GVP"}},{"type":"Feature","geometry":{"type":"Point","coordinates":[-156.745,57.203]},"properties":{"name":"Kialagvik","classification":"potentially_active","elevation":1677,"country":"United States","region":"North America Volcanic Regions","last_eruption_year":null,"evidence_category":"Evidence Credible","source":"Smithsonian GVP"}},{"type":"Feature","geometry":{"type":"Point","coordinates":[-156.368,57.751]},"properties":{"name":"Ugashik-Peulik","classification":"active","elevation":1474,"country":"United States","region":"North America Volcanic Regions","last_eruption_year":1814,"evidence_category":"Eruption Observed","source":"Smithsonian GVP"}},{"type":"Feature","geometry":{"type":"Point","coordinates":[-156.5203,57.8344]},"properties":{"name":"Ukinrek Maars","classification":"active","elevation":91,"country":"United States","region":"North America Volcanic Regions","last_eruption_year":1977,"evidence_category":"Eruption Observed","source":"Smithsonian GVP"}},{"type":"Feature","geometry":{"type":"Point","coordinates":[-155.411,57.87]},"properties":{"name":"Alaska Peninsula Arc at 155.4\u00b0W","classification":"potentially_active","elevation":402,"country":"United States","region":"North America Volcanic Regions","last_eruption_year":null,"evidence_category":"Evidence Credible","source":"Smithsonian GVP"}},{"type":"Feature","geometry":{"type":"Point","coordinates":[-155.361,58.172]},"properties":{"name":"Martin","classification":"potentially_active","elevation":1863,"country":"United States","region":"North America Volcanic Regions","last_eruption_year":1953,"evidence_category":"Eruption Dated","source":"Smithsonian GVP"}},{"type":"Feature","geometry":{"type":"Point","coordinates":[-155.253,58.195]},"properties":{"name":"Mageik","classification":"potentially_active","elevation":2165,"country":"United States","region":"North America Volcanic Regions","last_eruption_year":-500,"evidence_category":"Eruption Dated","source":"Smithsonian GVP"}},{"type":"Feature","geometry":{"type":"Point","coordinates":[-155.1,58.236]},"properties":{"name":"Trident","classification":"active","elevation":1864,"country":"United States","region":"North America Volcanic Regions","last_eruption_year":1974,"evidence_category":"Eruption Observed","source":"Smithsonian GVP"}},{"type":"Feature","geometry":{"type":"Point","coordinates":[-154.9533,58.279]},"properties":{"name":"Katmai","classification":"active","elevation":2047,"country":"United States","region":"North America Volcanic Regions","last_eruption_year":1912,"evidence_category":"Eruption Observed","source":"Smithsonian GVP"}},{"type":"Feature","geometry":{"type":"Point","coordinates":[-155.1588,58.2655]},"properties":{"name":"Novarupta","classification":"active","elevation":841,"country":"United States","region":"North America Volcanic Regions","last_eruption_year":1912,"evidence_category":"Eruption Observed","source":"Smithsonian GVP"}},{"type":"Feature","geometry":{"type":"Point","coordinates":[-155.092,58.354]},"properties":{"name":"Griggs","classification":"potentially_active","elevation":2317,"country":"United States","region":"North America Volcanic Regions","last_eruption_year":-1790,"evidence_category":"Eruption Dated","source":"Smithsonian GVP"}},{"type":"Feature","geometry":{"type":"Point","coordinates":[-154.682,58.336]},"properties":{"name":"Snowy Mountain","classification":"potentially_active","elevation":2162,"country":"United States","region":"North America Volcanic Regions","last_eruption_year":1710,"evidence_category":"Eruption Dated","source":"Smithsonian GVP"}},{"type":"Feature","geometry":{"type":"Point","coordinates":[-154.449,58.418]},"properties":{"name":"Denison","classification":"dormant","elevation":2287,"country":"United States","region":"North America Volcanic Regions","last_eruption_year":null,"evidence_category":"Evidence Uncertain","source":"Smithsonian GVP"}},{"type":"Feature","geometry":{"type":"Point","coordinates":[-154.3895,58.4298]},"properties":{"name":"Steller","classification":"potentially_active","elevation":2279,"country":"United States","region":"North America Volcanic Regions","last_eruption_year":null,"evidence_category":"Evidence Credible","source":"Smithsonian GVP"}},{"type":"Feature","geometry":{"type":"Point","coordinates":[-154.355,58.453]},"properties":{"name":"Kukak","classification":"active","elevation":2043,"country":"United States","region":"North America Volcanic Regions","last_eruption_year":null,"evidence_category":"Unrest / Holocene","source":"Smithsonian GVP"}},{"type":"Feature","geometry":{"type":"Point","coordinates":[-154.0245,58.6113]},"properties":{"name":"Kaguyak","classification":"potentially_active","elevation":901,"country":"United States","region":"North America Volcanic Regions","last_eruption_year":-3850,"evidence_category":"Eruption Dated","source":"Smithsonian GVP"}},{"type":"Feature","geometry":{"type":"Point","coordinates":[-153.672,58.77]},"properties":{"name":"Fourpeaked","classification":"active","elevation":2105,"country":"United States","region":"North America Volcanic Regions","last_eruption_year":2006,"evidence_category":"Eruption Observed","source":"Smithsonian GVP"}},{"type":"Feature","geometry":{"type":"Point","coordinates":[-153.542,58.855]},"properties":{"name":"Douglas","classification":"potentially_active","elevation":2140,"country":"United States","region":"North America Volcanic Regions","last_eruption_year":null,"evidence_category":"Evidence Credible","source":"Smithsonian GVP"}},{"type":"Feature","geometry":{"type":"Point","coordinates":[-153.435,59.3626]},"properties":{"name":"Augustine","classification":"active","elevation":1218,"country":"United States","region":"North America Volcanic Regions","last_eruption_year":2006,"evidence_category":"Eruption Observed","source":"Smithsonian GVP"}},{"type":"Feature","geometry":{"type":"Point","coordinates":[-153.09,60.032]},"properties":{"name":"Iliamna","classification":"active","elevation":3053,"country":"United States","region":"North America Volcanic Regions","last_eruption_year":1876,"evidence_category":"Eruption Observed","source":"Smithsonian GVP"}},{"type":"Feature","geometry":{"type":"Point","coordinates":[-152.742,60.485]},"properties":{"name":"Redoubt","classification":"active","elevation":3108,"country":"United States","region":"North America Volcanic Regions","last_eruption_year":2009,"evidence_category":"Eruption Observed","source":"Smithsonian GVP"}},{"type":"Feature","geometry":{"type":"Point","coordinates":[-152.251,61.299]},"properties":{"name":"Spurr","classification":"active","elevation":3374,"country":"United States","region":"North America Volcanic Regions","last_eruption_year":1992,"evidence_category":"Eruption Observed","source":"Smithsonian GVP"}},{"type":"Feature","geometry":{"type":"Point","coordinates":[-152.411,61.64]},"properties":{"name":"Hayes","classification":"potentially_active","elevation":3034,"country":"United States","region":"North America Volcanic Regions","last_eruption_year":1200,"evidence_category":"Eruption Dated","source":"Smithsonian GVP"}},{"type":"Feature","geometry":{"type":"Point","coordinates":[-170.213,57.167]},"properties":{"name":"St. Paul Island","classification":"potentially_active","elevation":203,"country":"United States","region":"North America Volcanic Regions","last_eruption_year":-1280,"evidence_category":"Eruption Dated","source":"Smithsonian GVP"}},{"type":"Feature","geometry":{"type":"Point","coordinates":[-164.47,61.43]},"properties":{"name":"Ingakslugwat Hills","classification":"potentially_active","elevation":190,"country":"United States","region":"North America Volcanic Regions","last_eruption_year":null,"evidence_category":"Evidence Credible","source":"Smithsonian GVP"}},{"type":"Feature","geometry":{"type":"Point","coordinates":[-162.12,63.45]},"properties":{"name":"St. Michael","classification":"potentially_active","elevation":715,"country":"United States","region":"North America Volcanic Regions","last_eruption_year":null,"evidence_category":"Evidence Credible","source":"Smithsonian GVP"}},{"type":"Feature","geometry":{"type":"Point","coordinates":[-163.45,65.517]},"properties":{"name":"Imuruk Lake","classification":"potentially_active","elevation":610,"country":"United States","region":"North America Volcanic Regions","last_eruption_year":300,"evidence_category":"Eruption Dated","source":"Smithsonian GVP"}},{"type":"Feature","geometry":{"type":"Point","coordinates":[-148.4327,64.0616]},"properties":{"name":"Buzzard Creek","classification":"potentially_active","elevation":830,"country":"United States","region":"North America Volcanic Regions","last_eruption_year":-1050,"evidence_category":"Eruption Dated","source":"Smithsonian GVP"}},{"type":"Feature","geometry":{"type":"Point","coordinates":[-144.017,62.006]},"properties":{"name":"Wrangell","classification":"active","elevation":4278,"country":"United States","region":"North America Volcanic Regions","last_eruption_year":1912,"evidence_category":"Eruption Observed","source":"Smithsonian GVP"}},{"type":"Feature","geometry":{"type":"Point","coordinates":[-141.75,61.38]},"properties":{"name":"Churchill","classification":"potentially_active","elevation":5005,"country":"United States","region":"North America Volcanic Regions","last_eruption_year":847,"evidence_category":"Eruption Dated","source":"Smithsonian GVP"}},{"type":"Feature","geometry":{"type":"Point","coordinates":[-135.75,57.05]},"properties":{"name":"Edgecumbe","classification":"potentially_active","elevation":970,"country":"United States","region":"North America Volcanic Regions","last_eruption_year":-2080,"evidence_category":"Eruption Dated","source":"Smithsonian GVP"}},{"type":"Feature","geometry":{"type":"Point","coordinates":[-133.1,56.5]},"properties":{"name":"Duncan Canal","classification":"potentially_active","elevation":15,"country":"United States","region":"North America Volcanic Regions","last_eruption_year":null,"evidence_category":"Evidence Credible","source":"Smithsonian GVP"}},{"type":"Feature","geometry":{"type":"Point","coordinates":[-133.3,55.25]},"properties":{"name":"Tlevak Strait-Suemez Island","classification":"potentially_active","elevation":50,"country":"United States","region":"North America Volcanic Regions","last_eruption_year":null,"evidence_category":"Evidence Credible","source":"Smithsonian GVP"}},{"type":"Feature","geometry":{"type":"Point","coordinates":[-131,55.35]},"properties":{"name":"Behm Canal-Rudyerd Bay","classification":"dormant","elevation":500,"country":"United States","region":"North America Volcanic Regions","last_eruption_year":null,"evidence_category":"Evidence Uncertain","source":"Smithsonian GVP"}},{"type":"Feature","geometry":{"type":"Point","coordinates":[-137.38,62.93]},"properties":{"name":"Fort Selkirk","classification":"dormant","elevation":1239,"country":"Canada","region":"North America Volcanic Regions","last_eruption_year":null,"evidence_category":"Evidence Uncertain","source":"Smithsonian GVP"}},{"type":"Feature","geometry":{"type":"Point","coordinates":[-135.42,60.42]},"properties":{"name":"Alligator Lake","classification":"potentially_active","elevation":2217,"country":"Canada","region":"North America Volcanic Regions","last_eruption_year":null,"evidence_category":"Evidence Credible","source":"Smithsonian GVP"}},{"type":"Feature","geometry":{"type":"Point","coordinates":[-133.358,59.708]},"properties":{"name":"Atlin Volcanic Field","classification":"potentially_active","elevation":1880,"country":"Canada","region":"North America Volcanic Regions","last_eruption_year":null,"evidence_category":"Evidence Credible","source":"Smithsonian GVP"}},{"type":"Feature","geometry":{"type":"Point","coordinates":[-130.58,59.37]},"properties":{"name":"Tuya Volcanic Field","classification":"potentially_active","elevation":2123,"country":"Canada","region":"North America Volcanic Regions","last_eruption_year":null,"evidence_category":"Evidence Credible","source":"Smithsonian GVP"}},{"type":"Feature","geometry":{"type":"Point","coordinates":[-131.97,58.6]},"properties":{"name":"Heart Peaks","classification":"dormant","elevation":2012,"country":"Canada","region":"North America Volcanic Regions","last_eruption_year":null,"evidence_category":"Evidence Uncertain","source":"Smithsonian GVP"}},{"type":"Feature","geometry":{"type":"Point","coordinates":[-131.35,58.42]},"properties":{"name":"Level Mountain","classification":"dormant","elevation":2164,"country":"Canada","region":"North America Volcanic Regions","last_eruption_year":null,"evidence_category":"Evidence Uncertain","source":"Smithsonian GVP"}},{"type":"Feature","geometry":{"type":"Point","coordinates":[-130.63,57.72]},"properties":{"name":"Edziza","classification":"potentially_active","elevation":2786,"country":"Canada","region":"North America Volcanic Regions","last_eruption_year":950,"evidence_category":"Eruption Dated","source":"Smithsonian GVP"}},{"type":"Feature","geometry":{"type":"Point","coordinates":[-130.68,57.43]},"properties":{"name":"Spectrum Range","classification":"potentially_active","elevation":2430,"country":"Canada","region":"North America Volcanic Regions","last_eruption_year":null,"evidence_category":"Evidence Credible","source":"Smithsonian GVP"}},{"type":"Feature","geometry":{"type":"Point","coordinates":[-131.28,56.78]},"properties":{"name":"Hoodoo Mountain","classification":"potentially_active","elevation":1850,"country":"Canada","region":"North America Volcanic Regions","last_eruption_year":-7050,"evidence_category":"Eruption Dated","source":"Smithsonian GVP"}},{"type":"Feature","geometry":{"type":"Point","coordinates":[-130.75,56.567]},"properties":{"name":"Iskut-Unuk River Cones","classification":"potentially_active","elevation":1880,"country":"Canada","region":"North America Volcanic Regions","last_eruption_year":1800,"evidence_category":"Eruption Dated","source":"Smithsonian GVP"}},{"type":"Feature","geometry":{"type":"Point","coordinates":[-128.8991,55.1109]},"properties":{"name":"Tseax River Cone","classification":"potentially_active","elevation":612,"country":"Canada","region":"North America Volcanic Regions","last_eruption_year":1690,"evidence_category":"Eruption Dated","source":"Smithsonian GVP"}},{"type":"Feature","geometry":{"type":"Point","coordinates":[-130.23,54.7]},"properties":{"name":"Crow Lagoon","classification":"potentially_active","elevation":335,"country":"Canada","region":"North America Volcanic Regions","last_eruption_year":null,"evidence_category":"Evidence Credible","source":"Smithsonian GVP"}},{"type":"Feature","geometry":{"type":"Point","coordinates":[-128.723,52.498]},"properties":{"name":"Milbanke Sound Group","classification":"potentially_active","elevation":233,"country":"Canada","region":"North America Volcanic Regions","last_eruption_year":null,"evidence_category":"Evidence Credible","source":"Smithsonian GVP"}},{"type":"Feature","geometry":{"type":"Point","coordinates":[-123.732,52.928]},"properties":{"name":"Nazko","classification":"potentially_active","elevation":1238,"country":"Canada","region":"North America Volcanic Regions","last_eruption_year":-5220,"evidence_category":"Eruption Dated","source":"Smithsonian GVP"}},{"type":"Feature","geometry":{"type":"Point","coordinates":[-120.1125,52.0306]},"properties":{"name":"Wells Gray-Clearwater","classification":"potentially_active","elevation":950,"country":"Canada","region":"North America Volcanic Regions","last_eruption_year":1550,"evidence_category":"Eruption Dated","source":"Smithsonian GVP"}},{"type":"Feature","geometry":{"type":"Point","coordinates":[-126.1133,51.5179]},"properties":{"name":"Silverthrone","classification":"potentially_active","elevation":2860,"country":"Canada","region":"North America Volcanic Regions","last_eruption_year":null,"evidence_category":"Evidence Credible","source":"Smithsonian GVP"}},{"type":"Feature","geometry":{"type":"Point","coordinates":[-123.4,50.8]},"properties":{"name":"Bridge River Cones","classification":"potentially_active","elevation":2500,"country":"Canada","region":"North America Volcanic Regions","last_eruption_year":null,"evidence_category":"Evidence Credible","source":"Smithsonian GVP"}},{"type":"Feature","geometry":{"type":"Point","coordinates":[-123.5,50.63]},"properties":{"name":"Meager","classification":"potentially_active","elevation":2680,"country":"Canada","region":"North America Volcanic Regions","last_eruption_year":-410,"evidence_category":"Eruption Dated","source":"Smithsonian GVP"}},{"type":"Feature","geometry":{"type":"Point","coordinates":[-123,49.933]},"properties":{"name":"Garibaldi Lake","classification":"potentially_active","elevation":2316,"country":"Canada","region":"North America Volcanic Regions","last_eruption_year":null,"evidence_category":"Evidence Credible","source":"Smithsonian GVP"}},{"type":"Feature","geometry":{"type":"Point","coordinates":[-123,49.85]},"properties":{"name":"Garibaldi","classification":"potentially_active","elevation":2678,"country":"Canada","region":"North America Volcanic Regions","last_eruption_year":-8060,"evidence_category":"Eruption Dated","source":"Smithsonian GVP"}},{"type":"Feature","geometry":{"type":"Point","coordinates":[-123.28,50.12]},"properties":{"name":"Cayley Volcanic Field","classification":"potentially_active","elevation":2375,"country":"Canada","region":"North America Volcanic Regions","last_eruption_year":null,"evidence_category":"Evidence Credible","source":"Smithsonian GVP"}},{"type":"Feature","geometry":{"type":"Point","coordinates":[-121.813,48.777]},"properties":{"name":"Baker","classification":"active","elevation":3285,"country":"United States","region":"North America Volcanic Regions","last_eruption_year":1880,"evidence_category":"Eruption Observed","source":"Smithsonian GVP"}},{"type":"Feature","geometry":{"type":"Point","coordinates":[-121.113,48.112]},"properties":{"name":"Glacier Peak","classification":"potentially_active","elevation":3213,"country":"United States","region":"North America Volcanic Regions","last_eruption_year":1700,"evidence_category":"Eruption Dated","source":"Smithsonian GVP"}},{"type":"Feature","geometry":{"type":"Point","coordinates":[-121.76,46.853]},"properties":{"name":"Rainier","classification":"potentially_active","elevation":4392,"country":"United States","region":"North America Volcanic Regions","last_eruption_year":1450,"evidence_category":"Eruption Dated","source":"Smithsonian GVP"}},{"type":"Feature","geometry":{"type":"Point","coordinates":[-121.49,46.206]},"properties":{"name":"Adams","classification":"potentially_active","elevation":3742,"country":"United States","region":"North America Volcanic Regions","last_eruption_year":950,"evidence_category":"Eruption Dated","source":"Smithsonian GVP"}},{"type":"Feature","geometry":{"type":"Point","coordinates":[-122.18,46.2]},"properties":{"name":"St. Helens","classification":"active","elevation":2549,"country":"United States","region":"North America Volcanic Regions","last_eruption_year":2008,"evidence_category":"Eruption Observed","source":"Smithsonian GVP"}},{"type":"Feature","geometry":{"type":"Point","coordinates":[-122.08,45.88]},"properties":{"name":"West Crater","classification":"potentially_active","elevation":1329,"country":"United States","region":"North America Volcanic Regions","last_eruption_year":-5750,"evidence_category":"Eruption Dated","source":"Smithsonian GVP"}},{"type":"Feature","geometry":{"type":"Point","coordinates":[-121.82,45.93]},"properties":{"name":"Indian Heaven","classification":"potentially_active","elevation":1806,"country":"United States","region":"North America Volcanic Regions","last_eruption_year":-6250,"evidence_category":"Eruption Dated","source":"Smithsonian GVP"}},{"type":"Feature","geometry":{"type":"Point","coordinates":[-121.695,45.374]},"properties":{"name":"Hood","classification":"active","elevation":3426,"country":"United States","region":"North America Volcanic Regions","last_eruption_year":1866,"evidence_category":"Eruption Observed","source":"Smithsonian GVP"}},{"type":"Feature","geometry":{"type":"Point","coordinates":[-121.8,44.674]},"properties":{"name":"Jefferson","classification":"potentially_active","elevation":3199,"country":"United States","region":"North America Volcanic Regions","last_eruption_year":950,"evidence_category":"Eruption Dated","source":"Smithsonian GVP"}},{"type":"Feature","geometry":{"type":"Point","coordinates":[-121.7686,44.4125]},"properties":{"name":"Blue Lake Crater","classification":"potentially_active","elevation":1136,"country":"United States","region":"North America Volcanic Regions","last_eruption_year":680,"evidence_category":"Eruption Dated","source":"Smithsonian GVP"}},{"type":"Feature","geometry":{"type":"Point","coordinates":[-121.93,44.38]},"properties":{"name":"Sand Mountain Field","classification":"potentially_active","elevation":1664,"country":"United States","region":"North America Volcanic Regions","last_eruption_year":-950,"evidence_category":"Eruption Dated","source":"Smithsonian GVP"}},{"type":"Feature","geometry":{"type":"Point","coordinates":[-121.8423,44.285]},"properties":{"name":"Belknap","classification":"potentially_active","elevation":2094,"country":"United States","region":"North America Volcanic Regions","last_eruption_year":475,"evidence_category":"Eruption Dated","source":"Smithsonian GVP"}},{"type":"Feature","geometry":{"type":"Point","coordinates":[-121.767,44.133]},"properties":{"name":"Three Sisters","classification":"potentially_active","elevation":3159,"country":"United States","region":"North America Volcanic Regions","last_eruption_year":439,"evidence_category":"Eruption Dated","source":"Smithsonian GVP"}},{"type":"Feature","geometry":{"type":"Point","coordinates":[-121.688,43.979]},"properties":{"name":"Bachelor","classification":"potentially_active","elevation":2763,"country":"United States","region":"North America Volcanic Regions","last_eruption_year":-5800,"evidence_category":"Eruption Dated","source":"Smithsonian GVP"}},{"type":"Feature","geometry":{"type":"Point","coordinates":[-121.82,43.57]},"properties":{"name":"Davis Lake","classification":"potentially_active","elevation":2163,"country":"United States","region":"North America Volcanic Regions","last_eruption_year":-2790,"evidence_category":"Eruption Dated","source":"Smithsonian GVP"}},{"type":"Feature","geometry":{"type":"Point","coordinates":[-121.229,43.722]},"properties":{"name":"Newberry","classification":"potentially_active","elevation":2434,"country":"United States","region":"North America Volcanic Regions","last_eruption_year":690,"evidence_category":"Eruption Dated","source":"Smithsonian GVP"}},{"type":"Feature","geometry":{"type":"Point","coordinates":[-120.861,43.512]},"properties":{"name":"Devils Garden","classification":"dormant","elevation":1698,"country":"United States","region":"North America Volcanic Regions","last_eruption_year":null,"evidence_category":"Evidence Uncertain","source":"Smithsonian GVP"}},{"type":"Feature","geometry":{"type":"Point","coordinates":[-122.1111,43.2411]},"properties":{"name":"Cinnamon Butte","classification":"dormant","elevation":1958,"country":"United States","region":"North America Volcanic Regions","last_eruption_year":null,"evidence_category":"Evidence Uncertain","source":"Smithsonian GVP"}},{"type":"Feature","geometry":{"type":"Point","coordinates":[-122.107,42.942]},"properties":{"name":"Crater Lake","classification":"potentially_active","elevation":2487,"country":"United States","region":"North America Volcanic Regions","last_eruption_year":-2850,"evidence_category":"Eruption Dated","source":"Smithsonian GVP"}},{"type":"Feature","geometry":{"type":"Point","coordinates":[-118.75,43.1]},"properties":{"name":"Diamond Craters","classification":"potentially_active","elevation":1435,"country":"United States","region":"North America Volcanic Regions","last_eruption_year":-5610,"evidence_category":"Eruption Dated","source":"Smithsonian GVP"}},{"type":"Feature","geometry":{"type":"Point","coordinates":[-117.46,43.147]},"properties":{"name":"Jordan Craters","classification":"potentially_active","elevation":1473,"country":"United States","region":"North America Volcanic Regions","last_eruption_year":-1250,"evidence_category":"Eruption Dated","source":"Smithsonian GVP"}},{"type":"Feature","geometry":{"type":"Point","coordinates":[-122.193,41.409]},"properties":{"name":"Shasta","classification":"active","elevation":4317,"country":"United States","region":"North America Volcanic Regions","last_eruption_year":1250,"evidence_category":"Eruption Observed","source":"Smithsonian GVP"}},{"type":"Feature","geometry":{"type":"Point","coordinates":[-121.554,41.611]},"properties":{"name":"Medicine Lake","classification":"potentially_active","elevation":2412,"country":"United States","region":"North America Volcanic Regions","last_eruption_year":1060,"evidence_category":"Eruption Dated","source":"Smithsonian GVP"}},{"type":"Feature","geometry":{"type":"Point","coordinates":[-121.508,40.492]},"properties":{"name":"Lassen Volcanic Center","classification":"active","elevation":3187,"country":"United States","region":"North America Volcanic Regions","last_eruption_year":1917,"evidence_category":"Eruption Observed","source":"Smithsonian GVP"}},{"type":"Feature","geometry":{"type":"Point","coordinates":[-122.77,38.97]},"properties":{"name":"Clear Lake Volcanic Field","classification":"potentially_active","elevation":1439,"country":"United States","region":"North America Volcanic Regions","last_eruption_year":null,"evidence_category":"Evidence Credible","source":"Smithsonian GVP"}},{"type":"Feature","geometry":{"type":"Point","coordinates":[-119.03,38]},"properties":{"name":"Mono Lake Volcanic Field","classification":"potentially_active","elevation":2121,"country":"United States","region":"North America Volcanic Regions","last_eruption_year":1790,"evidence_category":"Eruption Dated","source":"Smithsonian GVP"}},{"type":"Feature","geometry":{"type":"Point","coordinates":[-119.029,37.804]},"properties":{"name":"Mono-Inyo Craters","classification":"potentially_active","elevation":2796,"country":"United States","region":"North America Volcanic Regions","last_eruption_year":1380,"evidence_category":"Eruption Dated","source":"Smithsonian GVP"}},{"type":"Feature","geometry":{"type":"Point","coordinates":[-119.032,37.631]},"properties":{"name":"Mammoth Mountain","classification":"potentially_active","elevation":3369,"country":"United States","region":"North America Volcanic Regions","last_eruption_year":1260,"evidence_category":"Eruption Dated","source":"Smithsonian GVP"}},{"type":"Feature","geometry":{"type":"Point","coordinates":[-117.45,37.02]},"properties":{"name":"Ubehebe Craters","classification":"potentially_active","elevation":752,"country":"United States","region":"North America Volcanic Regions","last_eruption_year":-150,"evidence_category":"Eruption Dated","source":"Smithsonian GVP"}},{"type":"Feature","geometry":{"type":"Point","coordinates":[-114.3542,43.185]},"properties":{"name":"Black Butte Crater Lava Field","classification":"potentially_active","elevation":1478,"country":"United States","region":"North America Volcanic Regions","last_eruption_year":-8180,"evidence_category":"Eruption Dated","source":"Smithsonian GVP"}},{"type":"Feature","geometry":{"type":"Point","coordinates":[-113.493,43.371]},"properties":{"name":"Craters of the Moon","classification":"potentially_active","elevation":2005,"country":"United States","region":"North America Volcanic Regions","last_eruption_year":-130,"evidence_category":"Eruption Dated","source":"Smithsonian GVP"}},{"type":"Feature","geometry":{"type":"Point","coordinates":[-113.2166,42.8859]},"properties":{"name":"Wapi Lava Field","classification":"potentially_active","elevation":1597,"country":"United States","region":"North America Volcanic Regions","last_eruption_year":-300,"evidence_category":"Eruption Dated","source":"Smithsonian GVP"}},{"type":"Feature","geometry":{"type":"Point","coordinates":[-112.4503,43.492]},"properties":{"name":"Hell's Half Acre","classification":"potentially_active","elevation":1632,"country":"United States","region":"North America Volcanic Regions","last_eruption_year":-3250,"evidence_category":"Eruption Dated","source":"Smithsonian GVP"}},{"type":"Feature","geometry":{"type":"Point","coordinates":[-118.8778,39.525]},"properties":{"name":"Soda Lakes","classification":"potentially_active","elevation":1251,"country":"United States","region":"North America Volcanic Regions","last_eruption_year":null,"evidence_category":"Evidence Credible","source":"Smithsonian GVP"}},{"type":"Feature","geometry":{"type":"Point","coordinates":[-112.67,37.58]},"properties":{"name":"Markagunt Plateau","classification":"potentially_active","elevation":2840,"country":"United States","region":"North America Volcanic Regions","last_eruption_year":1050,"evidence_category":"Evidence Credible","source":"Smithsonian GVP"}},{"type":"Feature","geometry":{"type":"Point","coordinates":[-112.5,38.97]},"properties":{"name":"Black Rock Desert","classification":"potentially_active","elevation":1800,"country":"United States","region":"North America Volcanic Regions","last_eruption_year":1290,"evidence_category":"Eruption Dated","source":"Smithsonian GVP"}},{"type":"Feature","geometry":{"type":"Point","coordinates":[-107.0355,39.6613]},"properties":{"name":"Dotsero","classification":"potentially_active","elevation":2230,"country":"United States","region":"North America Volcanic Regions","last_eruption_year":-2200,"evidence_category":"Eruption Dated","source":"Smithsonian GVP"}},{"type":"Feature","geometry":{"type":"Point","coordinates":[-113.13,36.38]},"properties":{"name":"Uinkaret Field","classification":"potentially_active","elevation":1555,"country":"United States","region":"North America Volcanic Regions","last_eruption_year":1100,"evidence_category":"Eruption Dated","source":"Smithsonian GVP"}},{"type":"Feature","geometry":{"type":"Point","coordinates":[-111.678,35.347]},"properties":{"name":"San Francisco Volcanic Field","classification":"potentially_active","elevation":3850,"country":"United States","region":"North America Volcanic Regions","last_eruption_year":1075,"evidence_category":"Eruption Dated","source":"Smithsonian GVP"}},{"type":"Feature","geometry":{"type":"Point","coordinates":[-105.93,33.78]},"properties":{"name":"Carrizozo","classification":"potentially_active","elevation":1731,"country":"United States","region":"North America Volcanic Regions","last_eruption_year":-3250,"evidence_category":"Eruption Dated","source":"Smithsonian GVP"}},{"type":"Feature","geometry":{"type":"Point","coordinates":[-108,34.8]},"properties":{"name":"Zuni-Bandera","classification":"potentially_active","elevation":2550,"country":"United States","region":"North America Volcanic Regions","last_eruption_year":-1170,"evidence_category":"Eruption Dated","source":"Smithsonian GVP"}},{"type":"Feature","geometry":{"type":"Point","coordinates":[-108.83,34.25]},"properties":{"name":"Red Hill-Quemado","classification":"potentially_active","elevation":2300,"country":"United States","region":"North America Volcanic Regions","last_eruption_year":-9450,"evidence_category":"Eruption Dated","source":"Smithsonian GVP"}},{"type":"Feature","geometry":{"type":"Point","coordinates":[-113.5,31.85]},"properties":{"name":"Pinacate","classification":"potentially_active","elevation":1183,"country":"Mexico","region":"North America Volcanic Regions","last_eruption_year":null,"evidence_category":"Evidence Credible","source":"Smithsonian GVP"}},{"type":"Feature","geometry":{"type":"Point","coordinates":[-104.45,24.15]},"properties":{"name":"Durango Volcanic Field","classification":"potentially_active","elevation":2075,"country":"Mexico","region":"North America Volcanic Regions","last_eruption_year":null,"evidence_category":"Evidence Credible","source":"Smithsonian GVP"}},{"type":"Feature","geometry":{"type":"Point","coordinates":[-160.017,55.917]},"properties":{"name":"Stepovak Bay Group","classification":"potentially_active","elevation":1633,"country":"United States","region":"North America Volcanic Regions","last_eruption_year":null,"evidence_category":"Evidence Credible","source":"Smithsonian GVP"}}],"metadata":{"source":"Smithsonian Global Volcanism Program","layer_id":"north-america","feature_count":149}}