{"type":"FeatureCollection","features":[{"type":"Feature","geometry":{"type":"Point","coordinates":[121.103668,17.310982]},"properties":{"name":"Ambalatungan Group","classification":"active","elevation":2329,"province":"Kalinga","region":"CAR","source":"PHIVOLCS"}},{"type":"Feature","geometry":{"type":"Point","coordinates":[121.94,19.523]},"properties":{"name":"Babuyan Claro","classification":"active","elevation":1007,"province":"Kalinga","region":"Region I","source":"PHIVOLCS"}},{"type":"Feature","geometry":{"type":"Point","coordinates":[121.48,14.07]},"properties":{"name":"Mount Banahaw","classification":"active","elevation":2170,"province":"Laguna, Quezon","region":"Region IV-A","source":"PHIVOLCS"}},{"type":"Feature","geometry":{"type":"Point","coordinates":[124.513,11.558]},"properties":{"name":"Mount Biliran","classification":"active","elevation":1340,"province":"Biliran","region":"Region VIII","source":"PHIVOLCS"}},{"type":"Feature","geometry":{"type":"Point","coordinates":[124.05,12.77]},"properties":{"name":"Mount Bulusan","classification":"active","elevation":1565,"province":"Sorsogon","region":"Region V","source":"PHIVOLCS"}},{"type":"Feature","geometry":{"type":"Point","coordinates":[125.215556,10.279722]},"properties":{"name":"Cabalian","classification":"active","elevation":945,"province":"Southern Leyte","region":"Region VIII","source":"PHIVOLCS"}},{"type":"Feature","geometry":{"type":"Point","coordinates":[122.123,18.222]},"properties":{"name":"Cagua","classification":"active","elevation":1133,"province":"Cagayan","region":"Region II","source":"PHIVOLCS"}},{"type":"Feature","geometry":{"type":"Point","coordinates":[121.86,18.83]},"properties":{"name":"Camiguin de Babuyanes","classification":"active","elevation":712,"province":"Cagayan","region":"Region II","source":"PHIVOLCS"}},{"type":"Feature","geometry":{"type":"Point","coordinates":[122.202,19.077]},"properties":{"name":"Didicas","classification":"active","elevation":228,"province":"Cagayan","region":"Region II","source":"PHIVOLCS"}},{"type":"Feature","geometry":{"type":"Point","coordinates":[124.673,9.203]},"properties":{"name":"Mount Hibok-Hibok","classification":"active","elevation":1332,"province":"Camiguin","region":"Region X","source":"PHIVOLCS"}},{"type":"Feature","geometry":{"type":"Point","coordinates":[122.01,20.469]},"properties":{"name":"Mount Iraya","classification":"active","elevation":1009,"province":"Batanes","region":"Region II","source":"PHIVOLCS"}},{"type":"Feature","geometry":{"type":"Point","coordinates":[123.457,13.457]},"properties":{"name":"Mount Iriga","classification":"active","elevation":1196,"province":"Camarines Sur","region":"Region V","source":"PHIVOLCS"}},{"type":"Feature","geometry":{"type":"Point","coordinates":[123.38,13.658]},"properties":{"name":"Mount Isarog","classification":"active","elevation":2011,"province":"Camarines Sur","region":"Region V","source":"PHIVOLCS"}},{"type":"Feature","geometry":{"type":"Point","coordinates":[121.057,6.013]},"properties":{"name":"Jolo Group","classification":"active","elevation":620,"province":"Sulu","region":"BARMM","source":"PHIVOLCS"}},{"type":"Feature","geometry":{"type":"Point","coordinates":[123.132,10.412]},"properties":{"name":"Mount Kanlaon","classification":"active","elevation":2465,"province":"Negros Occidental, Negros Oriental","region":"Region VI, Region VII","source":"PHIVOLCS"}},{"type":"Feature","geometry":{"type":"Point","coordinates":[126.047,7.382]},"properties":{"name":"Mount Leonard Kniaseff","classification":"active","elevation":1190,"province":"Davao de Oro","region":"Region XI","source":"PHIVOLCS"}},{"type":"Feature","geometry":{"type":"Point","coordinates":[124.32,7.647]},"properties":{"name":"Mount Makaturing","classification":"active","elevation":1908,"province":"Lanao del Sur","region":"BARMM","source":"PHIVOLCS"}},{"type":"Feature","geometry":{"type":"Point","coordinates":[125.07,6.37]},"properties":{"name":"Mount Matutum","classification":"active","elevation":2286,"province":"South Cotabato","region":"Region XII","source":"PHIVOLCS"}},{"type":"Feature","geometry":{"type":"Point","coordinates":[123.685,13.257]},"properties":{"name":"Mount Mayon","classification":"active","elevation":2463,"province":"Albay","region":"Region V","source":"PHIVOLCS"}},{"type":"Feature","geometry":{"type":"Point","coordinates":[124.892,6.113]},"properties":{"name":"Mount M\u00e9l\u00e9bing\u00f3y","classification":"active","elevation":1824,"province":"South Cotabato","region":"Region XII","source":"PHIVOLCS"}},{"type":"Feature","geometry":{"type":"Point","coordinates":[125.068,7.877]},"properties":{"name":"Mount Musuan","classification":"active","elevation":646,"province":"Bukidnon","region":"Region X","source":"PHIVOLCS"}},{"type":"Feature","geometry":{"type":"Point","coordinates":[120.35,15.13]},"properties":{"name":"Mount Pinatubo","classification":"active","elevation":1486,"province":"Pampanga, Tarlac, Zambales","region":"Region III","source":"PHIVOLCS"}},{"type":"Feature","geometry":{"type":"Point","coordinates":[124.5,7.7]},"properties":{"name":"Mount Ragang","classification":"active","elevation":2815,"province":"Lanao del Sur, Cotabato","region":"BARMM, Region XII","source":"PHIVOLCS"}},{"type":"Feature","geometry":{"type":"Point","coordinates":[121.3,14.12]},"properties":{"name":"Laguna Volcanic Field","classification":"active","elevation":1090,"province":"Laguna, Batangas","region":"Region IV-A","source":"PHIVOLCS"}},{"type":"Feature","geometry":{"type":"Point","coordinates":[121.917,19.534]},"properties":{"name":"Smith","classification":"active","elevation":688,"province":"Cagayan","region":"Region II","source":"PHIVOLCS"}},{"type":"Feature","geometry":{"type":"Point","coordinates":[120.993,14.002]},"properties":{"name":"Taal","classification":"active","elevation":311,"province":"Batangas","region":"Region IV-A","source":"PHIVOLCS"}},{"type":"Feature","geometry":{"type":"Point","coordinates":[121.75,20.33]},"properties":{"name":"Unnamed volcano (Ibugos)","classification":"active","elevation":-24,"province":"Batanes","region":"Region II","source":"PHIVOLCS"}},{"type":"Feature","geometry":{"type":"Point","coordinates":[120.805,15.828]},"properties":{"name":"Mount Amorong","classification":"potentially_active","elevation":376,"province":"Pangasinan","region":"Region I","source":"PHIVOLCS"}},{"type":"Feature","geometry":{"type":"Point","coordinates":[125.27,7.008]},"properties":{"name":"Mount Apo","classification":"potentially_active","elevation":2954,"province":"Cotabato, Davao del Sur","region":"Region XI, Region XII","source":"PHIVOLCS"}},{"type":"Feature","geometry":{"type":"Point","coordinates":[120.742,15.2]},"properties":{"name":"Mount Arayat","classification":"potentially_active","elevation":1026,"province":"Pampanga","region":"Region III","source":"PHIVOLCS"}},{"type":"Feature","geometry":{"type":"Point","coordinates":[124.98,8.77]},"properties":{"name":"Mount Balatukan","classification":"potentially_active","elevation":2560,"province":"Misamis Oriental","region":"Region X","source":"PHIVOLCS"}},{"type":"Feature","geometry":{"type":"Point","coordinates":[125.375,5.4]},"properties":{"name":"Balut Island","classification":"potentially_active","elevation":862,"province":"Davao Occidental","region":"Region XI","source":"PHIVOLCS"}},{"type":"Feature","geometry":{"type":"Point","coordinates":[124.532,10.412]},"properties":{"name":"Cancajanag","classification":"potentially_active","elevation":900,"province":"Leyte","region":"Region VIII","source":"PHIVOLCS"}},{"type":"Feature","geometry":{"type":"Point","coordinates":[123.175,9.258]},"properties":{"name":"Mount Talinis","classification":"potentially_active","elevation":1903,"province":"Negros Oriental","region":"Region VIII","source":"PHIVOLCS"}},{"type":"Feature","geometry":{"type":"Point","coordinates":[120.56,5.44]},"properties":{"name":"Dakut","classification":"potentially_active","elevation":474,"province":"Sulu","region":"BARMM","source":"PHIVOLCS"}},{"type":"Feature","geometry":{"type":"Point","coordinates":[124.8,7.95]},"properties":{"name":"Mount Kalatungan","classification":"potentially_active","elevation":2860,"province":"Bukidnon","region":"Region X","source":"PHIVOLCS"}},{"type":"Feature","geometry":{"type":"Point","coordinates":[122.792,14.02]},"properties":{"name":"Mount Labo","classification":"potentially_active","elevation":1544,"province":"Camarines Norte","region":"Region V","source":"PHIVOLCS"}},{"type":"Feature","geometry":{"type":"Point","coordinates":[121.27,14.42]},"properties":{"name":"Laguna Caldera","classification":"potentially_active","elevation":743,"province":"Rizal","region":"Region IV-A","source":"PHIVOLCS"}},{"type":"Feature","geometry":{"type":"Point","coordinates":[124.47,7.65]},"properties":{"name":"Latukan","classification":"potentially_active","elevation":2280,"province":"Lanao del Sur","region":"BARMM","source":"PHIVOLCS"}},{"type":"Feature","geometry":{"type":"Point","coordinates":[123.597,13.422]},"properties":{"name":"Mount Malinao","classification":"potentially_active","elevation":1548,"province":"Albay, Camarines Sur","region":"Region V","source":"PHIVOLCS"}},{"type":"Feature","geometry":{"type":"Point","coordinates":[122.018,13.24]},"properties":{"name":"Mount Malindig","classification":"potentially_active","elevation":1157,"province":"Marinduque","region":"Mimaropa","source":"PHIVOLCS"}},{"type":"Feature","geometry":{"type":"Point","coordinates":[123.25,10.65]},"properties":{"name":"Mount Mandalagan","classification":"potentially_active","elevation":1885,"province":"Negros Occidental","region":"Region VI","source":"PHIVOLCS"}},{"type":"Feature","geometry":{"type":"Point","coordinates":[120.47,14.52]},"properties":{"name":"Mount Mariveles","classification":"potentially_active","elevation":1398,"province":"Bataan","region":"Region III","source":"PHIVOLCS"}},{"type":"Feature","geometry":{"type":"Point","coordinates":[120.4,14.705]},"properties":{"name":"Mount Natib","classification":"potentially_active","elevation":1253,"province":"Bataan","region":"Region III","source":"PHIVOLCS"}},{"type":"Feature","geometry":{"type":"Point","coordinates":[120.893,13.723]},"properties":{"name":"Mount Panay","classification":"potentially_active","elevation":501,"province":"Batangas","region":"Region IV-A","source":"PHIVOLCS"}},{"type":"Feature","geometry":{"type":"Point","coordinates":[121.433333333333,14.0666666666667]},"properties":{"name":"Mount San Cristobal","classification":"potentially_active","elevation":1470,"province":"Laguna, Quezon","region":"Region IV-A","source":"PHIVOLCS"}},{"type":"Feature","geometry":{"type":"Point","coordinates":[120.55,16.33]},"properties":{"name":"Mount Santo Tomas","classification":"potentially_active","elevation":2260,"province":"Benguet","region":"CAR","source":"PHIVOLCS"}},{"type":"Feature","geometry":{"type":"Point","coordinates":[123.23,10.77]},"properties":{"name":"Mount Silay","classification":"potentially_active","elevation":1535,"province":"Negros Occidental","region":"Region VI","source":"PHIVOLCS"}},{"type":"Feature","geometry":{"type":"Point","coordinates":[121.166666666667,14.1666666666667]},"properties":{"name":"Alligator Lake","classification":"dormant","elevation":null,"province":null,"region":null,"source":"PHIVOLCS"}},{"type":"Feature","geometry":{"type":"Point","coordinates":[121.183333333333,13.9]},"properties":{"name":"Anilao Hill","classification":"dormant","elevation":null,"province":null,"region":null,"source":"PHIVOLCS"}},{"type":"Feature","geometry":{"type":"Point","coordinates":[121.366666666667,14.15]},"properties":{"name":"Atimbia","classification":"dormant","elevation":null,"province":null,"region":null,"source":"PHIVOLCS"}},{"type":"Feature","geometry":{"type":"Point","coordinates":[122.825,14.2166666666667]},"properties":{"name":"Bagacay","classification":"dormant","elevation":null,"province":null,"region":null,"source":"PHIVOLCS"}},{"type":"Feature","geometry":{"type":"Point","coordinates":[120.366666666667,14.95]},"properties":{"name":"Balikabok","classification":"dormant","elevation":null,"province":null,"region":null,"source":"PHIVOLCS"}},{"type":"Feature","geometry":{"type":"Point","coordinates":[124.853,10.872]},"properties":{"name":"Mahagnao","classification":"dormant","elevation":null,"province":null,"region":null,"source":"PHIVOLCS"}},{"type":"Feature","geometry":{"type":"Point","coordinates":[120.683333333333,15.8666666666667]},"properties":{"name":"Mount Balungao","classification":"dormant","elevation":null,"province":null,"region":null,"source":"PHIVOLCS"}},{"type":"Feature","geometry":{"type":"Point","coordinates":[121.5,14.0666666666667]},"properties":{"name":"Mount Banahao de Lucban","classification":"dormant","elevation":null,"province":null,"region":null,"source":"PHIVOLCS"}},{"type":"Feature","geometry":{"type":"Point","coordinates":[120.733333333333,15.7833333333333]},"properties":{"name":"Mount Bangcay","classification":"dormant","elevation":null,"province":null,"region":null,"source":"PHIVOLCS"}},{"type":"Feature","geometry":{"type":"Point","coordinates":[123.95,12.8333333333333]},"properties":{"name":"Mount Batuan","classification":"dormant","elevation":null,"province":null,"region":null,"source":"PHIVOLCS"}},{"type":"Feature","geometry":{"type":"Point","coordinates":[120.8,14.05]},"properties":{"name":"Mount Batulao","classification":"dormant","elevation":null,"province":null,"region":null,"source":"PHIVOLCS"}},{"type":"Feature","geometry":{"type":"Point","coordinates":[121.4,14.1666666666667]},"properties":{"name":"Mount Bayaguitos","classification":"dormant","elevation":null,"province":null,"region":null,"source":"PHIVOLCS"}},{"type":"Feature","geometry":{"type":"Point","coordinates":[121.05,13.9]},"properties":{"name":"Bigain Hill","classification":"dormant","elevation":null,"province":null,"region":null,"source":"PHIVOLCS"}},{"type":"Feature","geometry":{"type":"Point","coordinates":[124,12.6166666666667]},"properties":{"name":"Mount Binitacan","classification":"dormant","elevation":null,"province":null,"region":null,"source":"PHIVOLCS"}},{"type":"Feature","geometry":{"type":"Point","coordinates":[121.233333333333,14.1]},"properties":{"name":"Mount Bulalo","classification":"dormant","elevation":null,"province":null,"region":null,"source":"PHIVOLCS"}},{"type":"Feature","geometry":{"type":"Point","coordinates":[120.875,15.8333333333333]},"properties":{"name":"Mount Burgos","classification":"dormant","elevation":null,"province":null,"region":null,"source":"PHIVOLCS"}},{"type":"Feature","geometry":{"type":"Point","coordinates":[120.333333333333,15.7]},"properties":{"name":"Mount Cabaluyan","classification":"dormant","elevation":null,"province":null,"region":null,"source":"PHIVOLCS"}},{"type":"Feature","geometry":{"type":"Point","coordinates":[120.316666666667,15.7]},"properties":{"name":"Mount Cahelietan","classification":"dormant","elevation":null,"province":null,"region":null,"source":"PHIVOLCS"}},{"type":"Feature","geometry":{"type":"Point","coordinates":[120.75,14.1333333333333]},"properties":{"name":"Mount Cariliao","classification":"dormant","elevation":null,"province":null,"region":null,"source":"PHIVOLCS"}},{"type":"Feature","geometry":{"type":"Point","coordinates":[123.966666666667,12.5833333333333]},"properties":{"name":"Mount Coloumotan","classification":"dormant","elevation":null,"province":null,"region":null,"source":"PHIVOLCS"}},{"type":"Feature","geometry":{"type":"Point","coordinates":[120.333333333333,15.7083333333333]},"properties":{"name":"Mount Condong","classification":"dormant","elevation":null,"province":null,"region":null,"source":"PHIVOLCS"}},{"type":"Feature","geometry":{"type":"Point","coordinates":[123.933333333333,12.7]},"properties":{"name":"Mount Culangalan","classification":"dormant","elevation":null,"province":null,"region":null,"source":"PHIVOLCS"}},{"type":"Feature","geometry":{"type":"Point","coordinates":[123.0875,13.8958333333333]},"properties":{"name":"Mount Culasi","classification":"dormant","elevation":null,"province":null,"region":null,"source":"PHIVOLCS"}},{"type":"Feature","geometry":{"type":"Point","coordinates":[123.016666666667,13.9166666666667]},"properties":{"name":"Culasi Peak","classification":"dormant","elevation":null,"province":null,"region":null,"source":"PHIVOLCS"}},{"type":"Feature","geometry":{"type":"Point","coordinates":[120.666666666667,15.8]},"properties":{"name":"Mount Cuyapo","classification":"dormant","elevation":null,"province":null,"region":null,"source":"PHIVOLCS"}},{"type":"Feature","geometry":{"type":"Point","coordinates":[120.811666666667,16.5211666666667]},"properties":{"name":"Mount Daclan","classification":"dormant","elevation":null,"province":null,"region":null,"source":"PHIVOLCS"}},{"type":"Feature","geometry":{"type":"Point","coordinates":[121.366666666667,14]},"properties":{"name":"Mount Dagatan","classification":"dormant","elevation":null,"province":null,"region":null,"source":"PHIVOLCS"}},{"type":"Feature","geometry":{"type":"Point","coordinates":[124.033333333333,12.6]},"properties":{"name":"Gate Mountains","classification":"dormant","elevation":null,"province":null,"region":null,"source":"PHIVOLCS"}},{"type":"Feature","geometry":{"type":"Point","coordinates":[123.975,12.775]},"properties":{"name":"Homahan","classification":"dormant","elevation":null,"province":null,"region":null,"source":"PHIVOLCS"}},{"type":"Feature","geometry":{"type":"Point","coordinates":[124.116666666667,12.7666666666667]},"properties":{"name":"Irosin Caldera","classification":"dormant","elevation":null,"province":null,"region":null,"source":"PHIVOLCS"}},{"type":"Feature","geometry":{"type":"Point","coordinates":[124,12.7666666666667]},"properties":{"name":"Mount Jormajan","classification":"dormant","elevation":null,"province":null,"region":null,"source":"PHIVOLCS"}},{"type":"Feature","geometry":{"type":"Point","coordinates":[123.933333333333,12.8]},"properties":{"name":"Mount Juban","classification":"dormant","elevation":null,"province":null,"region":null,"source":"PHIVOLCS"}},{"type":"Feature","geometry":{"type":"Point","coordinates":[121.166666666667,14.15]},"properties":{"name":"La Mesa Hill","classification":"dormant","elevation":null,"province":null,"region":null,"source":"PHIVOLCS"}},{"type":"Feature","geometry":{"type":"Point","coordinates":[121.316666666667,14.1333333333333]},"properties":{"name":"Mount Lagula","classification":"dormant","elevation":null,"province":null,"region":null,"source":"PHIVOLCS"}},{"type":"Feature","geometry":{"type":"Point","coordinates":[121.241666666667,14.1]},"properties":{"name":"Mount Buboy","classification":"dormant","elevation":null,"province":null,"region":null,"source":"PHIVOLCS"}},{"type":"Feature","geometry":{"type":"Point","coordinates":[121.241666666667,14.0333333333333]},"properties":{"name":"Bunsulan Hills","classification":"dormant","elevation":null,"province":null,"region":null,"source":"PHIVOLCS"}},{"type":"Feature","geometry":{"type":"Point","coordinates":[121.3,14.1166666666667]},"properties":{"name":"Imoc Hill","classification":"dormant","elevation":null,"province":null,"region":null,"source":"PHIVOLCS"}},{"type":"Feature","geometry":{"type":"Point","coordinates":[121.25,14.1166666666667]},"properties":{"name":"Mount Luyong","classification":"dormant","elevation":null,"province":null,"region":null,"source":"PHIVOLCS"}},{"type":"Feature","geometry":{"type":"Point","coordinates":[121.25,14.1083333333333]},"properties":{"name":"Mount Mabilog","classification":"dormant","elevation":null,"province":null,"region":null,"source":"PHIVOLCS"}},{"type":"Feature","geometry":{"type":"Point","coordinates":[121.258333333333,14.0333333333333]},"properties":{"name":"Mani Hill","classification":"dormant","elevation":null,"province":null,"region":null,"source":"PHIVOLCS"}},{"type":"Feature","geometry":{"type":"Point","coordinates":[121.241666666667,14.05]},"properties":{"name":"Mapait Hills","classification":"dormant","elevation":null,"province":null,"region":null,"source":"PHIVOLCS"}},{"type":"Feature","geometry":{"type":"Point","coordinates":[121.283333333333,14.0833333333333]},"properties":{"name":"Mount Mapula","classification":"dormant","elevation":null,"province":null,"region":null,"source":"PHIVOLCS"}},{"type":"Feature","geometry":{"type":"Point","coordinates":[121.216666666667,14.0833333333333]},"properties":{"name":"Mount Olilia","classification":"dormant","elevation":null,"province":null,"region":null,"source":"PHIVOLCS"}},{"type":"Feature","geometry":{"type":"Point","coordinates":[121.241666666667,14.0833333333333]},"properties":{"name":"Mount Tamlong","classification":"dormant","elevation":null,"province":null,"region":null,"source":"PHIVOLCS"}},{"type":"Feature","geometry":{"type":"Point","coordinates":[121.341,14.125]},"properties":{"name":"Lake Muhikap","classification":"dormant","elevation":null,"province":null,"region":null,"source":"PHIVOLCS"}},{"type":"Feature","geometry":{"type":"Point","coordinates":[121.366666666667,14.1166666666667]},"properties":{"name":"Lake Yambo","classification":"dormant","elevation":null,"province":null,"region":null,"source":"PHIVOLCS"}},{"type":"Feature","geometry":{"type":"Point","coordinates":[121.369,14.112]},"properties":{"name":"Lake Pandin","classification":"dormant","elevation":null,"province":null,"region":null,"source":"PHIVOLCS"}},{"type":"Feature","geometry":{"type":"Point","coordinates":[121.375,14.0833333333333]},"properties":{"name":"Lake Calibato","classification":"dormant","elevation":null,"province":null,"region":null,"source":"PHIVOLCS"}},{"type":"Feature","geometry":{"type":"Point","coordinates":[121.341666666667,14.1083333333333]},"properties":{"name":"Lake Palakpakin","classification":"dormant","elevation":null,"province":null,"region":null,"source":"PHIVOLCS"}},{"type":"Feature","geometry":{"type":"Point","coordinates":[121.341666666667,14.0833333333333]},"properties":{"name":"Lake Bunot","classification":"dormant","elevation":null,"province":null,"region":null,"source":"PHIVOLCS"}},{"type":"Feature","geometry":{"type":"Point","coordinates":[121.333333333333,14.0833333333333]},"properties":{"name":"Sampaloc Lake","classification":"dormant","elevation":null,"province":null,"region":null,"source":"PHIVOLCS"}},{"type":"Feature","geometry":{"type":"Point","coordinates":[121.3,14.1083333333333]},"properties":{"name":"Imoc Maar","classification":"dormant","elevation":null,"province":null,"region":null,"source":"PHIVOLCS"}},{"type":"Feature","geometry":{"type":"Point","coordinates":[121.3,14.1]},"properties":{"name":"Unnamed Laguna Maar","classification":"dormant","elevation":null,"province":null,"region":null,"source":"PHIVOLCS"}},{"type":"Feature","geometry":{"type":"Point","coordinates":[124.7,11.0333333333333]},"properties":{"name":"Mount Abunug","classification":"dormant","elevation":null,"province":null,"region":null,"source":"PHIVOLCS"}},{"type":"Feature","geometry":{"type":"Point","coordinates":[124.966666666667,10.7916666666667]},"properties":{"name":"Mount Abuyug","classification":"dormant","elevation":null,"province":null,"region":null,"source":"PHIVOLCS"}},{"type":"Feature","geometry":{"type":"Point","coordinates":[124.75,11.1083333333333]},"properties":{"name":"Mount Alto","classification":"dormant","elevation":null,"province":null,"region":null,"source":"PHIVOLCS"}},{"type":"Feature","geometry":{"type":"Point","coordinates":[124.85,10.8666666666667]},"properties":{"name":"Mount","classification":"dormant","elevation":null,"province":null,"region":null,"source":"PHIVOLCS"}},{"type":"Feature","geometry":{"type":"Point","coordinates":[124.583333333333,11.5333333333333]},"properties":{"name":"Mount Ascuero","classification":"dormant","elevation":null,"province":null,"region":null,"source":"PHIVOLCS"}},{"type":"Feature","geometry":{"type":"Point","coordinates":[122.066666666667,12.9166666666667]},"properties":{"name":"Banton Island","classification":"dormant","elevation":null,"province":null,"region":null,"source":"PHIVOLCS"}},{"type":"Feature","geometry":{"type":"Point","coordinates":[124.483333333333,11.4333333333333]},"properties":{"name":"Mount Baonao","classification":"dormant","elevation":null,"province":null,"region":null,"source":"PHIVOLCS"}},{"type":"Feature","geometry":{"type":"Point","coordinates":[123.166666666667,9.16666666666667]},"properties":{"name":"Mount Bontes","classification":"dormant","elevation":null,"province":null,"region":null,"source":"PHIVOLCS"}},{"type":"Feature","geometry":{"type":"Point","coordinates":[124.616666666667,11.6166666666667]},"properties":{"name":"Mount Camalobagoan","classification":"dormant","elevation":null,"province":null,"region":null,"source":"PHIVOLCS"}},{"type":"Feature","geometry":{"type":"Point","coordinates":[124.416666666667,11.9666666666667]},"properties":{"name":"Mount Canandag","classification":"dormant","elevation":null,"province":null,"region":null,"source":"PHIVOLCS"}},{"type":"Feature","geometry":{"type":"Point","coordinates":[125.216666666667,10.3]},"properties":{"name":"Mount Cantoloc","classification":"dormant","elevation":null,"province":null,"region":null,"source":"PHIVOLCS"}},{"type":"Feature","geometry":{"type":"Point","coordinates":[124.5,11.5833333333333]},"properties":{"name":"Mount Capinyayan","classification":"dormant","elevation":null,"province":null,"region":null,"source":"PHIVOLCS"}},{"type":"Feature","geometry":{"type":"Point","coordinates":[124.433333333333,11.6666666666667]},"properties":{"name":"Mount Caraycaray","classification":"dormant","elevation":null,"province":null,"region":null,"source":"PHIVOLCS"}},{"type":"Feature","geometry":{"type":"Point","coordinates":[121.883333333333,13.0333333333333]},"properties":{"name":"Carlota Island","classification":"dormant","elevation":null,"province":null,"region":null,"source":"PHIVOLCS"}},{"type":"Feature","geometry":{"type":"Point","coordinates":[124.316666666667,11.9333333333333]},"properties":{"name":"Mount Costa Rica","classification":"dormant","elevation":null,"province":null,"region":null,"source":"PHIVOLCS"}},{"type":"Feature","geometry":{"type":"Point","coordinates":[124.683333333333,11.0666666666667]},"properties":{"name":"Lake Danao","classification":"dormant","elevation":null,"province":null,"region":null,"source":"PHIVOLCS"}},{"type":"Feature","geometry":{"type":"Point","coordinates":[121.5125,13.1043333333333]},"properties":{"name":"Mount Dumali","classification":"dormant","elevation":null,"province":null,"region":null,"source":"PHIVOLCS"}},{"type":"Feature","geometry":{"type":"Point","coordinates":[124.516666666667,11.4333333333333]},"properties":{"name":"Mount Gayad","classification":"dormant","elevation":null,"province":null,"region":null,"source":"PHIVOLCS"}},{"type":"Feature","geometry":{"type":"Point","coordinates":[124.516666666667,11.5833333333333]},"properties":{"name":"Mount Giron","classification":"dormant","elevation":null,"province":null,"region":null,"source":"PHIVOLCS"}},{"type":"Feature","geometry":{"type":"Point","coordinates":[124.483333333333,11.6166666666667]},"properties":{"name":"Mount Guiauasan","classification":"dormant","elevation":null,"province":null,"region":null,"source":"PHIVOLCS"}},{"type":"Feature","geometry":{"type":"Point","coordinates":[124.483333333333,11.6]},"properties":{"name":"Mount Gunansan","classification":"dormant","elevation":null,"province":null,"region":null,"source":"PHIVOLCS"}},{"type":"Feature","geometry":{"type":"Point","coordinates":[121.927777777778,13.0225]},"properties":{"name":"Isabel Island","classification":"dormant","elevation":null,"province":null,"region":null,"source":"PHIVOLCS"}},{"type":"Feature","geometry":{"type":"Point","coordinates":[124.716666666667,11.1]},"properties":{"name":"Mount Janagdan","classification":"dormant","elevation":null,"province":null,"region":null,"source":"PHIVOLCS"}},{"type":"Feature","geometry":{"type":"Point","coordinates":[124.883333333333,10.8666666666667]},"properties":{"name":"Mount Kasibor","classification":"dormant","elevation":null,"province":null,"region":null,"source":"PHIVOLCS"}},{"type":"Feature","geometry":{"type":"Point","coordinates":[124.368138888889,11.9416666666667]},"properties":{"name":"Kirikite Island","classification":"dormant","elevation":null,"province":null,"region":null,"source":"PHIVOLCS"}},{"type":"Feature","geometry":{"type":"Point","coordinates":[121.266666666667,12.4666666666667]},"properties":{"name":"Knob Peak","classification":"dormant","elevation":null,"province":null,"region":null,"source":"PHIVOLCS"}},{"type":"Feature","geometry":{"type":"Point","coordinates":[124.8,11.1166666666667]},"properties":{"name":"Mount Laao","classification":"dormant","elevation":null,"province":null,"region":null,"source":"PHIVOLCS"}},{"type":"Feature","geometry":{"type":"Point","coordinates":[124.516666666667,11.0166666666667]},"properties":{"name":"Mount Labi","classification":"dormant","elevation":null,"province":null,"region":null,"source":"PHIVOLCS"}},{"type":"Feature","geometry":{"type":"Point","coordinates":[124.516666666667,11.5166666666667]},"properties":{"name":"Mount Lauaan","classification":"dormant","elevation":null,"province":null,"region":null,"source":"PHIVOLCS"}},{"type":"Feature","geometry":{"type":"Point","coordinates":[124.816666666667,11.0166666666667]},"properties":{"name":"Mount Lobi","classification":"dormant","elevation":null,"province":null,"region":null,"source":"PHIVOLCS"}},{"type":"Feature","geometry":{"type":"Point","coordinates":[124.691666666667,11.025]},"properties":{"name":"Mount Maagonoc","classification":"dormant","elevation":null,"province":null,"region":null,"source":"PHIVOLCS"}},{"type":"Feature","geometry":{"type":"Point","coordinates":[124.683333333333,11.2166666666667]},"properties":{"name":"Mount Macape","classification":"dormant","elevation":null,"province":null,"region":null,"source":"PHIVOLCS"}},{"type":"Feature","geometry":{"type":"Point","coordinates":[121.7,12.9166666666667]},"properties":{"name":"Maestre de Campo Island","classification":"dormant","elevation":null,"province":null,"region":null,"source":"PHIVOLCS"}},{"type":"Feature","geometry":{"type":"Point","coordinates":[120.9,13.4333333333333]},"properties":{"name":"Mount Malasimbo","classification":"dormant","elevation":null,"province":null,"region":null,"source":"PHIVOLCS"}},{"type":"Feature","geometry":{"type":"Point","coordinates":[124.45,11.65]},"properties":{"name":"Mount Maliwatan","classification":"dormant","elevation":null,"province":null,"region":null,"source":"PHIVOLCS"}},{"type":"Feature","geometry":{"type":"Point","coordinates":[121.416666666667,13.2066666666667]},"properties":{"name":"Mount Naujan","classification":"dormant","elevation":null,"province":null,"region":null,"source":"PHIVOLCS"}},{"type":"Feature","geometry":{"type":"Point","coordinates":[125.258333333333,9.93333333333333]},"properties":{"name":"Mount Nelangcapan","classification":"dormant","elevation":null,"province":null,"region":null,"source":"PHIVOLCS"}},{"type":"Feature","geometry":{"type":"Point","coordinates":[124.533333333333,11.4166666666667]},"properties":{"name":"Mount Osme\u00f1a","classification":"dormant","elevation":null,"province":null,"region":null,"source":"PHIVOLCS"}},{"type":"Feature","geometry":{"type":"Point","coordinates":[123.166666666667,11.2833333333333]},"properties":{"name":"Pan de Azucar","classification":"dormant","elevation":null,"province":null,"region":null,"source":"PHIVOLCS"}},{"type":"Feature","geometry":{"type":"Point","coordinates":[124.394152,11.668178]},"properties":{"name":"Mount Panamao, Biliran","classification":"dormant","elevation":null,"province":null,"region":null,"source":"PHIVOLCS"}},{"type":"Feature","geometry":{"type":"Point","coordinates":[124.733333333333,11.1166666666667]},"properties":{"name":"Mount Proto-Labi","classification":"dormant","elevation":null,"province":null,"region":null,"source":"PHIVOLCS"}},{"type":"Feature","geometry":{"type":"Point","coordinates":[122.05,12.8166666666667]},"properties":{"name":"Simara Island","classification":"dormant","elevation":null,"province":null,"region":null,"source":"PHIVOLCS"}},{"type":"Feature","geometry":{"type":"Point","coordinates":[124.4,11.6666666666667]},"properties":{"name":"Tabuanan","classification":"dormant","elevation":null,"province":null,"region":null,"source":"PHIVOLCS"}},{"type":"Feature","geometry":{"type":"Point","coordinates":[124.433333333333,11.55]},"properties":{"name":"Tamburok","classification":"dormant","elevation":null,"province":null,"region":null,"source":"PHIVOLCS"}},{"type":"Feature","geometry":{"type":"Point","coordinates":[124.5,11.5333333333333]},"properties":{"name":"Mount Vulcan, Biliran","classification":"dormant","elevation":null,"province":null,"region":null,"source":"PHIVOLCS"}},{"type":"Feature","geometry":{"type":"Point","coordinates":[120.883333333333,5.69166666666667]},"properties":{"name":"Mount Alu","classification":"dormant","elevation":null,"province":null,"region":null,"source":"PHIVOLCS"}},{"type":"Feature","geometry":{"type":"Point","coordinates":[123.63,8.38833333333333]},"properties":{"name":"Mount Ampiro","classification":"dormant","elevation":null,"province":null,"region":null,"source":"PHIVOLCS"}},{"type":"Feature","geometry":{"type":"Point","coordinates":[123.25,7.58333333333333]},"properties":{"name":"Mount Bacauan","classification":"dormant","elevation":null,"province":null,"region":null,"source":"PHIVOLCS"}},{"type":"Feature","geometry":{"type":"Point","coordinates":[121.139444444444,6.02777777777778]},"properties":{"name":"Mount Bagsak","classification":"dormant","elevation":null,"province":null,"region":null,"source":"PHIVOLCS"}},{"type":"Feature","geometry":{"type":"Point","coordinates":[122.066666666667,6.55]},"properties":{"name":"Basilan Peak","classification":"dormant","elevation":null,"province":null,"region":null,"source":"PHIVOLCS"}},{"type":"Feature","geometry":{"type":"Point","coordinates":[123.183333333333,7.48333333333333]},"properties":{"name":"Mount Batelian","classification":"dormant","elevation":null,"province":null,"region":null,"source":"PHIVOLCS"}},{"type":"Feature","geometry":{"type":"Point","coordinates":[123.283333333333,7.85416666666667]},"properties":{"name":"Mount Bigong","classification":"dormant","elevation":null,"province":null,"region":null,"source":"PHIVOLCS"}},{"type":"Feature","geometry":{"type":"Point","coordinates":[121.441666666667,6.06666666666667]},"properties":{"name":"Mount Bitinan","classification":"dormant","elevation":null,"province":null,"region":null,"source":"PHIVOLCS"}},{"type":"Feature","geometry":{"type":"Point","coordinates":[121.615,5.26333333333333]},"properties":{"name":"Mount Bolod","classification":"dormant","elevation":null,"province":null,"region":null,"source":"PHIVOLCS"}},{"type":"Feature","geometry":{"type":"Point","coordinates":[121.816666666667,6.15]},"properties":{"name":"Mount Bucutua","classification":"dormant","elevation":null,"province":null,"region":null,"source":"PHIVOLCS"}},{"type":"Feature","geometry":{"type":"Point","coordinates":[120.008333333333,6.03333333333333]},"properties":{"name":"Bud Datu","classification":"dormant","elevation":null,"province":null,"region":null,"source":"PHIVOLCS"}},{"type":"Feature","geometry":{"type":"Point","coordinates":[123.266666666667,7.6]},"properties":{"name":"Mount Buga","classification":"dormant","elevation":null,"province":null,"region":null,"source":"PHIVOLCS"}},{"type":"Feature","geometry":{"type":"Point","coordinates":[121.833333333333,6.13333333333333]},"properties":{"name":"Mount Bulan","classification":"dormant","elevation":null,"province":null,"region":null,"source":"PHIVOLCS"}},{"type":"Feature","geometry":{"type":"Point","coordinates":[123.175,7.70416666666667]},"properties":{"name":"Mount Bulibu","classification":"dormant","elevation":null,"province":null,"region":null,"source":"PHIVOLCS"}},{"type":"Feature","geometry":{"type":"Point","coordinates":[121.416666666667,6.03333333333333]},"properties":{"name":"Mount Capual","classification":"dormant","elevation":null,"province":null,"region":null,"source":"PHIVOLCS"}},{"type":"Feature","geometry":{"type":"Point","coordinates":[121.178333333333,5.98166666666667]},"properties":{"name":"Mount Dakula","classification":"dormant","elevation":null,"province":null,"region":null,"source":"PHIVOLCS"}},{"type":"Feature","geometry":{"type":"Point","coordinates":[123.325,7.63333333333333]},"properties":{"name":"Mount Dupungan","classification":"dormant","elevation":null,"province":null,"region":null,"source":"PHIVOLCS"}},{"type":"Feature","geometry":{"type":"Point","coordinates":[121.083333333333,6.025]},"properties":{"name":"Mount Guimba","classification":"dormant","elevation":null,"province":null,"region":null,"source":"PHIVOLCS"}},{"type":"Feature","geometry":{"type":"Point","coordinates":[121.274722222222,6.08194444444444,0]},"properties":{"name":"Mount Gujangan","classification":"dormant","elevation":null,"province":null,"region":null,"source":"PHIVOLCS"}},{"type":"Feature","geometry":{"type":"Point","coordinates":[123.233333333333,7.68333333333333,0]},"properties":{"name":"Mount Imbing","classification":"dormant","elevation":null,"province":null,"region":null,"source":"PHIVOLCS"}},{"type":"Feature","geometry":{"type":"Point","coordinates":[121.216666666667,5.81166666666667,0]},"properties":{"name":"Mount Kamawi","classification":"dormant","elevation":null,"province":null,"region":null,"source":"PHIVOLCS"}},{"type":"Feature","geometry":{"type":"Point","coordinates":[121.366666666667,5.925,0]},"properties":{"name":"Mount Kausakar","classification":"dormant","elevation":null,"province":null,"region":null,"source":"PHIVOLCS"}},{"type":"Feature","geometry":{"type":"Point","coordinates":[121.925,6.31666666666667,0]},"properties":{"name":"Mount Linawan","classification":"dormant","elevation":null,"province":null,"region":null,"source":"PHIVOLCS"}},{"type":"Feature","geometry":{"type":"Point","coordinates":[120.833333333333,5.68333333333333,0]},"properties":{"name":"Mount Lugus","classification":"dormant","elevation":null,"province":null,"region":null,"source":"PHIVOLCS"}},{"type":"Feature","geometry":{"type":"Point","coordinates":[121.116666666667,5.93333333333333,0]},"properties":{"name":"Mount Mahala","classification":"dormant","elevation":null,"province":null,"region":null,"source":"PHIVOLCS"}},{"type":"Feature","geometry":{"type":"Point","coordinates":[120.973333333333,5.94,0]},"properties":{"name":"Mount Makam","classification":"dormant","elevation":null,"province":null,"region":null,"source":"PHIVOLCS"}},{"type":"Feature","geometry":{"type":"Point","coordinates":[120.266666666667,5.03333333333333,0]},"properties":{"name":"Mantabuan","classification":"dormant","elevation":null,"province":null,"region":null,"source":"PHIVOLCS"}},{"type":"Feature","geometry":{"type":"Point","coordinates":[123.183333333333,7.55,0]},"properties":{"name":"Mount Margosa Tubig","classification":"dormant","elevation":null,"province":null,"region":null,"source":"PHIVOLCS"}},{"type":"Feature","geometry":{"type":"Point","coordinates":[122.3,6.53333333333333,0]},"properties":{"name":"Mount Matanal","classification":"dormant","elevation":null,"province":null,"region":null,"source":"PHIVOLCS"}},{"type":"Feature","geometry":{"type":"Point","coordinates":[121.066666666667,6.03333333333333,0]},"properties":{"name":"Mount Matanding","classification":"dormant","elevation":null,"province":null,"region":null,"source":"PHIVOLCS"}},{"type":"Feature","geometry":{"type":"Point","coordinates":[123.616666666667,8.30833333333333,0]},"properties":{"name":"Mount North","classification":"dormant","elevation":null,"province":null,"region":null,"source":"PHIVOLCS"}},{"type":"Feature","geometry":{"type":"Point","coordinates":[121.166666666667,5.96666666666667,0]},"properties":{"name":"Lake Panamao","classification":"dormant","elevation":null,"province":null,"region":null,"source":"PHIVOLCS"}},{"type":"Feature","geometry":{"type":"Point","coordinates":[121.833333333333,6.60833333333333,0]},"properties":{"name":"Pangasahan Hill","classification":"dormant","elevation":null,"province":null,"region":null,"source":"PHIVOLCS"}},{"type":"Feature","geometry":{"type":"Point","coordinates":[121.158333333333,5.81666666666667,0]},"properties":{"name":"Mount Pata","classification":"dormant","elevation":null,"province":null,"region":null,"source":"PHIVOLCS"}},{"type":"Feature","geometry":{"type":"Point","coordinates":[121.083333333333,5.85,0]},"properties":{"name":"Mount Patian","classification":"dormant","elevation":null,"province":null,"region":null,"source":"PHIVOLCS"}},{"type":"Feature","geometry":{"type":"Point","coordinates":[123.233333333333,7.98333333333333,0]},"properties":{"name":"Mount Pinukis","classification":"dormant","elevation":null,"province":null,"region":null,"source":"PHIVOLCS"}},{"type":"Feature","geometry":{"type":"Point","coordinates":[121.3,5.90833333333333,0]},"properties":{"name":"Mount Sandahan","classification":"dormant","elevation":null,"province":null,"region":null,"source":"PHIVOLCS"}},{"type":"Feature","geometry":{"type":"Point","coordinates":[120.85,5.53333333333333,0]},"properties":{"name":"Mount Siasi","classification":"dormant","elevation":null,"province":null,"region":null,"source":"PHIVOLCS"}},{"type":"Feature","geometry":{"type":"Point","coordinates":[120.791666666667,5.55833333333333,0]},"properties":{"name":"Mount Sigangan","classification":"dormant","elevation":null,"province":null,"region":null,"source":"PHIVOLCS"}},{"type":"Feature","geometry":{"type":"Point","coordinates":[122.208333333333,6.63333333333333,0]},"properties":{"name":"Mount Siningcapan","classification":"dormant","elevation":null,"province":null,"region":null,"source":"PHIVOLCS"}},{"type":"Feature","geometry":{"type":"Point","coordinates":[123.25,8,0]},"properties":{"name":"Sugarloaf Complex","classification":"dormant","elevation":null,"province":null,"region":null,"source":"PHIVOLCS"}},{"type":"Feature","geometry":{"type":"Point","coordinates":[121.075,6.025,0]},"properties":{"name":"Mount Sungal","classification":"dormant","elevation":null,"province":null,"region":null,"source":"PHIVOLCS"}},{"type":"Feature","geometry":{"type":"Point","coordinates":[121.075,5.95,0]},"properties":{"name":"Mount Talipao","classification":"dormant","elevation":null,"province":null,"region":null,"source":"PHIVOLCS"}},{"type":"Feature","geometry":{"type":"Point","coordinates":[120.333333333333,5.13333333333333,0]},"properties":{"name":"Mount Tandubas","classification":"dormant","elevation":null,"province":null,"region":null,"source":"PHIVOLCS"}},{"type":"Feature","geometry":{"type":"Point","coordinates":[121.965277777778,6.30166666666667,0]},"properties":{"name":"Tapiantana Island","classification":"dormant","elevation":null,"province":null,"region":null,"source":"PHIVOLCS"}},{"type":"Feature","geometry":{"type":"Point","coordinates":[120.9,5.73333333333333,0]},"properties":{"name":"Tapul Island","classification":"dormant","elevation":null,"province":null,"region":null,"source":"PHIVOLCS"}},{"type":"Feature","geometry":{"type":"Point","coordinates":[120.931666666667,5.98666666666667,0]},"properties":{"name":"Mount Taran","classification":"dormant","elevation":null,"province":null,"region":null,"source":"PHIVOLCS"}},{"type":"Feature","geometry":{"type":"Point","coordinates":[123.141666666667,7.53333333333333,0]},"properties":{"name":"Mount Tarranosa","classification":"dormant","elevation":null,"province":null,"region":null,"source":"PHIVOLCS"}},{"type":"Feature","geometry":{"type":"Point","coordinates":[121.833333333333,6.23333333333333,0]},"properties":{"name":"Mount Tatalan","classification":"dormant","elevation":null,"province":null,"region":null,"source":"PHIVOLCS"}},{"type":"Feature","geometry":{"type":"Point","coordinates":[123.583333333333,7.89166666666667,0]},"properties":{"name":"Unnamed Tukuran Cone 01","classification":"dormant","elevation":null,"province":null,"region":null,"source":"PHIVOLCS"}},{"type":"Feature","geometry":{"type":"Point","coordinates":[123.558333333333,7.89166666666667,0]},"properties":{"name":"Unnamed Tukuran Cone 02","classification":"dormant","elevation":null,"province":null,"region":null,"source":"PHIVOLCS"}},{"type":"Feature","geometry":{"type":"Point","coordinates":[123.558333333333,7.90833333333333,0]},"properties":{"name":"Unnamed Tukuran Cone 03","classification":"dormant","elevation":null,"province":null,"region":null,"source":"PHIVOLCS"}},{"type":"Feature","geometry":{"type":"Point","coordinates":[123.55,7.93333333333333,0]},"properties":{"name":"Unnamed Tukuran Cone 04","classification":"dormant","elevation":null,"province":null,"region":null,"source":"PHIVOLCS"}},{"type":"Feature","geometry":{"type":"Point","coordinates":[123.541666666667,7.91666666666667,0]},"properties":{"name":"Unnamed Tukuran Cone 05","classification":"dormant","elevation":null,"province":null,"region":null,"source":"PHIVOLCS"}},{"type":"Feature","geometry":{"type":"Point","coordinates":[123.516666666667,7.925,0]},"properties":{"name":"Unnamed Tukuran Cone 06","classification":"dormant","elevation":null,"province":null,"region":null,"source":"PHIVOLCS"}},{"type":"Feature","geometry":{"type":"Point","coordinates":[123.520833333333,7.89166666666667,0]},"properties":{"name":"Unnamed Tukuran Cone 07","classification":"dormant","elevation":null,"province":null,"region":null,"source":"PHIVOLCS"}},{"type":"Feature","geometry":{"type":"Point","coordinates":[123.516666666667,7.95,0]},"properties":{"name":"Unnamed Tukuran Cone 08","classification":"dormant","elevation":null,"province":null,"region":null,"source":"PHIVOLCS"}},{"type":"Feature","geometry":{"type":"Point","coordinates":[123.5,7.91666666666667,0]},"properties":{"name":"Unnamed Tukuran Cone 09","classification":"dormant","elevation":null,"province":null,"region":null,"source":"PHIVOLCS"}},{"type":"Feature","geometry":{"type":"Point","coordinates":[123.483333333333,7.95,0]},"properties":{"name":"Unnamed Tukuran Cone 10","classification":"dormant","elevation":null,"province":null,"region":null,"source":"PHIVOLCS"}},{"type":"Feature","geometry":{"type":"Point","coordinates":[123.475,7.93333333333333,0]},"properties":{"name":"Unnamed Tukuran Cone 11","classification":"dormant","elevation":null,"province":null,"region":null,"source":"PHIVOLCS"}},{"type":"Feature","geometry":{"type":"Point","coordinates":[123.458333333333,7.95833333333333,0]},"properties":{"name":"Unnamed Tukuran Cone 12","classification":"dormant","elevation":null,"province":null,"region":null,"source":"PHIVOLCS"}},{"type":"Feature","geometry":{"type":"Point","coordinates":[121.316666666667,6.025,0]},"properties":{"name":"Tulayan Island","classification":"dormant","elevation":null,"province":null,"region":null,"source":"PHIVOLCS"}},{"type":"Feature","geometry":{"type":"Point","coordinates":[121.275,5.91666666666667,0]},"properties":{"name":"Mount Ukan","classification":"dormant","elevation":null,"province":null,"region":null,"source":"PHIVOLCS"}},{"type":"Feature","geometry":{"type":"Point","coordinates":[121.258333333333,5.98333333333333,0]},"properties":{"name":"Mount Urot","classification":"dormant","elevation":null,"province":null,"region":null,"source":"PHIVOLCS"}},{"type":"Feature","geometry":{"type":"Point","coordinates":[121.603333333333,6.25,0]},"properties":{"name":"West Bolod Island","classification":"dormant","elevation":null,"province":null,"region":null,"source":"PHIVOLCS"}},{"type":"Feature","geometry":{"type":"Point","coordinates":[123.166666666667,7.85,0]},"properties":{"name":"Mount Wood","classification":"dormant","elevation":null,"province":null,"region":null,"source":"PHIVOLCS"}},{"type":"Feature","geometry":{"type":"Point","coordinates":[124.424166666667,7.42116666666667,0]},"properties":{"name":"Mount Akir-Akir","classification":"dormant","elevation":null,"province":null,"region":null,"source":"PHIVOLCS"}},{"type":"Feature","geometry":{"type":"Point","coordinates":[125.171,6.30833333333333,0]},"properties":{"name":"Balo Dome","classification":"dormant","elevation":null,"province":null,"region":null,"source":"PHIVOLCS"}},{"type":"Feature","geometry":{"type":"Point","coordinates":[125.1475,6.24666666666667,0]},"properties":{"name":"Base Peak","classification":"dormant","elevation":null,"province":null,"region":null,"source":"PHIVOLCS"}},{"type":"Feature","geometry":{"type":"Point","coordinates":[124.0955,7.78716666666667,0]},"properties":{"name":"Mount Baya","classification":"dormant","elevation":null,"province":null,"region":null,"source":"PHIVOLCS"}},{"type":"Feature","geometry":{"type":"Point","coordinates":[125.391666666667,6.15433333333333,0]},"properties":{"name":"Bee Hive Peak","classification":"dormant","elevation":null,"province":null,"region":null,"source":"PHIVOLCS"}},{"type":"Feature","geometry":{"type":"Point","coordinates":[124.016666666667,6.95,0]},"properties":{"name":"Mount Binaca","classification":"dormant","elevation":null,"province":null,"region":null,"source":"PHIVOLCS"}},{"type":"Feature","geometry":{"type":"Point","coordinates":[124.283333333333,7.5,0]},"properties":{"name":"Mount Bito","classification":"dormant","elevation":null,"province":null,"region":null,"source":"PHIVOLCS"}},{"type":"Feature","geometry":{"type":"Point","coordinates":[124.214027777778,6.95858333333333,0]},"properties":{"name":"Mount Blik","classification":"dormant","elevation":null,"province":null,"region":null,"source":"PHIVOLCS"}},{"type":"Feature","geometry":{"type":"Point","coordinates":[123.847,8.05666666666667,0]},"properties":{"name":"Mount Catmon","classification":"dormant","elevation":null,"province":null,"region":null,"source":"PHIVOLCS"}},{"type":"Feature","geometry":{"type":"Point","coordinates":[125.125,6.86666666666667,0]},"properties":{"name":"Mount Gap","classification":"dormant","elevation":null,"province":null,"region":null,"source":"PHIVOLCS"}},{"type":"Feature","geometry":{"type":"Point","coordinates":[125.108333333333,6.88333333333333,0]},"properties":{"name":"Mount Libadan","classification":"dormant","elevation":null,"province":null,"region":null,"source":"PHIVOLCS"}},{"type":"Feature","geometry":{"type":"Point","coordinates":[125.141666666667,6.93333333333333,0]},"properties":{"name":"Bolacanon Unnamed Cone 01","classification":"dormant","elevation":null,"province":null,"region":null,"source":"PHIVOLCS"}},{"type":"Feature","geometry":{"type":"Point","coordinates":[125.133333333333,6.89166666666667,0]},"properties":{"name":"Bolacanon Unnamed Cone 02","classification":"dormant","elevation":null,"province":null,"region":null,"source":"PHIVOLCS"}},{"type":"Feature","geometry":{"type":"Point","coordinates":[125.15,6.85833333333333,0]},"properties":{"name":"Bolacanon Unnamed Cone 03","classification":"dormant","elevation":null,"province":null,"region":null,"source":"PHIVOLCS"}},{"type":"Feature","geometry":{"type":"Point","coordinates":[125.133333333333,6.84166666666667,0]},"properties":{"name":"Bolacanon Unnamed Cone 04","classification":"dormant","elevation":null,"province":null,"region":null,"source":"PHIVOLCS"}},{"type":"Feature","geometry":{"type":"Point","coordinates":[125.108333333333,6.89166666666667,0]},"properties":{"name":"Bolacanon Unnamed Cone 05","classification":"dormant","elevation":null,"province":null,"region":null,"source":"PHIVOLCS"}},{"type":"Feature","geometry":{"type":"Point","coordinates":[125.1,6.88333333333333,0]},"properties":{"name":"Bolacanon Unnamed Cone 06","classification":"dormant","elevation":null,"province":null,"region":null,"source":"PHIVOLCS"}},{"type":"Feature","geometry":{"type":"Point","coordinates":[125.083333333333,6.91666666666667,0]},"properties":{"name":"Bolacanon Unnamed Cone 07","classification":"dormant","elevation":null,"province":null,"region":null,"source":"PHIVOLCS"}},{"type":"Feature","geometry":{"type":"Point","coordinates":[125.066666666667,6.875,0]},"properties":{"name":"Bolacanon Unnamed Cone 08","classification":"dormant","elevation":null,"province":null,"region":null,"source":"PHIVOLCS"}},{"type":"Feature","geometry":{"type":"Point","coordinates":[125.075,6.85,0]},"properties":{"name":"Bolacanon Unnamed Cone 09","classification":"dormant","elevation":null,"province":null,"region":null,"source":"PHIVOLCS"}},{"type":"Feature","geometry":{"type":"Point","coordinates":[125.1,6.85833333333333,0]},"properties":{"name":"Bolacanon Unnamed Cone 12","classification":"dormant","elevation":null,"province":null,"region":null,"source":"PHIVOLCS"}},{"type":"Feature","geometry":{"type":"Point","coordinates":[125.108333333333,6.8375,0]},"properties":{"name":"Bolacanon Unnamed Cone 13","classification":"dormant","elevation":null,"province":null,"region":null,"source":"PHIVOLCS"}},{"type":"Feature","geometry":{"type":"Point","coordinates":[125.1,6.83333333333333,0]},"properties":{"name":"Bolacanon Unnamed Cone 14","classification":"dormant","elevation":null,"province":null,"region":null,"source":"PHIVOLCS"}},{"type":"Feature","geometry":{"type":"Point","coordinates":[125.108333333333,6.81666666666667,0]},"properties":{"name":"Bolacanon Unnamed Cone 15","classification":"dormant","elevation":null,"province":null,"region":null,"source":"PHIVOLCS"}},{"type":"Feature","geometry":{"type":"Point","coordinates":[125.104166666667,6.80833333333333,0]},"properties":{"name":"Bolacanon Unnamed Cone 16","classification":"dormant","elevation":null,"province":null,"region":null,"source":"PHIVOLCS"}},{"type":"Feature","geometry":{"type":"Point","coordinates":[125.1,6.79583333333333,0]},"properties":{"name":"Bolacanon Unnamed Cone 17","classification":"dormant","elevation":null,"province":null,"region":null,"source":"PHIVOLCS"}},{"type":"Feature","geometry":{"type":"Point","coordinates":[125.116666666667,6.76666666666667,0]},"properties":{"name":"Bolacanon Unnamed Cone 18","classification":"dormant","elevation":null,"province":null,"region":null,"source":"PHIVOLCS"}},{"type":"Feature","geometry":{"type":"Point","coordinates":[126.1,6.87083333333333,0]},"properties":{"name":"Bolacanon Unnamed Cone 19","classification":"dormant","elevation":null,"province":null,"region":null,"source":"PHIVOLCS"}},{"type":"Feature","geometry":{"type":"Point","coordinates":[124.7075,6.098,0]},"properties":{"name":"Mount Bosa","classification":"dormant","elevation":null,"province":null,"region":null,"source":"PHIVOLCS"}},{"type":"Feature","geometry":{"type":"Point","coordinates":[123.861,8.08416666666667,0]},"properties":{"name":"Mount Bucas","classification":"dormant","elevation":null,"province":null,"region":null,"source":"PHIVOLCS"}},{"type":"Feature","geometry":{"type":"Point","coordinates":[124.766666666667,9.11666666666667,0]},"properties":{"name":"Mount Butay","classification":"dormant","elevation":null,"province":null,"region":null,"source":"PHIVOLCS"}},{"type":"Feature","geometry":{"type":"Point","coordinates":[125.083333333333,7.75,0]},"properties":{"name":"Mount Butung","classification":"dormant","elevation":null,"province":null,"region":null,"source":"PHIVOLCS"}},{"type":"Feature","geometry":{"type":"Point","coordinates":[124.233333333333,7.54166666666667,0]},"properties":{"name":"Mount Cabugao","classification":"dormant","elevation":null,"province":null,"region":null,"source":"PHIVOLCS"}},{"type":"Feature","geometry":{"type":"Point","coordinates":[125.116666666667,8.56666666666667,0]},"properties":{"name":"Mount Calabugao","classification":"dormant","elevation":null,"province":null,"region":null,"source":"PHIVOLCS"}},{"type":"Feature","geometry":{"type":"Point","coordinates":[124.708333333333,9.20833333333333,0]},"properties":{"name":"Campana Hill","classification":"dormant","elevation":null,"province":null,"region":null,"source":"PHIVOLCS"}},{"type":"Feature","geometry":{"type":"Point","coordinates":[124.666833333333,9.21666666666667,0]},"properties":{"name":"Carling Hill","classification":"dormant","elevation":null,"province":null,"region":null,"source":"PHIVOLCS"}},{"type":"Feature","geometry":{"type":"Point","coordinates":[124.945833333333,7.81666666666667,0]},"properties":{"name":"Mount Dagumbaan","classification":"dormant","elevation":null,"province":null,"region":null,"source":"PHIVOLCS"}},{"type":"Feature","geometry":{"type":"Point","coordinates":[124.129166666667,7.64083333333333,0]},"properties":{"name":"Mount Dos Hermanas","classification":"dormant","elevation":null,"province":null,"region":null,"source":"PHIVOLCS"}},{"type":"Feature","geometry":{"type":"Point","coordinates":[124.078333333333,7.77833333333333,0]},"properties":{"name":"Mount Gadungan","classification":"dormant","elevation":null,"province":null,"region":null,"source":"PHIVOLCS"}},{"type":"Feature","geometry":{"type":"Point","coordinates":[124,7.88333333333333,0]},"properties":{"name":"Mount Galantay","classification":"dormant","elevation":null,"province":null,"region":null,"source":"PHIVOLCS"}},{"type":"Feature","geometry":{"type":"Point","coordinates":[124.766666666667,9.1,0]},"properties":{"name":"Mount Guinsiliban","classification":"dormant","elevation":null,"province":null,"region":null,"source":"PHIVOLCS"}},{"type":"Feature","geometry":{"type":"Point","coordinates":[124.108333333333,7.90833333333333,0]},"properties":{"name":"Mount Gurain","classification":"dormant","elevation":null,"province":null,"region":null,"source":"PHIVOLCS"}},{"type":"Feature","geometry":{"type":"Point","coordinates":[124.966666666667,7.825,0]},"properties":{"name":"Mount Inayawan","classification":"dormant","elevation":null,"province":null,"region":null,"source":"PHIVOLCS"}},{"type":"Feature","geometry":{"type":"Point","coordinates":[124.925,7.81666666666667,0]},"properties":{"name":"Mount Iniaoan","classification":"dormant","elevation":null,"province":null,"region":null,"source":"PHIVOLCS"}},{"type":"Feature","geometry":{"type":"Point","coordinates":[124.916666666667,8.13333333333333,0]},"properties":{"name":"Mount Kaatoan","classification":"dormant","elevation":null,"province":null,"region":null,"source":"PHIVOLCS"}},{"type":"Feature","geometry":{"type":"Point","coordinates":[124.666666666667,7.86666666666667,0]},"properties":{"name":"Mount Kabaritan","classification":"dormant","elevation":null,"province":null,"region":null,"source":"PHIVOLCS"}},{"type":"Feature","geometry":{"type":"Point","coordinates":[124.816666666667,7.75833333333333,0]},"properties":{"name":"Mount Kidongin","classification":"dormant","elevation":null,"province":null,"region":null,"source":"PHIVOLCS"}},{"type":"Feature","geometry":{"type":"Point","coordinates":[124.875,7.95833333333333,0]},"properties":{"name":"Mount Kilakron","classification":"dormant","elevation":null,"province":null,"region":null,"source":"PHIVOLCS"}},{"type":"Feature","geometry":{"type":"Point","coordinates":[124.925,8.12833333333333,0]},"properties":{"name":"Mount Kitanglad","classification":"dormant","elevation":null,"province":null,"region":null,"source":"PHIVOLCS"}},{"type":"Feature","geometry":{"type":"Point","coordinates":[124.662,7.285,0]},"properties":{"name":"Mount Kitabud","classification":"dormant","elevation":null,"province":null,"region":null,"source":"PHIVOLCS"}},{"type":"Feature","geometry":{"type":"Point","coordinates":[124.928333333333,7.84,0]},"properties":{"name":"Mount Koloko","classification":"dormant","elevation":null,"province":null,"region":null,"source":"PHIVOLCS"}},{"type":"Feature","geometry":{"type":"Point","coordinates":[123.808333333333,7.975,0]},"properties":{"name":"Lauan Hill","classification":"dormant","elevation":null,"province":null,"region":null,"source":"PHIVOLCS"}},{"type":"Feature","geometry":{"type":"Point","coordinates":[123.816666666667,7.93333333333333,0]},"properties":{"name":"Pindulungan Hill","classification":"dormant","elevation":null,"province":null,"region":null,"source":"PHIVOLCS"}},{"type":"Feature","geometry":{"type":"Point","coordinates":[123.825,7.94166666666667,0]},"properties":{"name":"Mount Kabanangan","classification":"dormant","elevation":null,"province":null,"region":null,"source":"PHIVOLCS"}},{"type":"Feature","geometry":{"type":"Point","coordinates":[123.820833333333,7.93333333333333,0]},"properties":{"name":"Lanao Unnamed Cone 01","classification":"dormant","elevation":null,"province":null,"region":null,"source":"PHIVOLCS"}},{"type":"Feature","geometry":{"type":"Point","coordinates":[123.841666666667,7.94166666666667,0]},"properties":{"name":"Lanao Unnamed Cone 02","classification":"dormant","elevation":null,"province":null,"region":null,"source":"PHIVOLCS"}},{"type":"Feature","geometry":{"type":"Point","coordinates":[123.841666666667,7.92916666666667,0]},"properties":{"name":"Lanao Unnamed Cone 03","classification":"dormant","elevation":null,"province":null,"region":null,"source":"PHIVOLCS"}},{"type":"Feature","geometry":{"type":"Point","coordinates":[123.816666666667,7.91666666666667,0]},"properties":{"name":"Lanao Unnamed Cone 04","classification":"dormant","elevation":null,"province":null,"region":null,"source":"PHIVOLCS"}},{"type":"Feature","geometry":{"type":"Point","coordinates":[123.85,7.86666666666667,0]},"properties":{"name":"Lanao Unnamed Cone 05","classification":"dormant","elevation":null,"province":null,"region":null,"source":"PHIVOLCS"}},{"type":"Feature","geometry":{"type":"Point","coordinates":[123.858333333333,7.875,0]},"properties":{"name":"Lanao Unnamed Cone 06","classification":"dormant","elevation":null,"province":null,"region":null,"source":"PHIVOLCS"}},{"type":"Feature","geometry":{"type":"Point","coordinates":[123.866666666667,7.925,0]},"properties":{"name":"Lanao Unnamed Cone 07","classification":"dormant","elevation":null,"province":null,"region":null,"source":"PHIVOLCS"}},{"type":"Feature","geometry":{"type":"Point","coordinates":[123.858333333333,7.95416666666667,0]},"properties":{"name":"Lanao Unnamed Cone 08","classification":"dormant","elevation":null,"province":null,"region":null,"source":"PHIVOLCS"}},{"type":"Feature","geometry":{"type":"Point","coordinates":[123.866666666667,7.95833333333333,0]},"properties":{"name":"Lanao Unnamed Cone 09","classification":"dormant","elevation":null,"province":null,"region":null,"source":"PHIVOLCS"}},{"type":"Feature","geometry":{"type":"Point","coordinates":[123.875,7.95,0]},"properties":{"name":"Lanao Unnamed Cone 10","classification":"dormant","elevation":null,"province":null,"region":null,"source":"PHIVOLCS"}},{"type":"Feature","geometry":{"type":"Point","coordinates":[123.891666666667,7.9375,0]},"properties":{"name":"Lanao Unnamed Cone 11","classification":"dormant","elevation":null,"province":null,"region":null,"source":"PHIVOLCS"}},{"type":"Feature","geometry":{"type":"Point","coordinates":[123.891666666667,7.9,0]},"properties":{"name":"Lanao Unnamed Cone 12","classification":"dormant","elevation":null,"province":null,"region":null,"source":"PHIVOLCS"}},{"type":"Feature","geometry":{"type":"Point","coordinates":[123.925,7.93333333333333,0]},"properties":{"name":"Lanao Unnamed Cone 13","classification":"dormant","elevation":null,"province":null,"region":null,"source":"PHIVOLCS"}},{"type":"Feature","geometry":{"type":"Point","coordinates":[123.908333333333,7.95833333333333,0]},"properties":{"name":"Lanao Unnamed Cone 14","classification":"dormant","elevation":null,"province":null,"region":null,"source":"PHIVOLCS"}},{"type":"Feature","geometry":{"type":"Point","coordinates":[124.598,7.61833333333333,0]},"properties":{"name":"Mount Magampao","classification":"dormant","elevation":null,"province":null,"region":null,"source":"PHIVOLCS"}},{"type":"Feature","geometry":{"type":"Point","coordinates":[125.311666666667,7.65333333333333,0]},"properties":{"name":"Mount Malambo","classification":"dormant","elevation":null,"province":null,"region":null,"source":"PHIVOLCS"}},{"type":"Feature","geometry":{"type":"Point","coordinates":[124.9,6.19166666666667,0]},"properties":{"name":"Mount Malibao","classification":"dormant","elevation":null,"province":null,"region":null,"source":"PHIVOLCS"}},{"type":"Feature","geometry":{"type":"Point","coordinates":[124.721666666667,9.17166666666667,0]},"properties":{"name":"Mambajao Peak","classification":"dormant","elevation":null,"province":null,"region":null,"source":"PHIVOLCS"}},{"type":"Feature","geometry":{"type":"Point","coordinates":[124.133333333333,7.96666666666667,0]},"properties":{"name":"Mount Mamot","classification":"dormant","elevation":null,"province":null,"region":null,"source":"PHIVOLCS"}},{"type":"Feature","geometry":{"type":"Point","coordinates":[125.008333333333,8.50833333333333,0]},"properties":{"name":"Mount Mangaban","classification":"dormant","elevation":null,"province":null,"region":null,"source":"PHIVOLCS"}},{"type":"Feature","geometry":{"type":"Point","coordinates":[124.561666666667,7.77166666666667,0]},"properties":{"name":"Mount Maranat","classification":"dormant","elevation":null,"province":null,"region":null,"source":"PHIVOLCS"}},{"type":"Feature","geometry":{"type":"Point","coordinates":[124.591666666667,7.57666666666667,0]},"properties":{"name":"Mount Mariyug","classification":"dormant","elevation":null,"province":null,"region":null,"source":"PHIVOLCS"}},{"type":"Feature","geometry":{"type":"Point","coordinates":[123.9,7.725,0]},"properties":{"name":"Mount Micbacan","classification":"dormant","elevation":null,"province":null,"region":null,"source":"PHIVOLCS"}},{"type":"Feature","geometry":{"type":"Point","coordinates":[124.65,9.21666666666667,0]},"properties":{"name":"Minokol Hill","classification":"dormant","elevation":null,"province":null,"region":null,"source":"PHIVOLCS"}},{"type":"Feature","geometry":{"type":"Point","coordinates":[124.858333333333,8.13333333333333,0]},"properties":{"name":"Mount Nanluyaw","classification":"dormant","elevation":null,"province":null,"region":null,"source":"PHIVOLCS"}},{"type":"Feature","geometry":{"type":"Point","coordinates":[125.016666666667,6.39166666666667,0]},"properties":{"name":"Mount Navaro","classification":"dormant","elevation":null,"province":null,"region":null,"source":"PHIVOLCS"}},{"type":"Feature","geometry":{"type":"Point","coordinates":[124.858333333333,8.8,0]},"properties":{"name":"Mount Obulan","classification":"dormant","elevation":null,"province":null,"region":null,"source":"PHIVOLCS"}},{"type":"Feature","geometry":{"type":"Point","coordinates":[125.518333333333,9.59333333333333,0]},"properties":{"name":"Mount Paco","classification":"dormant","elevation":null,"province":null,"region":null,"source":"PHIVOLCS"}},{"type":"Feature","geometry":{"type":"Point","coordinates":[124.92,8.83,0]},"properties":{"name":"Mount Pamalihi","classification":"dormant","elevation":null,"province":null,"region":null,"source":"PHIVOLCS"}},{"type":"Feature","geometry":{"type":"Point","coordinates":[123.906666666667,7.915,0]},"properties":{"name":"Mount Pana","classification":"dormant","elevation":null,"province":null,"region":null,"source":"PHIVOLCS"}},{"type":"Feature","geometry":{"type":"Point","coordinates":[125.383333333333,6.9,0]},"properties":{"name":"Patulangon","classification":"dormant","elevation":null,"province":null,"region":null,"source":"PHIVOLCS"}},{"type":"Feature","geometry":{"type":"Point","coordinates":[124.633333333333,7.92333333333333,0]},"properties":{"name":"Pudung","classification":"dormant","elevation":null,"province":null,"region":null,"source":"PHIVOLCS"}},{"type":"Feature","geometry":{"type":"Point","coordinates":[124.95,6.58333333333333,0]},"properties":{"name":"Quezon","classification":"dormant","elevation":null,"province":null,"region":null,"source":"PHIVOLCS"}},{"type":"Feature","geometry":{"type":"Point","coordinates":[124.422166666667,8.11833333333333,0]},"properties":{"name":"Sagada","classification":"dormant","elevation":null,"province":null,"region":null,"source":"PHIVOLCS"}},{"type":"Feature","geometry":{"type":"Point","coordinates":[124.858333333333,7.84166666666667,0]},"properties":{"name":"Salimbal","classification":"dormant","elevation":null,"province":null,"region":null,"source":"PHIVOLCS"}},{"type":"Feature","geometry":{"type":"Point","coordinates":[123.766666666667,7.79166666666667,0]},"properties":{"name":"Sigayan","classification":"dormant","elevation":null,"province":null,"region":null,"source":"PHIVOLCS"}},{"type":"Feature","geometry":{"type":"Point","coordinates":[125.271666666667,7.48333333333333,0]},"properties":{"name":"Sinako","classification":"dormant","elevation":null,"province":null,"region":null,"source":"PHIVOLCS"}},{"type":"Feature","geometry":{"type":"Point","coordinates":[125.408333333333,6.91666666666667,0]},"properties":{"name":"Sibulan","classification":"dormant","elevation":null,"province":null,"region":null,"source":"PHIVOLCS"}},{"type":"Feature","geometry":{"type":"Point","coordinates":[124.8,7.46666666666667,0]},"properties":{"name":"Table","classification":"dormant","elevation":null,"province":null,"region":null,"source":"PHIVOLCS"}},{"type":"Feature","geometry":{"type":"Point","coordinates":[124.8,7.78333333333333,0]},"properties":{"name":"Tagoan","classification":"dormant","elevation":null,"province":null,"region":null,"source":"PHIVOLCS"}},{"type":"Feature","geometry":{"type":"Point","coordinates":[125.333333333333,7.03333333333333,0]},"properties":{"name":"Talomo","classification":"dormant","elevation":null,"province":null,"region":null,"source":"PHIVOLCS"}},{"type":"Feature","geometry":{"type":"Point","coordinates":[124.683333333333,8.125,0]},"properties":{"name":"Ticalan","classification":"dormant","elevation":null,"province":null,"region":null,"source":"PHIVOLCS"}},{"type":"Feature","geometry":{"type":"Point","coordinates":[124.6835,9.19333333333333,0]},"properties":{"name":"Tres Marias Hill","classification":"dormant","elevation":null,"province":null,"region":null,"source":"PHIVOLCS"}}],"metadata":{"source":"PHIVOLCS / phl-volcanoes","layer_id":"philippines","feature_count":309}}