{"type":"FeatureCollection","features":[{"type":"Feature","geometry":{"type":"Point","coordinates":[-75.363,5.203]},"properties":{"name":"Romeral","classification":"potentially_active","elevation":3769,"country":"Colombia","region":"South America Volcanic Regions","last_eruption_year":-5390,"evidence_category":"Eruption Dated","source":"Smithsonian GVP"}},{"type":"Feature","geometry":{"type":"Point","coordinates":[-75.293,5.091]},"properties":{"name":"Bravo, Cerro","classification":"potentially_active","elevation":3985,"country":"Colombia","region":"South America Volcanic Regions","last_eruption_year":1720,"evidence_category":"Eruption Dated","source":"Smithsonian GVP"}},{"type":"Feature","geometry":{"type":"Point","coordinates":[-75.365,4.818]},"properties":{"name":"Santa Isabel","classification":"potentially_active","elevation":4944,"country":"Colombia","region":"South America Volcanic Regions","last_eruption_year":-850,"evidence_category":"Eruption Dated","source":"Smithsonian GVP"}},{"type":"Feature","geometry":{"type":"Point","coordinates":[-75.324,4.892]},"properties":{"name":"Ruiz, Nevado del","classification":"active","elevation":5279,"country":"Colombia","region":"South America Volcanic Regions","last_eruption_year":2026,"evidence_category":"Eruption Observed","source":"Smithsonian GVP"}},{"type":"Feature","geometry":{"type":"Point","coordinates":[-75.33,4.658]},"properties":{"name":"Tolima, Nevado del","classification":"active","elevation":5215,"country":"Colombia","region":"South America Volcanic Regions","last_eruption_year":1943,"evidence_category":"Eruption Observed","source":"Smithsonian GVP"}},{"type":"Feature","geometry":{"type":"Point","coordinates":[-75.389,4.487]},"properties":{"name":"Machin","classification":"potentially_active","elevation":2749,"country":"Colombia","region":"South America Volcanic Regions","last_eruption_year":1180,"evidence_category":"Eruption Dated","source":"Smithsonian GVP"}},{"type":"Feature","geometry":{"type":"Point","coordinates":[-76.03,2.93]},"properties":{"name":"Huila, Nevado del","classification":"active","elevation":5364,"country":"Colombia","region":"South America Volcanic Regions","last_eruption_year":2012,"evidence_category":"Eruption Observed","source":"Smithsonian GVP"}},{"type":"Feature","geometry":{"type":"Point","coordinates":[-76.592,2.108]},"properties":{"name":"Sotara","classification":"potentially_active","elevation":4400,"country":"Colombia","region":"South America Volcanic Regions","last_eruption_year":null,"evidence_category":"Evidence Credible","source":"Smithsonian GVP"}},{"type":"Feature","geometry":{"type":"Point","coordinates":[-76.3948,2.3095]},"properties":{"name":"Purace","classification":"active","elevation":4650,"country":"Colombia","region":"South America Volcanic Regions","last_eruption_year":2026,"evidence_category":"Eruption Observed","source":"Smithsonian GVP"}},{"type":"Feature","geometry":{"type":"Point","coordinates":[-76.936,1.5]},"properties":{"name":"Dona Juana","classification":"active","elevation":4137,"country":"Colombia","region":"South America Volcanic Regions","last_eruption_year":1906,"evidence_category":"Eruption Observed","source":"Smithsonian GVP"}},{"type":"Feature","geometry":{"type":"Point","coordinates":[-77.37,1.22]},"properties":{"name":"Galeras","classification":"active","elevation":4276,"country":"Colombia","region":"South America Volcanic Regions","last_eruption_year":2014,"evidence_category":"Eruption Observed","source":"Smithsonian GVP"}},{"type":"Feature","geometry":{"type":"Point","coordinates":[-77.68,1.08]},"properties":{"name":"Azufral","classification":"potentially_active","elevation":4070,"country":"Colombia","region":"South America Volcanic Regions","last_eruption_year":-930,"evidence_category":"Eruption Dated","source":"Smithsonian GVP"}},{"type":"Feature","geometry":{"type":"Point","coordinates":[-77.87,0.95]},"properties":{"name":"Cumbal","classification":"active","elevation":4764,"country":"Colombia","region":"South America Volcanic Regions","last_eruption_year":1926,"evidence_category":"Eruption Observed","source":"Smithsonian GVP"}},{"type":"Feature","geometry":{"type":"Point","coordinates":[-77.938,0.817]},"properties":{"name":"Chiles-Cerro Negro","classification":"dormant","elevation":4698,"country":"Colombia-Ecuador","region":"South America Volcanic Regions","last_eruption_year":1936,"evidence_category":"Evidence Uncertain","source":"Smithsonian GVP"}},{"type":"Feature","geometry":{"type":"Point","coordinates":[-77.58,0.552]},"properties":{"name":"Soche","classification":"potentially_active","elevation":3955,"country":"Ecuador","region":"South America Volcanic Regions","last_eruption_year":-6650,"evidence_category":"Eruption Dated","source":"Smithsonian GVP"}},{"type":"Feature","geometry":{"type":"Point","coordinates":[-78.287,0.468]},"properties":{"name":"Chachimbiro","classification":"potentially_active","elevation":4106,"country":"Ecuador","region":"South America Volcanic Regions","last_eruption_year":-3740,"evidence_category":"Eruption Dated","source":"Smithsonian GVP"}},{"type":"Feature","geometry":{"type":"Point","coordinates":[-78.364,0.308]},"properties":{"name":"Cuicocha","classification":"potentially_active","elevation":3246,"country":"Ecuador","region":"South America Volcanic Regions","last_eruption_year":650,"evidence_category":"Eruption Dated","source":"Smithsonian GVP"}},{"type":"Feature","geometry":{"type":"Point","coordinates":[-78.183,0.258]},"properties":{"name":"Imbabura","classification":"potentially_active","elevation":4609,"country":"Ecuador","region":"South America Volcanic Regions","last_eruption_year":-5550,"evidence_category":"Eruption Dated","source":"Smithsonian GVP"}},{"type":"Feature","geometry":{"type":"Point","coordinates":[-78.27,0.13]},"properties":{"name":"Mojanda","classification":"dormant","elevation":4263,"country":"Ecuador","region":"South America Volcanic Regions","last_eruption_year":null,"evidence_category":"Evidence Uncertain","source":"Smithsonian GVP"}},{"type":"Feature","geometry":{"type":"Point","coordinates":[-77.986,0.029]},"properties":{"name":"Cayambe","classification":"active","elevation":5790,"country":"Ecuador","region":"South America Volcanic Regions","last_eruption_year":1786,"evidence_category":"Eruption Observed","source":"Smithsonian GVP"}},{"type":"Feature","geometry":{"type":"Point","coordinates":[-78.49,0.0464]},"properties":{"name":"Pululahua","classification":"potentially_active","elevation":3360,"country":"Ecuador","region":"South America Volcanic Regions","last_eruption_year":290,"evidence_category":"Eruption Dated","source":"Smithsonian GVP"}},{"type":"Feature","geometry":{"type":"Point","coordinates":[-77.656,-0.077]},"properties":{"name":"Reventador","classification":"active","elevation":3562,"country":"Ecuador","region":"South America Volcanic Regions","last_eruption_year":2026,"evidence_category":"Eruption Observed","source":"Smithsonian GVP"}},{"type":"Feature","geometry":{"type":"Point","coordinates":[-78.617,-0.353]},"properties":{"name":"Atacazo","classification":"potentially_active","elevation":4463,"country":"Ecuador","region":"South America Volcanic Regions","last_eruption_year":-320,"evidence_category":"Eruption Dated","source":"Smithsonian GVP"}},{"type":"Feature","geometry":{"type":"Point","coordinates":[-78.25,-0.375]},"properties":{"name":"Chacana","classification":"active","elevation":4643,"country":"Ecuador","region":"South America Volcanic Regions","last_eruption_year":1773,"evidence_category":"Eruption Observed","source":"Smithsonian GVP"}},{"type":"Feature","geometry":{"type":"Point","coordinates":[-78.598,-0.171]},"properties":{"name":"Guagua Pichincha","classification":"active","elevation":4784,"country":"Ecuador","region":"South America Volcanic Regions","last_eruption_year":2002,"evidence_category":"Eruption Observed","source":"Smithsonian GVP"}},{"type":"Feature","geometry":{"type":"Point","coordinates":[-78,-0.53]},"properties":{"name":"Aliso","classification":"potentially_active","elevation":4267,"country":"Ecuador","region":"South America Volcanic Regions","last_eruption_year":-2450,"evidence_category":"Eruption Dated","source":"Smithsonian GVP"}},{"type":"Feature","geometry":{"type":"Point","coordinates":[-78.141,-0.481]},"properties":{"name":"Antisana","classification":"active","elevation":5753,"country":"Ecuador","region":"South America Volcanic Regions","last_eruption_year":1802,"evidence_category":"Eruption Observed","source":"Smithsonian GVP"}},{"type":"Feature","geometry":{"type":"Point","coordinates":[-78.716,-0.662]},"properties":{"name":"Iliniza","classification":"potentially_active","elevation":5162,"country":"Ecuador","region":"South America Volcanic Regions","last_eruption_year":null,"evidence_category":"Evidence Credible","source":"Smithsonian GVP"}},{"type":"Feature","geometry":{"type":"Point","coordinates":[-77.626,-0.538]},"properties":{"name":"Sumaco","classification":"dormant","elevation":3990,"country":"Ecuador","region":"South America Volcanic Regions","last_eruption_year":1895,"evidence_category":"Evidence Uncertain","source":"Smithsonian GVP"}},{"type":"Feature","geometry":{"type":"Point","coordinates":[-78.436,-0.677]},"properties":{"name":"Cotopaxi","classification":"active","elevation":5911,"country":"Ecuador","region":"South America Volcanic Regions","last_eruption_year":2023,"evidence_category":"Eruption Observed","source":"Smithsonian GVP"}},{"type":"Feature","geometry":{"type":"Point","coordinates":[-78.9044,-0.8592]},"properties":{"name":"Quilotoa","classification":"potentially_active","elevation":3914,"country":"Ecuador","region":"South America Volcanic Regions","last_eruption_year":1280,"evidence_category":"Eruption Dated","source":"Smithsonian GVP"}},{"type":"Feature","geometry":{"type":"Point","coordinates":[-78.817,-1.469]},"properties":{"name":"Chimborazo","classification":"potentially_active","elevation":6261,"country":"Ecuador","region":"South America Volcanic Regions","last_eruption_year":550,"evidence_category":"Eruption Dated","source":"Smithsonian GVP"}},{"type":"Feature","geometry":{"type":"Point","coordinates":[-78.614,-1.786]},"properties":{"name":"Licto","classification":"dormant","elevation":3322,"country":"Ecuador","region":"South America Volcanic Regions","last_eruption_year":null,"evidence_category":"Evidence Uncertain","source":"Smithsonian GVP"}},{"type":"Feature","geometry":{"type":"Point","coordinates":[-78.442,-1.467]},"properties":{"name":"Tungurahua","classification":"active","elevation":5023,"country":"Ecuador","region":"South America Volcanic Regions","last_eruption_year":2016,"evidence_category":"Eruption Observed","source":"Smithsonian GVP"}},{"type":"Feature","geometry":{"type":"Point","coordinates":[-78.341,-2.005]},"properties":{"name":"Sangay","classification":"active","elevation":5286,"country":"Ecuador","region":"South America Volcanic Regions","last_eruption_year":2026,"evidence_category":"Eruption Observed","source":"Smithsonian GVP"}},{"type":"Feature","geometry":{"type":"Point","coordinates":[-71.363,-14.131]},"properties":{"name":"Quimsachata-Oroscocha","classification":"potentially_active","elevation":3848,"country":"Peru","region":"South America Volcanic Regions","last_eruption_year":-4450,"evidence_category":"Eruption Dated","source":"Smithsonian GVP"}},{"type":"Feature","geometry":{"type":"Point","coordinates":[-73.1914,-15.0726]},"properties":{"name":"Auquihuato, Cerro","classification":"dormant","elevation":5001,"country":"Peru","region":"South America Volcanic Regions","last_eruption_year":null,"evidence_category":"Evidence Uncertain","source":"Smithsonian GVP"}},{"type":"Feature","geometry":{"type":"Point","coordinates":[-72.65,-15.52]},"properties":{"name":"Coropuna","classification":"potentially_active","elevation":6377,"country":"Peru","region":"South America Volcanic Regions","last_eruption_year":null,"evidence_category":"Evidence Credible","source":"Smithsonian GVP"}},{"type":"Feature","geometry":{"type":"Point","coordinates":[-72.33,-15.42]},"properties":{"name":"Andahua-Orcopampa","classification":"potentially_active","elevation":4713,"country":"Peru","region":"South America Volcanic Regions","last_eruption_year":1490,"evidence_category":"Eruption Dated","source":"Smithsonian GVP"}},{"type":"Feature","geometry":{"type":"Point","coordinates":[-72.08,-15.78]},"properties":{"name":"Huambo","classification":"potentially_active","elevation":4554,"country":"Peru","region":"South America Volcanic Regions","last_eruption_year":-700,"evidence_category":"Eruption Dated","source":"Smithsonian GVP"}},{"type":"Feature","geometry":{"type":"Point","coordinates":[-71.857,-15.787]},"properties":{"name":"Sabancaya","classification":"active","elevation":5960,"country":"Peru","region":"South America Volcanic Regions","last_eruption_year":2026,"evidence_category":"Eruption Observed","source":"Smithsonian GVP"}},{"type":"Feature","geometry":{"type":"Point","coordinates":[-71.4056,-16.2991]},"properties":{"name":"Misti, El","classification":"active","elevation":5793,"country":"Peru","region":"South America Volcanic Regions","last_eruption_year":1985,"evidence_category":"Eruption Observed","source":"Smithsonian GVP"}},{"type":"Feature","geometry":{"type":"Point","coordinates":[-70.8972,-16.345]},"properties":{"name":"Ubinas","classification":"active","elevation":5608,"country":"Peru","region":"South America Volcanic Regions","last_eruption_year":2024,"evidence_category":"Eruption Observed","source":"Smithsonian GVP"}},{"type":"Feature","geometry":{"type":"Point","coordinates":[-70.5981,-16.7586]},"properties":{"name":"Ticsani","classification":"potentially_active","elevation":5382,"country":"Peru","region":"South America Volcanic Regions","last_eruption_year":1800,"evidence_category":"Eruption Dated","source":"Smithsonian GVP"}},{"type":"Feature","geometry":{"type":"Point","coordinates":[-70.8542,-16.6144]},"properties":{"name":"Huaynaputina","classification":"active","elevation":4679,"country":"Peru","region":"South America Volcanic Regions","last_eruption_year":1600,"evidence_category":"Eruption Observed","source":"Smithsonian GVP"}},{"type":"Feature","geometry":{"type":"Point","coordinates":[-70.372,-17.026]},"properties":{"name":"Tutupaca","classification":"active","elevation":5801,"country":"Peru","region":"South America Volcanic Regions","last_eruption_year":1802,"evidence_category":"Eruption Observed","source":"Smithsonian GVP"}},{"type":"Feature","geometry":{"type":"Point","coordinates":[-70.196,-17.184]},"properties":{"name":"Yucamane","classification":"active","elevation":5495,"country":"Peru","region":"South America Volcanic Regions","last_eruption_year":-1320,"evidence_category":"Eruption Observed","source":"Smithsonian GVP"}},{"type":"Feature","geometry":{"type":"Point","coordinates":[-69.7886,-17.4852]},"properties":{"name":"Casiri, Nevados","classification":"potentially_active","elevation":5626,"country":"Peru","region":"South America Volcanic Regions","last_eruption_year":null,"evidence_category":"Evidence Credible","source":"Smithsonian GVP"}},{"type":"Feature","geometry":{"type":"Point","coordinates":[-69.5,-18.1]},"properties":{"name":"Taapaca","classification":"potentially_active","elevation":5860,"country":"Chile","region":"South America Volcanic Regions","last_eruption_year":-320,"evidence_category":"Eruption Dated","source":"Smithsonian GVP"}},{"type":"Feature","geometry":{"type":"Point","coordinates":[-69.142,-18.166]},"properties":{"name":"Parinacota","classification":"potentially_active","elevation":6336,"country":"Chile-Bolivia","region":"South America Volcanic Regions","last_eruption_year":290,"evidence_category":"Eruption Dated","source":"Smithsonian GVP"}},{"type":"Feature","geometry":{"type":"Point","coordinates":[-69.092,-18.42]},"properties":{"name":"Guallatiri","classification":"active","elevation":6071,"country":"Chile","region":"South America Volcanic Regions","last_eruption_year":1960,"evidence_category":"Eruption Observed","source":"Smithsonian GVP"}},{"type":"Feature","geometry":{"type":"Point","coordinates":[-68.53,-19.13]},"properties":{"name":"Tata Sabaya","classification":"potentially_active","elevation":5430,"country":"Bolivia","region":"South America Volcanic Regions","last_eruption_year":null,"evidence_category":"Evidence Credible","source":"Smithsonian GVP"}},{"type":"Feature","geometry":{"type":"Point","coordinates":[-68.83,-19.15]},"properties":{"name":"Isluga","classification":"active","elevation":5550,"country":"Chile","region":"South America Volcanic Regions","last_eruption_year":1913,"evidence_category":"Eruption Observed","source":"Smithsonian GVP"}},{"type":"Feature","geometry":{"type":"Point","coordinates":[-68.55,-20.73]},"properties":{"name":"Irruputuncu","classification":"active","elevation":5163,"country":"Chile-Bolivia","region":"South America Volcanic Regions","last_eruption_year":1995,"evidence_category":"Eruption Observed","source":"Smithsonian GVP"}},{"type":"Feature","geometry":{"type":"Point","coordinates":[-68.413,-20.939]},"properties":{"name":"Olca-Paruma","classification":"active","elevation":5705,"country":"Chile-Bolivia","region":"South America Volcanic Regions","last_eruption_year":null,"evidence_category":"Eruption Observed","source":"Smithsonian GVP"}},{"type":"Feature","geometry":{"type":"Point","coordinates":[-67.891,-22.719]},"properties":{"name":"Sairecabur","classification":"potentially_active","elevation":5961,"country":"Chile-Bolivia","region":"South America Volcanic Regions","last_eruption_year":null,"evidence_category":"Evidence Credible","source":"Smithsonian GVP"}},{"type":"Feature","geometry":{"type":"Point","coordinates":[-67.88,-22.83]},"properties":{"name":"Licancabur","classification":"potentially_active","elevation":5916,"country":"Chile-Bolivia","region":"South America Volcanic Regions","last_eruption_year":null,"evidence_category":"Evidence Credible","source":"Smithsonian GVP"}},{"type":"Feature","geometry":{"type":"Point","coordinates":[-67.566,-22.895]},"properties":{"name":"Guayaques","classification":"potentially_active","elevation":5598,"country":"Chile-Bolivia","region":"South America Volcanic Regions","last_eruption_year":null,"evidence_category":"Evidence Credible","source":"Smithsonian GVP"}},{"type":"Feature","geometry":{"type":"Point","coordinates":[-67.75,-23]},"properties":{"name":"Purico Complex","classification":"potentially_active","elevation":5703,"country":"Chile","region":"South America Volcanic Regions","last_eruption_year":null,"evidence_category":"Evidence Credible","source":"Smithsonian GVP"}},{"type":"Feature","geometry":{"type":"Point","coordinates":[-67.645,-23.236]},"properties":{"name":"Colachi","classification":"potentially_active","elevation":5631,"country":"Chile","region":"South America Volcanic Regions","last_eruption_year":null,"evidence_category":"Evidence Credible","source":"Smithsonian GVP"}},{"type":"Feature","geometry":{"type":"Point","coordinates":[-67.618,-23.292]},"properties":{"name":"Acamarachi","classification":"potentially_active","elevation":6023,"country":"Chile","region":"South America Volcanic Regions","last_eruption_year":null,"evidence_category":"Evidence Credible","source":"Smithsonian GVP"}},{"type":"Feature","geometry":{"type":"Point","coordinates":[-67.7,-23.58]},"properties":{"name":"Chiliques","classification":"dormant","elevation":5778,"country":"Chile","region":"South America Volcanic Regions","last_eruption_year":null,"evidence_category":"Evidence Uncertain","source":"Smithsonian GVP"}},{"type":"Feature","geometry":{"type":"Point","coordinates":[-67.853,-22.557]},"properties":{"name":"Putana","classification":"active","elevation":5884,"country":"Chile","region":"South America Volcanic Regions","last_eruption_year":1810,"evidence_category":"Eruption Observed","source":"Smithsonian GVP"}},{"type":"Feature","geometry":{"type":"Point","coordinates":[-67.534,-23.743]},"properties":{"name":"Cordon de Puntas Negras","classification":"potentially_active","elevation":5852,"country":"Chile","region":"South America Volcanic Regions","last_eruption_year":null,"evidence_category":"Evidence Credible","source":"Smithsonian GVP"}},{"type":"Feature","geometry":{"type":"Point","coordinates":[-67.77,-23.82]},"properties":{"name":"Miniques","classification":"dormant","elevation":5910,"country":"Chile","region":"South America Volcanic Regions","last_eruption_year":null,"evidence_category":"Evidence Uncertain","source":"Smithsonian GVP"}},{"type":"Feature","geometry":{"type":"Point","coordinates":[-67.95,-23.83]},"properties":{"name":"Tujle, Cerro","classification":"potentially_active","elevation":3550,"country":"Chile","region":"South America Volcanic Regions","last_eruption_year":null,"evidence_category":"Evidence Credible","source":"Smithsonian GVP"}},{"type":"Feature","geometry":{"type":"Point","coordinates":[-67.74,-23.949]},"properties":{"name":"Caichinque","classification":"dormant","elevation":4458,"country":"Chile","region":"South America Volcanic Regions","last_eruption_year":null,"evidence_category":"Evidence Uncertain","source":"Smithsonian GVP"}},{"type":"Feature","geometry":{"type":"Point","coordinates":[-68.13,-23.97]},"properties":{"name":"Tilocalar","classification":"dormant","elevation":3109,"country":"Chile","region":"South America Volcanic Regions","last_eruption_year":null,"evidence_category":"Evidence Uncertain","source":"Smithsonian GVP"}},{"type":"Feature","geometry":{"type":"Point","coordinates":[-68.054,-24.188]},"properties":{"name":"Pular","classification":"dormant","elevation":6233,"country":"Chile","region":"South America Volcanic Regions","last_eruption_year":null,"evidence_category":"Evidence Uncertain","source":"Smithsonian GVP"}},{"type":"Feature","geometry":{"type":"Point","coordinates":[-68.59,-24.319]},"properties":{"name":"Negrillar, La","classification":"dormant","elevation":4220,"country":"Chile","region":"South America Volcanic Regions","last_eruption_year":null,"evidence_category":"Evidence Uncertain","source":"Smithsonian GVP"}},{"type":"Feature","geometry":{"type":"Point","coordinates":[-68.246,-24.396]},"properties":{"name":"Socompa","classification":"potentially_active","elevation":6031,"country":"Chile-Argentina","region":"South America Volcanic Regions","last_eruption_year":-5250,"evidence_category":"Eruption Dated","source":"Smithsonian GVP"}},{"type":"Feature","geometry":{"type":"Point","coordinates":[-67.73,-23.37]},"properties":{"name":"Lascar","classification":"active","elevation":5592,"country":"Chile","region":"South America Volcanic Regions","last_eruption_year":2026,"evidence_category":"Eruption Observed","source":"Smithsonian GVP"}},{"type":"Feature","geometry":{"type":"Point","coordinates":[-68.367,-25.083]},"properties":{"name":"Corrida de Cori Volcanic Field","classification":"dormant","elevation":5451,"country":"Chile-Argentina","region":"South America Volcanic Regions","last_eruption_year":null,"evidence_category":"Evidence Uncertain","source":"Smithsonian GVP"}},{"type":"Feature","geometry":{"type":"Point","coordinates":[-68.53,-24.72]},"properties":{"name":"Llullaillaco","classification":"active","elevation":6739,"country":"Chile-Argentina","region":"South America Volcanic Regions","last_eruption_year":1877,"evidence_category":"Eruption Observed","source":"Smithsonian GVP"}},{"type":"Feature","geometry":{"type":"Point","coordinates":[-68.521,-25.336]},"properties":{"name":"Cordon del Azufre","classification":"potentially_active","elevation":5481,"country":"Chile-Argentina","region":"South America Volcanic Regions","last_eruption_year":null,"evidence_category":"Evidence Credible","source":"Smithsonian GVP"}},{"type":"Feature","geometry":{"type":"Point","coordinates":[-68.588,-25.414]},"properties":{"name":"Bayo Gorbea, Cerro","classification":"potentially_active","elevation":5413,"country":"Chile-Argentina","region":"South America Volcanic Regions","last_eruption_year":null,"evidence_category":"Evidence Credible","source":"Smithsonian GVP"}},{"type":"Feature","geometry":{"type":"Point","coordinates":[-68.58,-26.48]},"properties":{"name":"Nevada, Sierra","classification":"potentially_active","elevation":6173,"country":"Chile-Argentina","region":"South America Volcanic Regions","last_eruption_year":null,"evidence_category":"Evidence Credible","source":"Smithsonian GVP"}},{"type":"Feature","geometry":{"type":"Point","coordinates":[-68.37,-26.8]},"properties":{"name":"Falso Azufre","classification":"dormant","elevation":5906,"country":"Chile-Argentina","region":"South America Volcanic Regions","last_eruption_year":null,"evidence_category":"Evidence Uncertain","source":"Smithsonian GVP"}},{"type":"Feature","geometry":{"type":"Point","coordinates":[-68.296,-27.033]},"properties":{"name":"Incahuasi, Nevado de","classification":"dormant","elevation":6638,"country":"Chile-Argentina","region":"South America Volcanic Regions","last_eruption_year":null,"evidence_category":"Evidence Uncertain","source":"Smithsonian GVP"}},{"type":"Feature","geometry":{"type":"Point","coordinates":[-68.507,-25.168]},"properties":{"name":"Lastarria","classification":"potentially_active","elevation":5706,"country":"Chile-Argentina","region":"South America Volcanic Regions","last_eruption_year":null,"evidence_category":"Evidence Credible","source":"Smithsonian GVP"}},{"type":"Feature","geometry":{"type":"Point","coordinates":[-68.713,-27.105]},"properties":{"name":"Solo, El","classification":"potentially_active","elevation":6205,"country":"Chile-Argentina","region":"South America Volcanic Regions","last_eruption_year":null,"evidence_category":"Evidence Credible","source":"Smithsonian GVP"}},{"type":"Feature","geometry":{"type":"Point","coordinates":[-68.541,-27.109]},"properties":{"name":"Ojos del Salado, Nevados","classification":"potentially_active","elevation":6879,"country":"Chile-Argentina","region":"South America Volcanic Regions","last_eruption_year":750,"evidence_category":"Eruption Dated","source":"Smithsonian GVP"}},{"type":"Feature","geometry":{"type":"Point","coordinates":[-67.783,-24.29]},"properties":{"name":"Aracar","classification":"potentially_active","elevation":6095,"country":"Argentina","region":"South America Volcanic Regions","last_eruption_year":null,"evidence_category":"Evidence Credible","source":"Smithsonian GVP"}},{"type":"Feature","geometry":{"type":"Point","coordinates":[-68.266,-25.078]},"properties":{"name":"Central Andean Arc at 25.1\u00b0S","classification":"potentially_active","elevation":4652,"country":"Argentina","region":"South America Volcanic Regions","last_eruption_year":null,"evidence_category":"Evidence Credible","source":"Smithsonian GVP"}},{"type":"Feature","geometry":{"type":"Point","coordinates":[-68.361,-26.632]},"properties":{"name":"Condor, El","classification":"potentially_active","elevation":6373,"country":"Argentina","region":"South America Volcanic Regions","last_eruption_year":null,"evidence_category":"Evidence Credible","source":"Smithsonian GVP"}},{"type":"Feature","geometry":{"type":"Point","coordinates":[-68.116,-26.623]},"properties":{"name":"Peinado","classification":"potentially_active","elevation":5741,"country":"Argentina","region":"South America Volcanic Regions","last_eruption_year":null,"evidence_category":"Evidence Credible","source":"Smithsonian GVP"}},{"type":"Feature","geometry":{"type":"Point","coordinates":[-67.746,-26.7657]},"properties":{"name":"Blanco, Cerro","classification":"potentially_active","elevation":4670,"country":"Argentina","region":"South America Volcanic Regions","last_eruption_year":-2300,"evidence_category":"Eruption Dated","source":"Smithsonian GVP"}},{"type":"Feature","geometry":{"type":"Point","coordinates":[-68.561,-27.196]},"properties":{"name":"Tipas","classification":"potentially_active","elevation":6658,"country":"Argentina","region":"South America Volcanic Regions","last_eruption_year":null,"evidence_category":"Evidence Credible","source":"Smithsonian GVP"}},{"type":"Feature","geometry":{"type":"Point","coordinates":[-69.797,-33.425]},"properties":{"name":"Tupungatito","classification":"active","elevation":5660,"country":"Chile-Argentina","region":"South America Volcanic Regions","last_eruption_year":1987,"evidence_category":"Eruption Observed","source":"Smithsonian GVP"}},{"type":"Feature","geometry":{"type":"Point","coordinates":[-69.832,-34.164]},"properties":{"name":"Maipo","classification":"active","elevation":5323,"country":"Chile-Argentina","region":"South America Volcanic Regions","last_eruption_year":1912,"evidence_category":"Eruption Observed","source":"Smithsonian GVP"}},{"type":"Feature","geometry":{"type":"Point","coordinates":[-70.295,-34.608]},"properties":{"name":"Palomo","classification":"potentially_active","elevation":4860,"country":"Chile","region":"South America Volcanic Regions","last_eruption_year":null,"evidence_category":"Evidence Credible","source":"Smithsonian GVP"}},{"type":"Feature","geometry":{"type":"Point","coordinates":[-69.921,-34.592]},"properties":{"name":"Atuel, Caldera del","classification":"potentially_active","elevation":5189,"country":"Argentina","region":"South America Volcanic Regions","last_eruption_year":null,"evidence_category":"Evidence Credible","source":"Smithsonian GVP"}},{"type":"Feature","geometry":{"type":"Point","coordinates":[-69.981,-34.917]},"properties":{"name":"Risco Plateado","classification":"dormant","elevation":4999,"country":"Argentina","region":"South America Volcanic Regions","last_eruption_year":null,"evidence_category":"Evidence Uncertain","source":"Smithsonian GVP"}},{"type":"Feature","geometry":{"type":"Point","coordinates":[-69.895,-33.789]},"properties":{"name":"San Jose","classification":"active","elevation":6070,"country":"Chile-Argentina","region":"South America Volcanic Regions","last_eruption_year":1960,"evidence_category":"Eruption Observed","source":"Smithsonian GVP"}},{"type":"Feature","geometry":{"type":"Point","coordinates":[-70.352,-34.814]},"properties":{"name":"Tinguiririca","classification":"active","elevation":4280,"country":"Chile","region":"South America Volcanic Regions","last_eruption_year":1917,"evidence_category":"Eruption Observed","source":"Smithsonian GVP"}},{"type":"Feature","geometry":{"type":"Point","coordinates":[-69.9,-35.123]},"properties":{"name":"Infiernillo","classification":"potentially_active","elevation":3007,"country":"Argentina","region":"South America Volcanic Regions","last_eruption_year":-6890,"evidence_category":"Eruption Dated","source":"Smithsonian GVP"}},{"type":"Feature","geometry":{"type":"Point","coordinates":[-70.496,-35.558]},"properties":{"name":"Calabozos","classification":"potentially_active","elevation":3508,"country":"Chile","region":"South America Volcanic Regions","last_eruption_year":null,"evidence_category":"Evidence Credible","source":"Smithsonian GVP"}},{"type":"Feature","geometry":{"type":"Point","coordinates":[-70.568,-35.223]},"properties":{"name":"Planchon-Peteroa","classification":"active","elevation":3977,"country":"Chile","region":"South America Volcanic Regions","last_eruption_year":2025,"evidence_category":"Eruption Observed","source":"Smithsonian GVP"}},{"type":"Feature","geometry":{"type":"Point","coordinates":[-70.75,-35.58]},"properties":{"name":"Descabezado Grande","classification":"active","elevation":3953,"country":"Chile","region":"South America Volcanic Regions","last_eruption_year":1933,"evidence_category":"Eruption Observed","source":"Smithsonian GVP"}},{"type":"Feature","geometry":{"type":"Point","coordinates":[-70.492,-36.058]},"properties":{"name":"Maule, Laguna del","classification":"potentially_active","elevation":2162,"country":"Chile","region":"South America Volcanic Regions","last_eruption_year":-50,"evidence_category":"Eruption Dated","source":"Smithsonian GVP"}},{"type":"Feature","geometry":{"type":"Point","coordinates":[-70.849,-35.989]},"properties":{"name":"San Pedro-Pellado","classification":"potentially_active","elevation":3621,"country":"Chile","region":"South America Volcanic Regions","last_eruption_year":null,"evidence_category":"Evidence Credible","source":"Smithsonian GVP"}},{"type":"Feature","geometry":{"type":"Point","coordinates":[-71.1641,-36.1959]},"properties":{"name":"Longavi, Nevado de","classification":"potentially_active","elevation":3175,"country":"Chile","region":"South America Volcanic Regions","last_eruption_year":-4890,"evidence_category":"Eruption Dated","source":"Smithsonian GVP"}},{"type":"Feature","geometry":{"type":"Point","coordinates":[-71.009,-36.286]},"properties":{"name":"Blancas, Lomas","classification":"potentially_active","elevation":2268,"country":"Chile","region":"South America Volcanic Regions","last_eruption_year":null,"evidence_category":"Evidence Credible","source":"Smithsonian GVP"}},{"type":"Feature","geometry":{"type":"Point","coordinates":[-70.9033,-36.4606]},"properties":{"name":"Resago, Volcan","classification":"potentially_active","elevation":1890,"country":"Chile","region":"South America Volcanic Regions","last_eruption_year":null,"evidence_category":"Evidence Credible","source":"Smithsonian GVP"}},{"type":"Feature","geometry":{"type":"Point","coordinates":[-69.241,-36.422]},"properties":{"name":"Payun Matru","classification":"potentially_active","elevation":3715,"country":"Argentina","region":"South America Volcanic Regions","last_eruption_year":-5050,"evidence_category":"Eruption Dated","source":"Smithsonian GVP"}},{"type":"Feature","geometry":{"type":"Point","coordinates":[-70.761,-35.653]},"properties":{"name":"Azul, Cerro","classification":"active","elevation":3788,"country":"Chile","region":"South America Volcanic Regions","last_eruption_year":1967,"evidence_category":"Eruption Observed","source":"Smithsonian GVP"}},{"type":"Feature","geometry":{"type":"Point","coordinates":[-70.033,-37.144]},"properties":{"name":"Tromen Volcanic Plateau","classification":"active","elevation":4114,"country":"Argentina","region":"South America Volcanic Regions","last_eruption_year":1822,"evidence_category":"Eruption Observed","source":"Smithsonian GVP"}},{"type":"Feature","geometry":{"type":"Point","coordinates":[-71.378,-36.868]},"properties":{"name":"Chillan, Nevados de","classification":"active","elevation":3180,"country":"Chile","region":"South America Volcanic Regions","last_eruption_year":2022,"evidence_category":"Eruption Observed","source":"Smithsonian GVP"}},{"type":"Feature","geometry":{"type":"Point","coordinates":[-71.349,-37.406]},"properties":{"name":"Antuco","classification":"active","elevation":2979,"country":"Chile","region":"South America Volcanic Regions","last_eruption_year":1869,"evidence_category":"Eruption Observed","source":"Smithsonian GVP"}},{"type":"Feature","geometry":{"type":"Point","coordinates":[-71.4464,-37.9276]},"properties":{"name":"Callaqui","classification":"active","elevation":3099,"country":"Chile","region":"South America Volcanic Regions","last_eruption_year":1980,"evidence_category":"Eruption Observed","source":"Smithsonian GVP"}},{"type":"Feature","geometry":{"type":"Point","coordinates":[-71.645,-38.31]},"properties":{"name":"Tolhuaca","classification":"potentially_active","elevation":2739,"country":"Chile","region":"South America Volcanic Regions","last_eruption_year":-4000,"evidence_category":"Evidence Credible","source":"Smithsonian GVP"}},{"type":"Feature","geometry":{"type":"Point","coordinates":[-71.183,-37.856]},"properties":{"name":"Copahue","classification":"active","elevation":2953,"country":"Chile-Argentina","region":"South America Volcanic Regions","last_eruption_year":2024,"evidence_category":"Eruption Observed","source":"Smithsonian GVP"}},{"type":"Feature","geometry":{"type":"Point","coordinates":[-70.37,-39.02]},"properties":{"name":"Blanca, Laguna","classification":"potentially_active","elevation":1700,"country":"Argentina","region":"South America Volcanic Regions","last_eruption_year":null,"evidence_category":"Evidence Credible","source":"Smithsonian GVP"}},{"type":"Feature","geometry":{"type":"Point","coordinates":[-71.586,-38.379]},"properties":{"name":"Lonquimay","classification":"active","elevation":2832,"country":"Chile","region":"South America Volcanic Regions","last_eruption_year":1990,"evidence_category":"Eruption Observed","source":"Smithsonian GVP"}},{"type":"Feature","geometry":{"type":"Point","coordinates":[-71.52,-38.97]},"properties":{"name":"Sollipulli","classification":"potentially_active","elevation":2282,"country":"Chile","region":"South America Volcanic Regions","last_eruption_year":1240,"evidence_category":"Eruption Dated","source":"Smithsonian GVP"}},{"type":"Feature","geometry":{"type":"Point","coordinates":[-71.75,-39.25]},"properties":{"name":"Caburgua-Huelemolle","classification":"potentially_active","elevation":1652,"country":"Chile","region":"South America Volcanic Regions","last_eruption_year":-5050,"evidence_category":"Eruption Dated","source":"Smithsonian GVP"}},{"type":"Feature","geometry":{"type":"Point","coordinates":[-71.729,-38.692]},"properties":{"name":"Llaima","classification":"active","elevation":3125,"country":"Chile","region":"South America Volcanic Regions","last_eruption_year":2009,"evidence_category":"Eruption Observed","source":"Smithsonian GVP"}},{"type":"Feature","geometry":{"type":"Point","coordinates":[-71.722,-39.496]},"properties":{"name":"Quetrupillan","classification":"potentially_active","elevation":2360,"country":"Chile","region":"South America Volcanic Regions","last_eruption_year":255,"evidence_category":"Eruption Dated","source":"Smithsonian GVP"}},{"type":"Feature","geometry":{"type":"Point","coordinates":[-71.502,-39.637]},"properties":{"name":"Lanin","classification":"potentially_active","elevation":3776,"country":"Chile-Argentina","region":"South America Volcanic Regions","last_eruption_year":560,"evidence_category":"Eruption Dated","source":"Smithsonian GVP"}},{"type":"Feature","geometry":{"type":"Point","coordinates":[-71.58,-39.887]},"properties":{"name":"Huanquihue Group","classification":"potentially_active","elevation":2189,"country":"Argentina","region":"South America Volcanic Regions","last_eruption_year":1750,"evidence_category":"Eruption Dated","source":"Smithsonian GVP"}},{"type":"Feature","geometry":{"type":"Point","coordinates":[-71.93,-39.42]},"properties":{"name":"Villarrica","classification":"active","elevation":2847,"country":"Chile","region":"South America Volcanic Regions","last_eruption_year":2025,"evidence_category":"Eruption Observed","source":"Smithsonian GVP"}},{"type":"Feature","geometry":{"type":"Point","coordinates":[-72.027,-39.927]},"properties":{"name":"Mocho-Choshuenco","classification":"active","elevation":2422,"country":"Chile","region":"South America Volcanic Regions","last_eruption_year":1937,"evidence_category":"Eruption Observed","source":"Smithsonian GVP"}},{"type":"Feature","geometry":{"type":"Point","coordinates":[-72.07,-40.35]},"properties":{"name":"Carran-Los Venados","classification":"active","elevation":1114,"country":"Chile","region":"South America Volcanic Regions","last_eruption_year":1979,"evidence_category":"Eruption Observed","source":"Smithsonian GVP"}},{"type":"Feature","geometry":{"type":"Point","coordinates":[-72.15,-40.783]},"properties":{"name":"Antillanca Volcanic Complex","classification":"potentially_active","elevation":1979,"country":"Chile","region":"South America Volcanic Regions","last_eruption_year":-230,"evidence_category":"Eruption Dated","source":"Smithsonian GVP"}},{"type":"Feature","geometry":{"type":"Point","coordinates":[-72.117,-40.59]},"properties":{"name":"Puyehue-Cordon Caulle","classification":"active","elevation":2236,"country":"Chile","region":"South America Volcanic Regions","last_eruption_year":2012,"evidence_category":"Eruption Observed","source":"Smithsonian GVP"}},{"type":"Feature","geometry":{"type":"Point","coordinates":[-72.264,-40.969]},"properties":{"name":"Puntiagudo-Cordon Cenizos","classification":"active","elevation":2493,"country":"Chile","region":"South America Volcanic Regions","last_eruption_year":1850,"evidence_category":"Eruption Observed","source":"Smithsonian GVP"}},{"type":"Feature","geometry":{"type":"Point","coordinates":[-71.885,-41.157]},"properties":{"name":"Tronador","classification":"dormant","elevation":3478,"country":"Chile-Argentina","region":"South America Volcanic Regions","last_eruption_year":null,"evidence_category":"Evidence Uncertain","source":"Smithsonian GVP"}},{"type":"Feature","geometry":{"type":"Point","coordinates":[-72.27,-41.3]},"properties":{"name":"Cayutue-La Vigueria","classification":"potentially_active","elevation":506,"country":"Chile","region":"South America Volcanic Regions","last_eruption_year":-190,"evidence_category":"Eruption Dated","source":"Smithsonian GVP"}},{"type":"Feature","geometry":{"type":"Point","coordinates":[-72.496,-41.105]},"properties":{"name":"Osorno","classification":"active","elevation":2659,"country":"Chile","region":"South America Volcanic Regions","last_eruption_year":1869,"evidence_category":"Eruption Observed","source":"Smithsonian GVP"}},{"type":"Feature","geometry":{"type":"Point","coordinates":[-72.396,-41.755]},"properties":{"name":"Yate","classification":"potentially_active","elevation":2187,"country":"Chile","region":"South America Volcanic Regions","last_eruption_year":1090,"evidence_category":"Eruption Dated","source":"Smithsonian GVP"}},{"type":"Feature","geometry":{"type":"Point","coordinates":[-72.431,-41.874]},"properties":{"name":"Hornopiren","classification":"potentially_active","elevation":1572,"country":"Chile","region":"South America Volcanic Regions","last_eruption_year":340,"evidence_category":"Eruption Dated","source":"Smithsonian GVP"}},{"type":"Feature","geometry":{"type":"Point","coordinates":[-72.58,-41.88]},"properties":{"name":"Apagado","classification":"potentially_active","elevation":1210,"country":"Chile","region":"South America Volcanic Regions","last_eruption_year":-590,"evidence_category":"Eruption Dated","source":"Smithsonian GVP"}},{"type":"Feature","geometry":{"type":"Point","coordinates":[-70.194,-42.018]},"properties":{"name":"Crater Basalt Volcanic Field","classification":"potentially_active","elevation":1344,"country":"Argentina","region":"South America Volcanic Regions","last_eruption_year":null,"evidence_category":"Evidence Credible","source":"Smithsonian GVP"}},{"type":"Feature","geometry":{"type":"Point","coordinates":[-72.618,-41.33]},"properties":{"name":"Calbuco","classification":"active","elevation":1974,"country":"Chile","region":"South America Volcanic Regions","last_eruption_year":2015,"evidence_category":"Eruption Observed","source":"Smithsonian GVP"}},{"type":"Feature","geometry":{"type":"Point","coordinates":[-72.578,-42.377]},"properties":{"name":"Huequi","classification":"active","elevation":1318,"country":"Chile","region":"South America Volcanic Regions","last_eruption_year":1920,"evidence_category":"Eruption Observed","source":"Smithsonian GVP"}},{"type":"Feature","geometry":{"type":"Point","coordinates":[-72.6514,-42.8349]},"properties":{"name":"Chaiten","classification":"active","elevation":1122,"country":"Chile","region":"South America Volcanic Regions","last_eruption_year":2011,"evidence_category":"Eruption Observed","source":"Smithsonian GVP"}},{"type":"Feature","geometry":{"type":"Point","coordinates":[-72.445,-42.799]},"properties":{"name":"Michinmahuida","classification":"active","elevation":2452,"country":"Chile","region":"South America Volcanic Regions","last_eruption_year":1835,"evidence_category":"Eruption Observed","source":"Smithsonian GVP"}},{"type":"Feature","geometry":{"type":"Point","coordinates":[-72.782,-43.469]},"properties":{"name":"Yanteles","classification":"potentially_active","elevation":1790,"country":"Chile","region":"South America Volcanic Regions","last_eruption_year":-6650,"evidence_category":"Eruption Dated","source":"Smithsonian GVP"}},{"type":"Feature","geometry":{"type":"Point","coordinates":[-72.88,-44.08]},"properties":{"name":"Melimoyu","classification":"potentially_active","elevation":2400,"country":"Chile","region":"South America Volcanic Regions","last_eruption_year":200,"evidence_category":"Eruption Dated","source":"Smithsonian GVP"}},{"type":"Feature","geometry":{"type":"Point","coordinates":[-72.53,-44.3]},"properties":{"name":"Puyuhuapi","classification":"potentially_active","elevation":524,"country":"Chile","region":"South America Volcanic Regions","last_eruption_year":null,"evidence_category":"Evidence Credible","source":"Smithsonian GVP"}},{"type":"Feature","geometry":{"type":"Point","coordinates":[-73.0767,-44.6931]},"properties":{"name":"Mentolat","classification":"active","elevation":1603,"country":"Chile","region":"South America Volcanic Regions","last_eruption_year":1710,"evidence_category":"Eruption Observed","source":"Smithsonian GVP"}},{"type":"Feature","geometry":{"type":"Point","coordinates":[-72.984,-45.059]},"properties":{"name":"Cay","classification":"dormant","elevation":2090,"country":"Chile","region":"South America Volcanic Regions","last_eruption_year":null,"evidence_category":"Evidence Uncertain","source":"Smithsonian GVP"}},{"type":"Feature","geometry":{"type":"Point","coordinates":[-73.17,-45.1]},"properties":{"name":"Maca","classification":"potentially_active","elevation":2960,"country":"Chile","region":"South America Volcanic Regions","last_eruption_year":1560,"evidence_category":"Eruption Dated","source":"Smithsonian GVP"}},{"type":"Feature","geometry":{"type":"Point","coordinates":[-72.97,-45.9]},"properties":{"name":"Hudson, Cerro","classification":"active","elevation":1905,"country":"Chile","region":"South America Volcanic Regions","last_eruption_year":2011,"evidence_category":"Eruption Observed","source":"Smithsonian GVP"}},{"type":"Feature","geometry":{"type":"Point","coordinates":[-72.794,-43.189]},"properties":{"name":"Corcovado","classification":"potentially_active","elevation":1826,"country":"Chile","region":"South America Volcanic Regions","last_eruption_year":-4920,"evidence_category":"Eruption Dated","source":"Smithsonian GVP"}},{"type":"Feature","geometry":{"type":"Point","coordinates":[-73.75,-50.33]},"properties":{"name":"Aguilera","classification":"potentially_active","elevation":2546,"country":"Chile","region":"South America Volcanic Regions","last_eruption_year":-1253,"evidence_category":"Eruption Dated","source":"Smithsonian GVP"}},{"type":"Feature","geometry":{"type":"Point","coordinates":[-73.5802,-50.9395]},"properties":{"name":"Reclus","classification":"active","elevation":1403,"country":"Chile","region":"South America Volcanic Regions","last_eruption_year":1908,"evidence_category":"Eruption Observed","source":"Smithsonian GVP"}},{"type":"Feature","geometry":{"type":"Point","coordinates":[-73.504,-49.019]},"properties":{"name":"Lautaro","classification":"active","elevation":3542,"country":"Chile","region":"South America Volcanic Regions","last_eruption_year":1979,"evidence_category":"Eruption Observed","source":"Smithsonian GVP"}},{"type":"Feature","geometry":{"type":"Point","coordinates":[-73.4,-52.33]},"properties":{"name":"Burney, Monte","classification":"active","elevation":1758,"country":"Chile","region":"South America Volcanic Regions","last_eruption_year":1910,"evidence_category":"Eruption Observed","source":"Smithsonian GVP"}},{"type":"Feature","geometry":{"type":"Point","coordinates":[-69.698,-52.082]},"properties":{"name":"Pali-Aike Volcanic Field","classification":"potentially_active","elevation":282,"country":"Chile-Argentina","region":"South America Volcanic Regions","last_eruption_year":-5550,"evidence_category":"Eruption Dated","source":"Smithsonian GVP"}},{"type":"Feature","geometry":{"type":"Point","coordinates":[-70.262,-54.97]},"properties":{"name":"Fueguino","classification":"active","elevation":157,"country":"Chile","region":"South America Volcanic Regions","last_eruption_year":1820,"evidence_category":"Eruption Observed","source":"Smithsonian GVP"}},{"type":"Feature","geometry":{"type":"Point","coordinates":[-73.05,-45.22]},"properties":{"name":"Meullin","classification":"potentially_active","elevation":1080,"country":"Chile","region":"South America Volcanic Regions","last_eruption_year":null,"evidence_category":"Evidence Credible","source":"Smithsonian GVP"}}],"metadata":{"source":"Smithsonian Global Volcanism Program","layer_id":"south-america","feature_count":152}}