{"type":"FeatureCollection","features":[{"type":"Feature","geometry":{"type":"Point","coordinates":[93.858,12.278]},"properties":{"name":"Barren Island","classification":"active","elevation":354,"country":"India","region":"Sunda-Banda Volcanic Regions","last_eruption_year":2026,"evidence_category":"Eruption Observed","source":"Smithsonian GVP"}},{"type":"Feature","geometry":{"type":"Point","coordinates":[96.289,4.903]},"properties":{"name":"Peuet Sague","classification":"active","elevation":2785,"country":"Indonesia","region":"Sunda-Banda Volcanic Regions","last_eruption_year":2000,"evidence_category":"Eruption Observed","source":"Smithsonian GVP"}},{"type":"Feature","geometry":{"type":"Point","coordinates":[96.821,4.769]},"properties":{"name":"Telong, Bur ni","classification":"active","elevation":2617,"country":"Indonesia","region":"Sunda-Banda Volcanic Regions","last_eruption_year":1937,"evidence_category":"Eruption Observed","source":"Smithsonian GVP"}},{"type":"Feature","geometry":{"type":"Point","coordinates":[98.5127,3.2379]},"properties":{"name":"Singkut","classification":"active","elevation":2181,"country":"Indonesia","region":"Sunda-Banda Volcanic Regions","last_eruption_year":1881,"evidence_category":"Eruption Observed","source":"Smithsonian GVP"}},{"type":"Feature","geometry":{"type":"Point","coordinates":[98.392,3.17]},"properties":{"name":"Sinabung","classification":"active","elevation":2460,"country":"Indonesia","region":"Sunda-Banda Volcanic Regions","last_eruption_year":2021,"evidence_category":"Eruption Observed","source":"Smithsonian GVP"}},{"type":"Feature","geometry":{"type":"Point","coordinates":[99.6628,0.4756]},"properties":{"name":"Malintang","classification":"potentially_active","elevation":1988,"country":"Indonesia","region":"Sunda-Banda Volcanic Regions","last_eruption_year":null,"evidence_category":"Evidence Credible","source":"Smithsonian GVP"}},{"type":"Feature","geometry":{"type":"Point","coordinates":[99.5409,0.6834]},"properties":{"name":"Sorikmarapi","classification":"active","elevation":2145,"country":"Indonesia","region":"Sunda-Banda Volcanic Regions","last_eruption_year":1986,"evidence_category":"Eruption Observed","source":"Smithsonian GVP"}},{"type":"Feature","geometry":{"type":"Point","coordinates":[99.984,0.0787]},"properties":{"name":"Talakmau","classification":"potentially_active","elevation":2911,"country":"Indonesia","region":"Sunda-Banda Volcanic Regions","last_eruption_year":null,"evidence_category":"Evidence Credible","source":"Smithsonian GVP"}},{"type":"Feature","geometry":{"type":"Point","coordinates":[100.474,-0.38]},"properties":{"name":"Marapi","classification":"active","elevation":2885,"country":"Indonesia","region":"Sunda-Banda Volcanic Regions","last_eruption_year":2026,"evidence_category":"Eruption Observed","source":"Smithsonian GVP"}},{"type":"Feature","geometry":{"type":"Point","coordinates":[100.3192,-0.4311]},"properties":{"name":"Tandikat-Singgalang","classification":"active","elevation":2879,"country":"Indonesia","region":"Sunda-Banda Volcanic Regions","last_eruption_year":1924,"evidence_category":"Eruption Observed","source":"Smithsonian GVP"}},{"type":"Feature","geometry":{"type":"Point","coordinates":[100.681,-0.979]},"properties":{"name":"Talang","classification":"active","elevation":2575,"country":"Indonesia","region":"Sunda-Banda Volcanic Regions","last_eruption_year":2007,"evidence_category":"Eruption Observed","source":"Smithsonian GVP"}},{"type":"Feature","geometry":{"type":"Point","coordinates":[101.264,-1.697]},"properties":{"name":"Kerinci","classification":"active","elevation":3800,"country":"Indonesia","region":"Sunda-Banda Volcanic Regions","last_eruption_year":2024,"evidence_category":"Eruption Observed","source":"Smithsonian GVP"}},{"type":"Feature","geometry":{"type":"Point","coordinates":[101.728,-2.414]},"properties":{"name":"Sumbing","classification":"active","elevation":2507,"country":"Indonesia","region":"Sunda-Banda Volcanic Regions","last_eruption_year":1921,"evidence_category":"Eruption Observed","source":"Smithsonian GVP"}},{"type":"Feature","geometry":{"type":"Point","coordinates":[102.6261,-3.5156]},"properties":{"name":"Kaba","classification":"active","elevation":1962,"country":"Indonesia","region":"Sunda-Banda Volcanic Regions","last_eruption_year":2000,"evidence_category":"Eruption Observed","source":"Smithsonian GVP"}},{"type":"Feature","geometry":{"type":"Point","coordinates":[103.306,-4.257]},"properties":{"name":"Patah","classification":"active","elevation":2836,"country":"Indonesia","region":"Sunda-Banda Volcanic Regions","last_eruption_year":null,"evidence_category":"Unrest / Holocene","source":"Smithsonian GVP"}},{"type":"Feature","geometry":{"type":"Point","coordinates":[103.121,-4.016]},"properties":{"name":"Dempo","classification":"active","elevation":3142,"country":"Indonesia","region":"Sunda-Banda Volcanic Regions","last_eruption_year":2025,"evidence_category":"Eruption Observed","source":"Smithsonian GVP"}},{"type":"Feature","geometry":{"type":"Point","coordinates":[103.925,-4.871]},"properties":{"name":"Ranau","classification":"dormant","elevation":1854,"country":"Indonesia","region":"Sunda-Banda Volcanic Regions","last_eruption_year":null,"evidence_category":"Evidence Uncertain","source":"Smithsonian GVP"}},{"type":"Feature","geometry":{"type":"Point","coordinates":[104.27,-5.25]},"properties":{"name":"Suoh","classification":"active","elevation":1000,"country":"Indonesia","region":"Sunda-Banda Volcanic Regions","last_eruption_year":2024,"evidence_category":"Eruption Observed","source":"Smithsonian GVP"}},{"type":"Feature","geometry":{"type":"Point","coordinates":[105.4233,-6.1009]},"properties":{"name":"Krakatau","classification":"active","elevation":285,"country":"Indonesia","region":"Sunda-Banda Volcanic Regions","last_eruption_year":2024,"evidence_category":"Eruption Observed","source":"Smithsonian GVP"}},{"type":"Feature","geometry":{"type":"Point","coordinates":[105.978,-6.343]},"properties":{"name":"Pulosari","classification":"potentially_active","elevation":1324,"country":"Indonesia","region":"Sunda-Banda Volcanic Regions","last_eruption_year":null,"evidence_category":"Evidence Credible","source":"Smithsonian GVP"}},{"type":"Feature","geometry":{"type":"Point","coordinates":[106.05,-6.268]},"properties":{"name":"Karang","classification":"dormant","elevation":1768,"country":"Indonesia","region":"Sunda-Banda Volcanic Regions","last_eruption_year":null,"evidence_category":"Evidence Uncertain","source":"Smithsonian GVP"}},{"type":"Feature","geometry":{"type":"Point","coordinates":[106.675,-6.75]},"properties":{"name":"Perbakti-Gagak","classification":"active","elevation":1726,"country":"Indonesia","region":"Sunda-Banda Volcanic Regions","last_eruption_year":1939,"evidence_category":"Eruption Observed","source":"Smithsonian GVP"}},{"type":"Feature","geometry":{"type":"Point","coordinates":[106.733,-6.716]},"properties":{"name":"Salak","classification":"active","elevation":2218,"country":"Indonesia","region":"Sunda-Banda Volcanic Regions","last_eruption_year":1938,"evidence_category":"Eruption Observed","source":"Smithsonian GVP"}},{"type":"Feature","geometry":{"type":"Point","coordinates":[106.983,-6.786]},"properties":{"name":"Gede-Pangrango","classification":"active","elevation":3026,"country":"Indonesia","region":"Sunda-Banda Volcanic Regions","last_eruption_year":1957,"evidence_category":"Eruption Observed","source":"Smithsonian GVP"}},{"type":"Feature","geometry":{"type":"Point","coordinates":[107.4,-7.162]},"properties":{"name":"Patuha","classification":"potentially_active","elevation":2422,"country":"Indonesia","region":"Sunda-Banda Volcanic Regions","last_eruption_year":null,"evidence_category":"Evidence Credible","source":"Smithsonian GVP"}},{"type":"Feature","geometry":{"type":"Point","coordinates":[107.6,-6.77]},"properties":{"name":"Tangkuban Parahu","classification":"active","elevation":2084,"country":"Indonesia","region":"Sunda-Banda Volcanic Regions","last_eruption_year":2019,"evidence_category":"Eruption Observed","source":"Smithsonian GVP"}},{"type":"Feature","geometry":{"type":"Point","coordinates":[107.7306,-7.3175]},"properties":{"name":"Papandayan","classification":"active","elevation":2643,"country":"Indonesia","region":"Sunda-Banda Volcanic Regions","last_eruption_year":2002,"evidence_category":"Eruption Observed","source":"Smithsonian GVP"}},{"type":"Feature","geometry":{"type":"Point","coordinates":[107.9612,-6.7639]},"properties":{"name":"Tampomas","classification":"potentially_active","elevation":1690,"country":"Indonesia","region":"Sunda-Banda Volcanic Regions","last_eruption_year":null,"evidence_category":"Evidence Credible","source":"Smithsonian GVP"}},{"type":"Feature","geometry":{"type":"Point","coordinates":[107.841,-7.143]},"properties":{"name":"Guntur","classification":"active","elevation":2251,"country":"Indonesia","region":"Sunda-Banda Volcanic Regions","last_eruption_year":1847,"evidence_category":"Eruption Observed","source":"Smithsonian GVP"}},{"type":"Feature","geometry":{"type":"Point","coordinates":[108.058,-7.25]},"properties":{"name":"Galunggung","classification":"active","elevation":2168,"country":"Indonesia","region":"Sunda-Banda Volcanic Regions","last_eruption_year":1984,"evidence_category":"Eruption Observed","source":"Smithsonian GVP"}},{"type":"Feature","geometry":{"type":"Point","coordinates":[108.07,-7.208]},"properties":{"name":"Talagabodas","classification":"active","elevation":2201,"country":"Indonesia","region":"Sunda-Banda Volcanic Regions","last_eruption_year":null,"evidence_category":"Unrest / Holocene","source":"Smithsonian GVP"}},{"type":"Feature","geometry":{"type":"Point","coordinates":[108.408,-6.895]},"properties":{"name":"Ciremai","classification":"active","elevation":3039,"country":"Indonesia","region":"Sunda-Banda Volcanic Regions","last_eruption_year":1951,"evidence_category":"Eruption Observed","source":"Smithsonian GVP"}},{"type":"Feature","geometry":{"type":"Point","coordinates":[109.208,-7.242]},"properties":{"name":"Slamet","classification":"active","elevation":3428,"country":"Indonesia","region":"Sunda-Banda Volcanic Regions","last_eruption_year":2014,"evidence_category":"Eruption Observed","source":"Smithsonian GVP"}},{"type":"Feature","geometry":{"type":"Point","coordinates":[109.879,-7.2]},"properties":{"name":"Dieng Volcanic Complex","classification":"active","elevation":2565,"country":"Indonesia","region":"Sunda-Banda Volcanic Regions","last_eruption_year":2025,"evidence_category":"Eruption Observed","source":"Smithsonian GVP"}},{"type":"Feature","geometry":{"type":"Point","coordinates":[109.997,-7.3014]},"properties":{"name":"Sundoro","classification":"active","elevation":3149,"country":"Indonesia","region":"Sunda-Banda Volcanic Regions","last_eruption_year":1971,"evidence_category":"Eruption Observed","source":"Smithsonian GVP"}},{"type":"Feature","geometry":{"type":"Point","coordinates":[110.0747,-7.3819]},"properties":{"name":"Sumbing","classification":"active","elevation":3370,"country":"Indonesia","region":"Sunda-Banda Volcanic Regions","last_eruption_year":1730,"evidence_category":"Eruption Observed","source":"Smithsonian GVP"}},{"type":"Feature","geometry":{"type":"Point","coordinates":[110.44,-7.454]},"properties":{"name":"Merbabu","classification":"active","elevation":3118,"country":"Indonesia","region":"Sunda-Banda Volcanic Regions","last_eruption_year":1797,"evidence_category":"Eruption Observed","source":"Smithsonian GVP"}},{"type":"Feature","geometry":{"type":"Point","coordinates":[110.446,-7.54]},"properties":{"name":"Merapi","classification":"active","elevation":2910,"country":"Indonesia","region":"Sunda-Banda Volcanic Regions","last_eruption_year":2026,"evidence_category":"Eruption Observed","source":"Smithsonian GVP"}},{"type":"Feature","geometry":{"type":"Point","coordinates":[111.192,-7.625]},"properties":{"name":"Lawu","classification":"dormant","elevation":3265,"country":"Indonesia","region":"Sunda-Banda Volcanic Regions","last_eruption_year":null,"evidence_category":"Evidence Uncertain","source":"Smithsonian GVP"}},{"type":"Feature","geometry":{"type":"Point","coordinates":[112.45,-7.92]},"properties":{"name":"Kawi-Butak","classification":"potentially_active","elevation":2651,"country":"Indonesia","region":"Sunda-Banda Volcanic Regions","last_eruption_year":null,"evidence_category":"Evidence Credible","source":"Smithsonian GVP"}},{"type":"Feature","geometry":{"type":"Point","coordinates":[112.314,-7.935]},"properties":{"name":"Kelud","classification":"active","elevation":1730,"country":"Indonesia","region":"Sunda-Banda Volcanic Regions","last_eruption_year":2014,"evidence_category":"Eruption Observed","source":"Smithsonian GVP"}},{"type":"Feature","geometry":{"type":"Point","coordinates":[112.62,-7.616]},"properties":{"name":"Penanggungan","classification":"potentially_active","elevation":1631,"country":"Indonesia","region":"Sunda-Banda Volcanic Regions","last_eruption_year":null,"evidence_category":"Evidence Credible","source":"Smithsonian GVP"}},{"type":"Feature","geometry":{"type":"Point","coordinates":[112.575,-7.733]},"properties":{"name":"Arjuno-Welirang","classification":"active","elevation":3343,"country":"Indonesia","region":"Sunda-Banda Volcanic Regions","last_eruption_year":1952,"evidence_category":"Eruption Observed","source":"Smithsonian GVP"}},{"type":"Feature","geometry":{"type":"Point","coordinates":[112.922,-8.108]},"properties":{"name":"Semeru","classification":"active","elevation":3657,"country":"Indonesia","region":"Sunda-Banda Volcanic Regions","last_eruption_year":2026,"evidence_category":"Eruption Observed","source":"Smithsonian GVP"}},{"type":"Feature","geometry":{"type":"Point","coordinates":[112.95,-7.942]},"properties":{"name":"Tengger Caldera","classification":"active","elevation":2329,"country":"Indonesia","region":"Sunda-Banda Volcanic Regions","last_eruption_year":2023,"evidence_category":"Eruption Observed","source":"Smithsonian GVP"}},{"type":"Feature","geometry":{"type":"Point","coordinates":[113.341,-7.981]},"properties":{"name":"Lamongan","classification":"active","elevation":1641,"country":"Indonesia","region":"Sunda-Banda Volcanic Regions","last_eruption_year":1898,"evidence_category":"Eruption Observed","source":"Smithsonian GVP"}},{"type":"Feature","geometry":{"type":"Point","coordinates":[113.57,-7.97]},"properties":{"name":"Iyang-Argapura","classification":"potentially_active","elevation":3088,"country":"Indonesia","region":"Sunda-Banda Volcanic Regions","last_eruption_year":null,"evidence_category":"Evidence Credible","source":"Smithsonian GVP"}},{"type":"Feature","geometry":{"type":"Point","coordinates":[114.056,-8.119]},"properties":{"name":"Raung","classification":"active","elevation":3260,"country":"Indonesia","region":"Sunda-Banda Volcanic Regions","last_eruption_year":2025,"evidence_category":"Eruption Observed","source":"Smithsonian GVP"}},{"type":"Feature","geometry":{"type":"Point","coordinates":[114.37,-7.85]},"properties":{"name":"Baluran","classification":"dormant","elevation":1247,"country":"Indonesia","region":"Sunda-Banda Volcanic Regions","last_eruption_year":null,"evidence_category":"Evidence Uncertain","source":"Smithsonian GVP"}},{"type":"Feature","geometry":{"type":"Point","coordinates":[114.242,-8.058]},"properties":{"name":"Ijen","classification":"active","elevation":2769,"country":"Indonesia","region":"Sunda-Banda Volcanic Regions","last_eruption_year":1999,"evidence_category":"Eruption Observed","source":"Smithsonian GVP"}},{"type":"Feature","geometry":{"type":"Point","coordinates":[115.133,-8.283]},"properties":{"name":"Buyan-Bratan","classification":"potentially_active","elevation":2244,"country":"Indonesia","region":"Sunda-Banda Volcanic Regions","last_eruption_year":null,"evidence_category":"Evidence Credible","source":"Smithsonian GVP"}},{"type":"Feature","geometry":{"type":"Point","coordinates":[115.3775,-8.2403]},"properties":{"name":"Batur","classification":"active","elevation":1711,"country":"Indonesia","region":"Sunda-Banda Volcanic Regions","last_eruption_year":2000,"evidence_category":"Eruption Observed","source":"Smithsonian GVP"}},{"type":"Feature","geometry":{"type":"Point","coordinates":[115.508,-8.343]},"properties":{"name":"Agung","classification":"active","elevation":2997,"country":"Indonesia","region":"Sunda-Banda Volcanic Regions","last_eruption_year":2022,"evidence_category":"Eruption Observed","source":"Smithsonian GVP"}},{"type":"Feature","geometry":{"type":"Point","coordinates":[116.47,-8.42]},"properties":{"name":"Rinjani","classification":"active","elevation":3726,"country":"Indonesia","region":"Sunda-Banda Volcanic Regions","last_eruption_year":2016,"evidence_category":"Eruption Observed","source":"Smithsonian GVP"}},{"type":"Feature","geometry":{"type":"Point","coordinates":[118,-8.25]},"properties":{"name":"Tambora","classification":"active","elevation":2850,"country":"Indonesia","region":"Sunda-Banda Volcanic Regions","last_eruption_year":1967,"evidence_category":"Eruption Observed","source":"Smithsonian GVP"}},{"type":"Feature","geometry":{"type":"Point","coordinates":[119.07,-8.2]},"properties":{"name":"Sangeang Api","classification":"active","elevation":1912,"country":"Indonesia","region":"Sunda-Banda Volcanic Regions","last_eruption_year":2022,"evidence_category":"Eruption Observed","source":"Smithsonian GVP"}},{"type":"Feature","geometry":{"type":"Point","coordinates":[120.0074,-8.7345]},"properties":{"name":"Sano, Wai","classification":"potentially_active","elevation":1319,"country":"Indonesia","region":"Sunda-Banda Volcanic Regions","last_eruption_year":null,"evidence_category":"Evidence Credible","source":"Smithsonian GVP"}},{"type":"Feature","geometry":{"type":"Point","coordinates":[120.5302,-8.637]},"properties":{"name":"Ranakah","classification":"active","elevation":2288,"country":"Indonesia","region":"Sunda-Banda Volcanic Regions","last_eruption_year":1991,"evidence_category":"Eruption Observed","source":"Smithsonian GVP"}},{"type":"Feature","geometry":{"type":"Point","coordinates":[120.95,-8.875]},"properties":{"name":"Inierie","classification":"potentially_active","elevation":2245,"country":"Indonesia","region":"Sunda-Banda Volcanic Regions","last_eruption_year":-8050,"evidence_category":"Eruption Dated","source":"Smithsonian GVP"}},{"type":"Feature","geometry":{"type":"Point","coordinates":[120.98,-8.73]},"properties":{"name":"Inielika","classification":"active","elevation":1559,"country":"Indonesia","region":"Sunda-Banda Volcanic Regions","last_eruption_year":2001,"evidence_category":"Eruption Observed","source":"Smithsonian GVP"}},{"type":"Feature","geometry":{"type":"Point","coordinates":[121.191,-8.817]},"properties":{"name":"Ebulobo","classification":"active","elevation":2096,"country":"Indonesia","region":"Sunda-Banda Volcanic Regions","last_eruption_year":1969,"evidence_category":"Eruption Observed","source":"Smithsonian GVP"}},{"type":"Feature","geometry":{"type":"Point","coordinates":[121.641,-8.891]},"properties":{"name":"Iya","classification":"active","elevation":618,"country":"Indonesia","region":"Sunda-Banda Volcanic Regions","last_eruption_year":1969,"evidence_category":"Eruption Observed","source":"Smithsonian GVP"}},{"type":"Feature","geometry":{"type":"Point","coordinates":[121.82,-8.77]},"properties":{"name":"Kelimutu","classification":"active","elevation":1639,"country":"Indonesia","region":"Sunda-Banda Volcanic Regions","last_eruption_year":1968,"evidence_category":"Eruption Observed","source":"Smithsonian GVP"}},{"type":"Feature","geometry":{"type":"Point","coordinates":[121.708,-8.32]},"properties":{"name":"Paluweh","classification":"active","elevation":875,"country":"Indonesia","region":"Sunda-Banda Volcanic Regions","last_eruption_year":2013,"evidence_category":"Eruption Observed","source":"Smithsonian GVP"}},{"type":"Feature","geometry":{"type":"Point","coordinates":[122.455,-8.676]},"properties":{"name":"Egon","classification":"active","elevation":1661,"country":"Indonesia","region":"Sunda-Banda Volcanic Regions","last_eruption_year":2008,"evidence_category":"Eruption Observed","source":"Smithsonian GVP"}},{"type":"Feature","geometry":{"type":"Point","coordinates":[122.775,-8.542]},"properties":{"name":"Lewotobi","classification":"active","elevation":1703,"country":"Indonesia","region":"Sunda-Banda Volcanic Regions","last_eruption_year":2026,"evidence_category":"Eruption Observed","source":"Smithsonian GVP"}},{"type":"Feature","geometry":{"type":"Point","coordinates":[123.258,-8.342]},"properties":{"name":"Iliboleng","classification":"active","elevation":1659,"country":"Indonesia","region":"Sunda-Banda Volcanic Regions","last_eruption_year":1993,"evidence_category":"Eruption Observed","source":"Smithsonian GVP"}},{"type":"Feature","geometry":{"type":"Point","coordinates":[123.508,-8.274]},"properties":{"name":"Lewotolok","classification":"active","elevation":1431,"country":"Indonesia","region":"Sunda-Banda Volcanic Regions","last_eruption_year":2026,"evidence_category":"Eruption Observed","source":"Smithsonian GVP"}},{"type":"Feature","geometry":{"type":"Point","coordinates":[123.38,-8.55]},"properties":{"name":"Ililabalekan","classification":"active","elevation":1018,"country":"Indonesia","region":"Sunda-Banda Volcanic Regions","last_eruption_year":null,"evidence_category":"Unrest / Holocene","source":"Smithsonian GVP"}},{"type":"Feature","geometry":{"type":"Point","coordinates":[123.573,-8.532]},"properties":{"name":"Iliwerung","classification":"active","elevation":583,"country":"Indonesia","region":"Sunda-Banda Volcanic Regions","last_eruption_year":2021,"evidence_category":"Eruption Observed","source":"Smithsonian GVP"}},{"type":"Feature","geometry":{"type":"Point","coordinates":[123.585,-7.791]},"properties":{"name":"Tara, Batu","classification":"active","elevation":633,"country":"Indonesia","region":"Sunda-Banda Volcanic Regions","last_eruption_year":2015,"evidence_category":"Eruption Observed","source":"Smithsonian GVP"}},{"type":"Feature","geometry":{"type":"Point","coordinates":[124.1306,-8.4972]},"properties":{"name":"Sirung","classification":"active","elevation":1347,"country":"Indonesia","region":"Sunda-Banda Volcanic Regions","last_eruption_year":2021,"evidence_category":"Eruption Observed","source":"Smithsonian GVP"}},{"type":"Feature","geometry":{"type":"Point","coordinates":[128.675,-7.125]},"properties":{"name":"Wurlali","classification":"active","elevation":868,"country":"Indonesia","region":"Sunda-Banda Volcanic Regions","last_eruption_year":1892,"evidence_category":"Eruption Observed","source":"Smithsonian GVP"}},{"type":"Feature","geometry":{"type":"Point","coordinates":[129.144,-6.976]},"properties":{"name":"Teon","classification":"active","elevation":728,"country":"Indonesia","region":"Sunda-Banda Volcanic Regions","last_eruption_year":1904,"evidence_category":"Eruption Observed","source":"Smithsonian GVP"}},{"type":"Feature","geometry":{"type":"Point","coordinates":[129.5,-6.73]},"properties":{"name":"Nila","classification":"active","elevation":781,"country":"Indonesia","region":"Sunda-Banda Volcanic Regions","last_eruption_year":1968,"evidence_category":"Eruption Observed","source":"Smithsonian GVP"}},{"type":"Feature","geometry":{"type":"Point","coordinates":[130.017,-6.312]},"properties":{"name":"Serua","classification":"active","elevation":608,"country":"Indonesia","region":"Sunda-Banda Volcanic Regions","last_eruption_year":1921,"evidence_category":"Eruption Observed","source":"Smithsonian GVP"}},{"type":"Feature","geometry":{"type":"Point","coordinates":[130.303,-5.543]},"properties":{"name":"Manuk","classification":"active","elevation":257,"country":"Indonesia","region":"Sunda-Banda Volcanic Regions","last_eruption_year":null,"evidence_category":"Unrest / Holocene","source":"Smithsonian GVP"}},{"type":"Feature","geometry":{"type":"Point","coordinates":[129.881,-4.523]},"properties":{"name":"Banda Api","classification":"active","elevation":596,"country":"Indonesia","region":"Sunda-Banda Volcanic Regions","last_eruption_year":1988,"evidence_category":"Eruption Observed","source":"Smithsonian GVP"}}],"metadata":{"source":"Smithsonian Global Volcanism Program","layer_id":"sunda-banda","feature_count":78}}