{"type":"FeatureCollection","features":[{"type":"Feature","geometry":{"type":"Point","coordinates":[176.25,-37.28]},"properties":{"name":"Tuhua/Mayor Island","classification":"potentially_active","elevation":355,"country":"New Zealand","region":"Tonga-Kermadec Volcanic Regions","last_eruption_year":-5055,"evidence_category":"Eruption Dated","source":"Smithsonian GVP"}},{"type":"Feature","geometry":{"type":"Point","coordinates":[174.81,-36.89]},"properties":{"name":"Auckland Volcanic Field","classification":"potentially_active","elevation":260,"country":"New Zealand","region":"Tonga-Kermadec Volcanic Regions","last_eruption_year":1446,"evidence_category":"Eruption Dated","source":"Smithsonian GVP"}},{"type":"Feature","geometry":{"type":"Point","coordinates":[174.07,-39.3]},"properties":{"name":"Taranaki","classification":"active","elevation":2518,"country":"New Zealand","region":"Tonga-Kermadec Volcanic Regions","last_eruption_year":1800,"evidence_category":"Eruption Observed","source":"Smithsonian GVP"}},{"type":"Feature","geometry":{"type":"Point","coordinates":[177.18,-37.52]},"properties":{"name":"Whakaari/White Island","classification":"active","elevation":294,"country":"New Zealand","region":"Tonga-Kermadec Volcanic Regions","last_eruption_year":2026,"evidence_category":"Eruption Observed","source":"Smithsonian GVP"}},{"type":"Feature","geometry":{"type":"Point","coordinates":[176.5069,-38.1569]},"properties":{"name":"Okataina","classification":"active","elevation":1111,"country":"New Zealand","region":"Tonga-Kermadec Volcanic Regions","last_eruption_year":1981,"evidence_category":"Eruption Observed","source":"Smithsonian GVP"}},{"type":"Feature","geometry":{"type":"Point","coordinates":[175.893,-38.7811]},"properties":{"name":"Taupo","classification":"potentially_active","elevation":760,"country":"New Zealand","region":"Tonga-Kermadec Volcanic Regions","last_eruption_year":260,"evidence_category":"Eruption Dated","source":"Smithsonian GVP"}},{"type":"Feature","geometry":{"type":"Point","coordinates":[175.632,-39.157]},"properties":{"name":"Tongariro","classification":"active","elevation":1978,"country":"New Zealand","region":"Tonga-Kermadec Volcanic Regions","last_eruption_year":2012,"evidence_category":"Eruption Observed","source":"Smithsonian GVP"}},{"type":"Feature","geometry":{"type":"Point","coordinates":[177.839,-36.446]},"properties":{"name":"Clark","classification":"active","elevation":-860,"country":"New Zealand","region":"Tonga-Kermadec Volcanic Regions","last_eruption_year":null,"evidence_category":"Unrest / Holocene","source":"Smithsonian GVP"}},{"type":"Feature","geometry":{"type":"Point","coordinates":[178.028,-36.321]},"properties":{"name":"Tangaroa","classification":"active","elevation":-600,"country":"New Zealand","region":"Tonga-Kermadec Volcanic Regions","last_eruption_year":null,"evidence_category":"Unrest / Holocene","source":"Smithsonian GVP"}},{"type":"Feature","geometry":{"type":"Point","coordinates":[175.57,-39.28]},"properties":{"name":"Ruapehu","classification":"active","elevation":2797,"country":"New Zealand","region":"Tonga-Kermadec Volcanic Regions","last_eruption_year":2007,"evidence_category":"Eruption Observed","source":"Smithsonian GVP"}},{"type":"Feature","geometry":{"type":"Point","coordinates":[178.196,-36.142]},"properties":{"name":"Rumble V","classification":"active","elevation":-400,"country":"New Zealand","region":"Tonga-Kermadec Volcanic Regions","last_eruption_year":null,"evidence_category":"Unrest / Holocene","source":"Smithsonian GVP"}},{"type":"Feature","geometry":{"type":"Point","coordinates":[178.05,-36.13]},"properties":{"name":"Rumble IV","classification":"active","elevation":-500,"country":"New Zealand","region":"Tonga-Kermadec Volcanic Regions","last_eruption_year":null,"evidence_category":"Unrest / Holocene","source":"Smithsonian GVP"}},{"type":"Feature","geometry":{"type":"Point","coordinates":[178.478,-35.745]},"properties":{"name":"Rumble III","classification":"active","elevation":-220,"country":"New Zealand","region":"Tonga-Kermadec Volcanic Regions","last_eruption_year":2008,"evidence_category":"Eruption Observed","source":"Smithsonian GVP"}},{"type":"Feature","geometry":{"type":"Point","coordinates":[178.527,-35.353]},"properties":{"name":"Rumble II West","classification":"active","elevation":-1200,"country":"New Zealand","region":"Tonga-Kermadec Volcanic Regions","last_eruption_year":null,"evidence_category":"Unrest / Holocene","source":"Smithsonian GVP"}},{"type":"Feature","geometry":{"type":"Point","coordinates":[178.973,-35.004]},"properties":{"name":"Healy","classification":"potentially_active","elevation":-980,"country":"New Zealand","region":"Tonga-Kermadec Volcanic Regions","last_eruption_year":1360,"evidence_category":"Eruption Dated","source":"Smithsonian GVP"}},{"type":"Feature","geometry":{"type":"Point","coordinates":[179.0667,-34.875]},"properties":{"name":"Brothers","classification":"active","elevation":-1350,"country":"New Zealand","region":"Tonga-Kermadec Volcanic Regions","last_eruption_year":null,"evidence_category":"Unrest / Holocene","source":"Smithsonian GVP"}},{"type":"Feature","geometry":{"type":"Point","coordinates":[-179.18,-31.85]},"properties":{"name":"Wright","classification":"active","elevation":-900,"country":"New Zealand","region":"Tonga-Kermadec Volcanic Regions","last_eruption_year":null,"evidence_category":"Unrest / Holocene","source":"Smithsonian GVP"}},{"type":"Feature","geometry":{"type":"Point","coordinates":[-178.556,-30.543]},"properties":{"name":"Curtis Island","classification":"active","elevation":47,"country":"New Zealand","region":"Tonga-Kermadec Volcanic Regions","last_eruption_year":null,"evidence_category":"Unrest / Holocene","source":"Smithsonian GVP"}},{"type":"Feature","geometry":{"type":"Point","coordinates":[-178.475,-30.21]},"properties":{"name":"Macauley","classification":"potentially_active","elevation":238,"country":"New Zealand","region":"Tonga-Kermadec Volcanic Regions","last_eruption_year":-4360,"evidence_category":"Eruption Dated","source":"Smithsonian GVP"}},{"type":"Feature","geometry":{"type":"Point","coordinates":[-178.712,-30.036]},"properties":{"name":"Giggenbach","classification":"active","elevation":-65,"country":"New Zealand","region":"Tonga-Kermadec Volcanic Regions","last_eruption_year":null,"evidence_category":"Unrest / Holocene","source":"Smithsonian GVP"}},{"type":"Feature","geometry":{"type":"Point","coordinates":[-177.92,-29.27]},"properties":{"name":"Raoul Island","classification":"active","elevation":516,"country":"New Zealand","region":"Tonga-Kermadec Volcanic Regions","last_eruption_year":2006,"evidence_category":"Eruption Observed","source":"Smithsonian GVP"}},{"type":"Feature","geometry":{"type":"Point","coordinates":[-177.188,-25.887]},"properties":{"name":"Monowai","classification":"active","elevation":-132,"country":"New Zealand","region":"Tonga-Kermadec Volcanic Regions","last_eruption_year":2014,"evidence_category":"Eruption Observed","source":"Smithsonian GVP"}},{"type":"Feature","geometry":{"type":"Point","coordinates":[-177.02,-24.8]},"properties":{"name":"Kermadec Arc at 24.8\u00b0S","classification":"active","elevation":-385,"country":"Tonga","region":"Tonga-Kermadec Volcanic Regions","last_eruption_year":null,"evidence_category":"Unrest / Holocene","source":"Smithsonian GVP"}},{"type":"Feature","geometry":{"type":"Point","coordinates":[-175.75,-21.15]},"properties":{"name":"Tofua Arc at 21.1\u00b0S","classification":"potentially_active","elevation":-65,"country":"Tonga","region":"Tonga-Kermadec Volcanic Regions","last_eruption_year":null,"evidence_category":"Evidence Credible","source":"Smithsonian GVP"}},{"type":"Feature","geometry":{"type":"Point","coordinates":[-175.65,-21.338]},"properties":{"name":"Tofua Arc at 21.3\u00b0S","classification":"active","elevation":-68,"country":"Tonga","region":"Tonga-Kermadec Volcanic Regions","last_eruption_year":1932,"evidence_category":"Eruption Observed","source":"Smithsonian GVP"}},{"type":"Feature","geometry":{"type":"Point","coordinates":[-175.55,-20.852]},"properties":{"name":"Tofua Arc at 20.9\u00b0S","classification":"active","elevation":-296,"country":"Tonga","region":"Tonga-Kermadec Volcanic Regions","last_eruption_year":2017,"evidence_category":"Eruption Observed","source":"Smithsonian GVP"}},{"type":"Feature","geometry":{"type":"Point","coordinates":[-175.3841,-20.5532]},"properties":{"name":"Hunga Tonga-Hunga Ha'apai","classification":"active","elevation":114,"country":"Tonga","region":"Tonga-Kermadec Volcanic Regions","last_eruption_year":2022,"evidence_category":"Eruption Observed","source":"Smithsonian GVP"}},{"type":"Feature","geometry":{"type":"Point","coordinates":[-175.42,-20.32]},"properties":{"name":"Fonuafo'ou","classification":"active","elevation":-17,"country":"Tonga","region":"Tonga-Kermadec Volcanic Regions","last_eruption_year":1936,"evidence_category":"Eruption Observed","source":"Smithsonian GVP"}},{"type":"Feature","geometry":{"type":"Point","coordinates":[-175.016,-19.668]},"properties":{"name":"Kao","classification":"active","elevation":1009,"country":"Tonga","region":"Tonga-Kermadec Volcanic Regions","last_eruption_year":1847,"evidence_category":"Eruption Observed","source":"Smithsonian GVP"}},{"type":"Feature","geometry":{"type":"Point","coordinates":[-175.07,-19.75]},"properties":{"name":"Tofua","classification":"active","elevation":515,"country":"Tonga","region":"Tonga-Kermadec Volcanic Regions","last_eruption_year":2026,"evidence_category":"Eruption Observed","source":"Smithsonian GVP"}},{"type":"Feature","geometry":{"type":"Point","coordinates":[-174.87,-19.18]},"properties":{"name":"Lateiki","classification":"active","elevation":43,"country":"Tonga","region":"Tonga-Kermadec Volcanic Regions","last_eruption_year":2019,"evidence_category":"Eruption Observed","source":"Smithsonian GVP"}},{"type":"Feature","geometry":{"type":"Point","coordinates":[-174.775,-18.992]},"properties":{"name":"Home Reef","classification":"active","elevation":-10,"country":"Tonga","region":"Tonga-Kermadec Volcanic Regions","last_eruption_year":2026,"evidence_category":"Eruption Observed","source":"Smithsonian GVP"}},{"type":"Feature","geometry":{"type":"Point","coordinates":[-174.365,-18.325]},"properties":{"name":"Tofua Arc at 18.3\u00b0S","classification":"active","elevation":-40,"country":"Tonga","region":"Tonga-Kermadec Volcanic Regions","last_eruption_year":2019,"evidence_category":"Eruption Observed","source":"Smithsonian GVP"}},{"type":"Feature","geometry":{"type":"Point","coordinates":[-174.65,-18.806]},"properties":{"name":"Late","classification":"active","elevation":540,"country":"Tonga","region":"Tonga-Kermadec Volcanic Regions","last_eruption_year":1854,"evidence_category":"Eruption Observed","source":"Smithsonian GVP"}},{"type":"Feature","geometry":{"type":"Point","coordinates":[-173.747,-15.854]},"properties":{"name":"Tafahi","classification":"dormant","elevation":546,"country":"Tonga","region":"Tonga-Kermadec Volcanic Regions","last_eruption_year":null,"evidence_category":"Evidence Uncertain","source":"Smithsonian GVP"}},{"type":"Feature","geometry":{"type":"Point","coordinates":[-173.67,-15.62]},"properties":{"name":"Curacoa","classification":"active","elevation":-33,"country":"Tonga","region":"Tonga-Kermadec Volcanic Regions","last_eruption_year":1979,"evidence_category":"Eruption Observed","source":"Smithsonian GVP"}},{"type":"Feature","geometry":{"type":"Point","coordinates":[-174.317,-18.023]},"properties":{"name":"Fonualei","classification":"active","elevation":188,"country":"Tonga","region":"Tonga-Kermadec Volcanic Regions","last_eruption_year":1957,"evidence_category":"Eruption Observed","source":"Smithsonian GVP"}},{"type":"Feature","geometry":{"type":"Point","coordinates":[-175.63,-15.6]},"properties":{"name":"Niuafo'ou","classification":"active","elevation":260,"country":"Tonga","region":"Tonga-Kermadec Volcanic Regions","last_eruption_year":1946,"evidence_category":"Eruption Observed","source":"Smithsonian GVP"}},{"type":"Feature","geometry":{"type":"Point","coordinates":[-174.23,-15.37]},"properties":{"name":"Tafu-Maka","classification":"active","elevation":-1400,"country":"Tonga","region":"Tonga-Kermadec Volcanic Regions","last_eruption_year":2008,"evidence_category":"Eruption Observed","source":"Smithsonian GVP"}},{"type":"Feature","geometry":{"type":"Point","coordinates":[-173.75,-15.1]},"properties":{"name":"West Mata","classification":"active","elevation":-1174,"country":"Tonga","region":"Tonga-Kermadec Volcanic Regions","last_eruption_year":2009,"evidence_category":"Eruption Observed","source":"Smithsonian GVP"}},{"type":"Feature","geometry":{"type":"Point","coordinates":[-179.033,-31.08]},"properties":{"name":"Havre Seamount","classification":"active","elevation":-897,"country":"New Zealand","region":"Tonga-Kermadec Volcanic Regions","last_eruption_year":2012,"evidence_category":"Eruption Observed","source":"Smithsonian GVP"}},{"type":"Feature","geometry":{"type":"Point","coordinates":[-174.0028,-15.3675]},"properties":{"name":"Niuatahi","classification":"active","elevation":-1270,"country":"Tonga","region":"Tonga-Kermadec Volcanic Regions","last_eruption_year":null,"evidence_category":"Unrest / Holocene","source":"Smithsonian GVP"}},{"type":"Feature","geometry":{"type":"Point","coordinates":[-175.725,-15.431]},"properties":{"name":"Dugong","classification":"dormant","elevation":-1170,"country":"Tonga","region":"Tonga-Kermadec Volcanic Regions","last_eruption_year":null,"evidence_category":"Evidence Uncertain","source":"Smithsonian GVP"}},{"type":"Feature","geometry":{"type":"Point","coordinates":[-176.283,-15.333]},"properties":{"name":"Lobster","classification":"dormant","elevation":-1500,"country":"Tonga","region":"Tonga-Kermadec Volcanic Regions","last_eruption_year":null,"evidence_category":"Evidence Uncertain","source":"Smithsonian GVP"}}],"metadata":{"source":"Smithsonian Global Volcanism Program","layer_id":"tonga-kermadec","feature_count":44}}