{"type":"FeatureCollection","features":[{"type":"Feature","geometry":{"type":"Point","coordinates":[121.601,-0.162]},"properties":{"name":"Colo","classification":"active","elevation":404,"country":"Indonesia","region":"Western Pacific Volcanic Regions","last_eruption_year":1983,"evidence_category":"Eruption Observed","source":"Smithsonian GVP"}},{"type":"Feature","geometry":{"type":"Point","coordinates":[124.42,0.75]},"properties":{"name":"Ambang","classification":"active","elevation":1795,"country":"Indonesia","region":"Western Pacific Volcanic Regions","last_eruption_year":2005,"evidence_category":"Eruption Observed","source":"Smithsonian GVP"}},{"type":"Feature","geometry":{"type":"Point","coordinates":[124.737,1.112]},"properties":{"name":"Soputan","classification":"active","elevation":1785,"country":"Indonesia","region":"Western Pacific Volcanic Regions","last_eruption_year":2020,"evidence_category":"Eruption Observed","source":"Smithsonian GVP"}},{"type":"Feature","geometry":{"type":"Point","coordinates":[124.7992,1.3644]},"properties":{"name":"Lokon-Empung","classification":"active","elevation":1580,"country":"Indonesia","region":"Western Pacific Volcanic Regions","last_eruption_year":2015,"evidence_category":"Eruption Observed","source":"Smithsonian GVP"}},{"type":"Feature","geometry":{"type":"Point","coordinates":[124.865,1.352]},"properties":{"name":"Mahawu","classification":"active","elevation":1299,"country":"Indonesia","region":"Western Pacific Volcanic Regions","last_eruption_year":1977,"evidence_category":"Eruption Observed","source":"Smithsonian GVP"}},{"type":"Feature","geometry":{"type":"Point","coordinates":[125.031,1.454]},"properties":{"name":"Klabat","classification":"active","elevation":1968,"country":"Indonesia","region":"Western Pacific Volcanic Regions","last_eruption_year":null,"evidence_category":"Unrest / Holocene","source":"Smithsonian GVP"}},{"type":"Feature","geometry":{"type":"Point","coordinates":[125.185,1.518]},"properties":{"name":"Tangkoko-Duasudara","classification":"active","elevation":1334,"country":"Indonesia","region":"Western Pacific Volcanic Regions","last_eruption_year":1880,"evidence_category":"Eruption Observed","source":"Smithsonian GVP"}},{"type":"Feature","geometry":{"type":"Point","coordinates":[125.3671,2.3058]},"properties":{"name":"Ruang","classification":"active","elevation":703,"country":"Indonesia","region":"Western Pacific Volcanic Regions","last_eruption_year":2024,"evidence_category":"Eruption Observed","source":"Smithsonian GVP"}},{"type":"Feature","geometry":{"type":"Point","coordinates":[125.407,2.781]},"properties":{"name":"Karangetang","classification":"active","elevation":1797,"country":"Indonesia","region":"Western Pacific Volcanic Regions","last_eruption_year":2023,"evidence_category":"Eruption Observed","source":"Smithsonian GVP"}},{"type":"Feature","geometry":{"type":"Point","coordinates":[125.4422,3.1463]},"properties":{"name":"Banua Wuhu","classification":"active","elevation":-5,"country":"Indonesia","region":"Western Pacific Volcanic Regions","last_eruption_year":1919,"evidence_category":"Eruption Observed","source":"Smithsonian GVP"}},{"type":"Feature","geometry":{"type":"Point","coordinates":[125.447,3.689]},"properties":{"name":"Awu","classification":"active","elevation":1318,"country":"Indonesia","region":"Western Pacific Volcanic Regions","last_eruption_year":2004,"evidence_category":"Eruption Observed","source":"Smithsonian GVP"}},{"type":"Feature","geometry":{"type":"Point","coordinates":[127.825,1.832]},"properties":{"name":"Tarakan","classification":"potentially_active","elevation":317,"country":"Indonesia","region":"Western Pacific Volcanic Regions","last_eruption_year":null,"evidence_category":"Evidence Credible","source":"Smithsonian GVP"}},{"type":"Feature","geometry":{"type":"Point","coordinates":[127.8783,1.6992]},"properties":{"name":"Dukono","classification":"active","elevation":1273,"country":"Indonesia","region":"Western Pacific Volcanic Regions","last_eruption_year":2026,"evidence_category":"Eruption Observed","source":"Smithsonian GVP"}},{"type":"Feature","geometry":{"type":"Point","coordinates":[127.67,1.63]},"properties":{"name":"Tobaru","classification":"potentially_active","elevation":1035,"country":"Indonesia","region":"Western Pacific Volcanic Regions","last_eruption_year":null,"evidence_category":"Evidence Credible","source":"Smithsonian GVP"}},{"type":"Feature","geometry":{"type":"Point","coordinates":[127.6324,1.4941]},"properties":{"name":"Ibu","classification":"active","elevation":1357,"country":"Indonesia","region":"Western Pacific Volcanic Regions","last_eruption_year":2026,"evidence_category":"Eruption Observed","source":"Smithsonian GVP"}},{"type":"Feature","geometry":{"type":"Point","coordinates":[127.53,1.38]},"properties":{"name":"Gamkonora","classification":"active","elevation":1635,"country":"Indonesia","region":"Western Pacific Volcanic Regions","last_eruption_year":2007,"evidence_category":"Eruption Observed","source":"Smithsonian GVP"}},{"type":"Feature","geometry":{"type":"Point","coordinates":[127.439,1.08]},"properties":{"name":"Jailolo","classification":"potentially_active","elevation":993,"country":"Indonesia","region":"Western Pacific Volcanic Regions","last_eruption_year":null,"evidence_category":"Evidence Credible","source":"Smithsonian GVP"}},{"type":"Feature","geometry":{"type":"Point","coordinates":[127.317,0.8971]},"properties":{"name":"Hiri","classification":"potentially_active","elevation":687,"country":"Indonesia","region":"Western Pacific Volcanic Regions","last_eruption_year":null,"evidence_category":"Evidence Credible","source":"Smithsonian GVP"}},{"type":"Feature","geometry":{"type":"Point","coordinates":[127.4556,1.2389]},"properties":{"name":"Todoko-Ranu","classification":"potentially_active","elevation":979,"country":"Indonesia","region":"Western Pacific Volcanic Regions","last_eruption_year":null,"evidence_category":"Evidence Credible","source":"Smithsonian GVP"}},{"type":"Feature","geometry":{"type":"Point","coordinates":[127.4029,0.6623]},"properties":{"name":"Kie Matubu","classification":"potentially_active","elevation":1713,"country":"Indonesia","region":"Western Pacific Volcanic Regions","last_eruption_year":1210,"evidence_category":"Eruption Dated","source":"Smithsonian GVP"}},{"type":"Feature","geometry":{"type":"Point","coordinates":[127.4,0.57]},"properties":{"name":"Mare","classification":"potentially_active","elevation":308,"country":"Indonesia","region":"Western Pacific Volcanic Regions","last_eruption_year":null,"evidence_category":"Evidence Credible","source":"Smithsonian GVP"}},{"type":"Feature","geometry":{"type":"Point","coordinates":[127.411,0.454]},"properties":{"name":"Moti","classification":"potentially_active","elevation":927,"country":"Indonesia","region":"Western Pacific Volcanic Regions","last_eruption_year":null,"evidence_category":"Evidence Credible","source":"Smithsonian GVP"}},{"type":"Feature","geometry":{"type":"Point","coordinates":[127.3322,0.81]},"properties":{"name":"Gamalama","classification":"active","elevation":1714,"country":"Indonesia","region":"Western Pacific Volcanic Regions","last_eruption_year":2018,"evidence_category":"Eruption Observed","source":"Smithsonian GVP"}},{"type":"Feature","geometry":{"type":"Point","coordinates":[127.4,0.32]},"properties":{"name":"Kie Besi","classification":"active","elevation":1357,"country":"Indonesia","region":"Western Pacific Volcanic Regions","last_eruption_year":1988,"evidence_category":"Eruption Observed","source":"Smithsonian GVP"}},{"type":"Feature","geometry":{"type":"Point","coordinates":[124.892,6.113]},"properties":{"name":"Melebingoy","classification":"active","elevation":1824,"country":"Philippines","region":"Western Pacific Volcanic Regions","last_eruption_year":1641,"evidence_category":"Eruption Observed","source":"Smithsonian GVP"}},{"type":"Feature","geometry":{"type":"Point","coordinates":[125.0765,6.3604]},"properties":{"name":"Matutum","classification":"potentially_active","elevation":2262,"country":"Philippines","region":"Western Pacific Volcanic Regions","last_eruption_year":1290,"evidence_category":"Eruption Dated","source":"Smithsonian GVP"}},{"type":"Feature","geometry":{"type":"Point","coordinates":[126.047,7.382]},"properties":{"name":"Leonard Range","classification":"potentially_active","elevation":1080,"country":"Philippines","region":"Western Pacific Volcanic Regions","last_eruption_year":80,"evidence_category":"Eruption Dated","source":"Smithsonian GVP"}},{"type":"Feature","geometry":{"type":"Point","coordinates":[124.317,7.644]},"properties":{"name":"Makaturing","classification":"active","elevation":1818,"country":"Philippines","region":"Western Pacific Volcanic Regions","last_eruption_year":1882,"evidence_category":"Eruption Observed","source":"Smithsonian GVP"}},{"type":"Feature","geometry":{"type":"Point","coordinates":[124.507,7.691]},"properties":{"name":"Ragang","classification":"active","elevation":2790,"country":"Philippines","region":"Western Pacific Volcanic Regions","last_eruption_year":1916,"evidence_category":"Eruption Observed","source":"Smithsonian GVP"}},{"type":"Feature","geometry":{"type":"Point","coordinates":[125.0697,7.8765]},"properties":{"name":"Musuan","classification":"dormant","elevation":610,"country":"Philippines","region":"Western Pacific Volcanic Regions","last_eruption_year":null,"evidence_category":"Evidence Uncertain","source":"Smithsonian GVP"}},{"type":"Feature","geometry":{"type":"Point","coordinates":[124.673,9.203]},"properties":{"name":"Camiguin","classification":"active","elevation":1552,"country":"Philippines","region":"Western Pacific Volcanic Regions","last_eruption_year":1953,"evidence_category":"Eruption Observed","source":"Smithsonian GVP"}},{"type":"Feature","geometry":{"type":"Point","coordinates":[123.13,10.4096]},"properties":{"name":"Kanlaon","classification":"active","elevation":2422,"country":"Philippines","region":"Western Pacific Volcanic Regions","last_eruption_year":2026,"evidence_category":"Eruption Observed","source":"Smithsonian GVP"}},{"type":"Feature","geometry":{"type":"Point","coordinates":[125.218,10.285]},"properties":{"name":"Cabal\u00edan","classification":"potentially_active","elevation":912,"country":"Philippines","region":"Western Pacific Volcanic Regions","last_eruption_year":1820,"evidence_category":"Eruption Dated","source":"Smithsonian GVP"}},{"type":"Feature","geometry":{"type":"Point","coordinates":[124.535,11.523]},"properties":{"name":"Biliran","classification":"active","elevation":1301,"country":"Philippines","region":"Western Pacific Volcanic Regions","last_eruption_year":1939,"evidence_category":"Eruption Observed","source":"Smithsonian GVP"}},{"type":"Feature","geometry":{"type":"Point","coordinates":[124.056,12.769]},"properties":{"name":"Bulusan","classification":"active","elevation":1535,"country":"Philippines","region":"Western Pacific Volcanic Regions","last_eruption_year":2025,"evidence_category":"Eruption Observed","source":"Smithsonian GVP"}},{"type":"Feature","geometry":{"type":"Point","coordinates":[123.685,13.257]},"properties":{"name":"Mayon","classification":"active","elevation":2462,"country":"Philippines","region":"Western Pacific Volcanic Regions","last_eruption_year":2026,"evidence_category":"Eruption Observed","source":"Smithsonian GVP"}},{"type":"Feature","geometry":{"type":"Point","coordinates":[123.451,13.458]},"properties":{"name":"Iriga","classification":"potentially_active","elevation":1138,"country":"Philippines","region":"Western Pacific Volcanic Regions","last_eruption_year":null,"evidence_category":"Evidence Credible","source":"Smithsonian GVP"}},{"type":"Feature","geometry":{"type":"Point","coordinates":[123.38,13.658]},"properties":{"name":"Isarog","classification":"potentially_active","elevation":1966,"country":"Philippines","region":"Western Pacific Volcanic Regions","last_eruption_year":-3500,"evidence_category":"Eruption Dated","source":"Smithsonian GVP"}},{"type":"Feature","geometry":{"type":"Point","coordinates":[121.48,14.07]},"properties":{"name":"Banahaw","classification":"potentially_active","elevation":2158,"country":"Philippines","region":"Western Pacific Volcanic Regions","last_eruption_year":null,"evidence_category":"Evidence Credible","source":"Smithsonian GVP"}},{"type":"Feature","geometry":{"type":"Point","coordinates":[121.3,14.12]},"properties":{"name":"San Pablo Volcanic Field","classification":"potentially_active","elevation":1090,"country":"Philippines","region":"Western Pacific Volcanic Regions","last_eruption_year":1350,"evidence_category":"Eruption Dated","source":"Smithsonian GVP"}},{"type":"Feature","geometry":{"type":"Point","coordinates":[120.9975,14.0106]},"properties":{"name":"Taal","classification":"active","elevation":311,"country":"Philippines","region":"Western Pacific Volcanic Regions","last_eruption_year":2026,"evidence_category":"Eruption Observed","source":"Smithsonian GVP"}},{"type":"Feature","geometry":{"type":"Point","coordinates":[120.35,15.13]},"properties":{"name":"Pinatubo","classification":"active","elevation":1486,"country":"Philippines","region":"Western Pacific Volcanic Regions","last_eruption_year":2021,"evidence_category":"Eruption Observed","source":"Smithsonian GVP"}},{"type":"Feature","geometry":{"type":"Point","coordinates":[122.123,18.222]},"properties":{"name":"Cagua","classification":"active","elevation":1133,"country":"Philippines","region":"Western Pacific Volcanic Regions","last_eruption_year":1860,"evidence_category":"Eruption Observed","source":"Smithsonian GVP"}},{"type":"Feature","geometry":{"type":"Point","coordinates":[121.86,18.83]},"properties":{"name":"Camiguin de Babuyanes","classification":"active","elevation":712,"country":"Philippines","region":"Western Pacific Volcanic Regions","last_eruption_year":1857,"evidence_category":"Eruption Observed","source":"Smithsonian GVP"}},{"type":"Feature","geometry":{"type":"Point","coordinates":[122.202,19.077]},"properties":{"name":"Didicas","classification":"active","elevation":228,"country":"Philippines","region":"Western Pacific Volcanic Regions","last_eruption_year":1978,"evidence_category":"Eruption Observed","source":"Smithsonian GVP"}},{"type":"Feature","geometry":{"type":"Point","coordinates":[121.95,19.524]},"properties":{"name":"Babuyan Claro","classification":"active","elevation":1064,"country":"Philippines","region":"Western Pacific Volcanic Regions","last_eruption_year":1924,"evidence_category":"Eruption Observed","source":"Smithsonian GVP"}},{"type":"Feature","geometry":{"type":"Point","coordinates":[122.01,20.469]},"properties":{"name":"Iraya","classification":"active","elevation":1009,"country":"Philippines","region":"Western Pacific Volcanic Regions","last_eruption_year":1454,"evidence_category":"Eruption Observed","source":"Smithsonian GVP"}},{"type":"Feature","geometry":{"type":"Point","coordinates":[121.953,24.841]},"properties":{"name":"Kueishantao","classification":"active","elevation":361,"country":"Taiwan","region":"Western Pacific Volcanic Regions","last_eruption_year":1853,"evidence_category":"Eruption Observed","source":"Smithsonian GVP"}},{"type":"Feature","geometry":{"type":"Point","coordinates":[121.553,25.178]},"properties":{"name":"Tatun Volcanic Group","classification":"potentially_active","elevation":1120,"country":"Taiwan","region":"Western Pacific Volcanic Regions","last_eruption_year":648,"evidence_category":"Eruption Dated","source":"Smithsonian GVP"}},{"type":"Feature","geometry":{"type":"Point","coordinates":[123.93,24.57]},"properties":{"name":"Submarine Volcano NNE of Iriomotejima","classification":"active","elevation":-200,"country":"Japan","region":"Western Pacific Volcanic Regions","last_eruption_year":1924,"evidence_category":"Eruption Observed","source":"Smithsonian GVP"}},{"type":"Feature","geometry":{"type":"Point","coordinates":[128.997,28.797]},"properties":{"name":"Yokoatejima","classification":"active","elevation":495,"country":"Japan","region":"Western Pacific Volcanic Regions","last_eruption_year":1835,"evidence_category":"Eruption Observed","source":"Smithsonian GVP"}},{"type":"Feature","geometry":{"type":"Point","coordinates":[129.594,29.465]},"properties":{"name":"Akusekijima","classification":"dormant","elevation":555,"country":"Japan","region":"Western Pacific Volcanic Regions","last_eruption_year":null,"evidence_category":"Evidence Uncertain","source":"Smithsonian GVP"}},{"type":"Feature","geometry":{"type":"Point","coordinates":[128.223,27.881]},"properties":{"name":"Io-Torishima","classification":"active","elevation":212,"country":"Japan","region":"Western Pacific Volcanic Regions","last_eruption_year":1968,"evidence_category":"Eruption Observed","source":"Smithsonian GVP"}},{"type":"Feature","geometry":{"type":"Point","coordinates":[129.714,29.638]},"properties":{"name":"Suwanosejima","classification":"active","elevation":796,"country":"Japan","region":"Western Pacific Volcanic Regions","last_eruption_year":2026,"evidence_category":"Eruption Observed","source":"Smithsonian GVP"}},{"type":"Feature","geometry":{"type":"Point","coordinates":[129.926,29.968]},"properties":{"name":"Kuchinoshima","classification":"potentially_active","elevation":628,"country":"Japan","region":"Western Pacific Volcanic Regions","last_eruption_year":1190,"evidence_category":"Eruption Dated","source":"Smithsonian GVP"}},{"type":"Feature","geometry":{"type":"Point","coordinates":[129.857,29.859]},"properties":{"name":"Nakanoshima","classification":"active","elevation":979,"country":"Japan","region":"Western Pacific Volcanic Regions","last_eruption_year":1914,"evidence_category":"Eruption Observed","source":"Smithsonian GVP"}},{"type":"Feature","geometry":{"type":"Point","coordinates":[130.217,30.443]},"properties":{"name":"Kuchinoerabujima","classification":"active","elevation":657,"country":"Japan","region":"Western Pacific Volcanic Regions","last_eruption_year":2020,"evidence_category":"Eruption Observed","source":"Smithsonian GVP"}},{"type":"Feature","geometry":{"type":"Point","coordinates":[130.305,30.793]},"properties":{"name":"Kikai","classification":"active","elevation":704,"country":"Japan","region":"Western Pacific Volcanic Regions","last_eruption_year":2025,"evidence_category":"Eruption Observed","source":"Smithsonian GVP"}},{"type":"Feature","geometry":{"type":"Point","coordinates":[130.57,31.22]},"properties":{"name":"Ata","classification":"active","elevation":924,"country":"Japan","region":"Western Pacific Volcanic Regions","last_eruption_year":885,"evidence_category":"Eruption Observed","source":"Smithsonian GVP"}},{"type":"Feature","geometry":{"type":"Point","coordinates":[130.592,31.771]},"properties":{"name":"Yonemaru-Sumiyoshiike","classification":"potentially_active","elevation":40,"country":"Japan","region":"Western Pacific Volcanic Regions","last_eruption_year":-6200,"evidence_category":"Eruption Dated","source":"Smithsonian GVP"}},{"type":"Feature","geometry":{"type":"Point","coordinates":[130.6589,31.5772]},"properties":{"name":"Aira","classification":"active","elevation":1117,"country":"Japan","region":"Western Pacific Volcanic Regions","last_eruption_year":2026,"evidence_category":"Eruption Observed","source":"Smithsonian GVP"}},{"type":"Feature","geometry":{"type":"Point","coordinates":[128.849,32.657]},"properties":{"name":"Fukue","classification":"potentially_active","elevation":315,"country":"Japan","region":"Western Pacific Volcanic Regions","last_eruption_year":-400,"evidence_category":"Eruption Dated","source":"Smithsonian GVP"}},{"type":"Feature","geometry":{"type":"Point","coordinates":[130.862,31.934]},"properties":{"name":"Kirishimayama","classification":"active","elevation":1700,"country":"Japan","region":"Western Pacific Volcanic Regions","last_eruption_year":2025,"evidence_category":"Eruption Observed","source":"Smithsonian GVP"}},{"type":"Feature","geometry":{"type":"Point","coordinates":[130.299,32.761]},"properties":{"name":"Unzendake","classification":"active","elevation":1483,"country":"Japan","region":"Western Pacific Volcanic Regions","last_eruption_year":1996,"evidence_category":"Eruption Observed","source":"Smithsonian GVP"}},{"type":"Feature","geometry":{"type":"Point","coordinates":[131.085,32.8849]},"properties":{"name":"Asosan","classification":"active","elevation":1592,"country":"Japan","region":"Western Pacific Volcanic Regions","last_eruption_year":2021,"evidence_category":"Eruption Observed","source":"Smithsonian GVP"}},{"type":"Feature","geometry":{"type":"Point","coordinates":[131.249,33.086]},"properties":{"name":"Kujusan","classification":"active","elevation":1791,"country":"Japan","region":"Western Pacific Volcanic Regions","last_eruption_year":1996,"evidence_category":"Eruption Observed","source":"Smithsonian GVP"}},{"type":"Feature","geometry":{"type":"Point","coordinates":[131.39,33.282]},"properties":{"name":"Yufu-Tsurumi","classification":"active","elevation":1584,"country":"Japan","region":"Western Pacific Volcanic Regions","last_eruption_year":867,"evidence_category":"Eruption Observed","source":"Smithsonian GVP"}},{"type":"Feature","geometry":{"type":"Point","coordinates":[131.5167,34.4833]},"properties":{"name":"Abu","classification":"potentially_active","elevation":641,"country":"Japan","region":"Western Pacific Volcanic Regions","last_eruption_year":-6850,"evidence_category":"Eruption Dated","source":"Smithsonian GVP"}},{"type":"Feature","geometry":{"type":"Point","coordinates":[132.622,35.141]},"properties":{"name":"Sanbesan","classification":"potentially_active","elevation":1126,"country":"Japan","region":"Western Pacific Volcanic Regions","last_eruption_year":650,"evidence_category":"Eruption Dated","source":"Smithsonian GVP"}},{"type":"Feature","geometry":{"type":"Point","coordinates":[137.48,35.893]},"properties":{"name":"Ontakesan","classification":"active","elevation":3067,"country":"Japan","region":"Western Pacific Volcanic Regions","last_eruption_year":2014,"evidence_category":"Eruption Observed","source":"Smithsonian GVP"}},{"type":"Feature","geometry":{"type":"Point","coordinates":[136.771,36.155]},"properties":{"name":"Hakusan","classification":"active","elevation":2702,"country":"Japan","region":"Western Pacific Volcanic Regions","last_eruption_year":1659,"evidence_category":"Eruption Observed","source":"Smithsonian GVP"}},{"type":"Feature","geometry":{"type":"Point","coordinates":[137.554,36.106]},"properties":{"name":"Norikuradake","classification":"potentially_active","elevation":3026,"country":"Japan","region":"Western Pacific Volcanic Regions","last_eruption_year":-50,"evidence_category":"Eruption Dated","source":"Smithsonian GVP"}},{"type":"Feature","geometry":{"type":"Point","coordinates":[137.587,36.227]},"properties":{"name":"Yakedake","classification":"active","elevation":2455,"country":"Japan","region":"Western Pacific Volcanic Regions","last_eruption_year":1995,"evidence_category":"Eruption Observed","source":"Smithsonian GVP"}},{"type":"Feature","geometry":{"type":"Point","coordinates":[137.59,36.571]},"properties":{"name":"Midagahara","classification":"active","elevation":2621,"country":"Japan","region":"Western Pacific Volcanic Regions","last_eruption_year":1839,"evidence_category":"Eruption Observed","source":"Smithsonian GVP"}},{"type":"Feature","geometry":{"type":"Point","coordinates":[137.573,36.2]},"properties":{"name":"Akandanayama","classification":"potentially_active","elevation":2109,"country":"Japan","region":"Western Pacific Volcanic Regions","last_eruption_year":null,"evidence_category":"Evidence Credible","source":"Smithsonian GVP"}}],"metadata":{"source":"Smithsonian Global Volcanism Program","layer_id":"western-pacific","feature_count":75}}