{"type":"FeatureCollection","features":[{"type":"Feature","geometry":{"type":"LineString","coordinates":[[-76.483,-52.068],[-76.626,-51.377]]},"properties":{"name":"AN\\SA","plate_boundary":"AN\\SA","step_class":"SUB"}},{"type":"Feature","geometry":{"type":"LineString","coordinates":[[-76.626,-51.377],[-76.757,-50.729]]},"properties":{"name":"AN\\SA","plate_boundary":"AN\\SA","step_class":"SUB"}},{"type":"Feature","geometry":{"type":"LineString","coordinates":[[-76.757,-50.729],[-76.99,-49.845]]},"properties":{"name":"AN\\SA","plate_boundary":"AN\\SA","step_class":"SUB"}},{"type":"Feature","geometry":{"type":"LineString","coordinates":[[-76.99,-49.845],[-77.024,-49.192]]},"properties":{"name":"AN\\SA","plate_boundary":"AN\\SA","step_class":"SUB"}},{"type":"Feature","geometry":{"type":"LineString","coordinates":[[-77.024,-49.192],[-76.925,-48.507]]},"properties":{"name":"AN\\SA","plate_boundary":"AN\\SA","step_class":"SUB"}},{"type":"Feature","geometry":{"type":"LineString","coordinates":[[-76.925,-48.507],[-76.65,-47.875]]},"properties":{"name":"AN\\SA","plate_boundary":"AN\\SA","step_class":"SUB"}},{"type":"Feature","geometry":{"type":"LineString","coordinates":[[-76.65,-47.875],[-76.321,-47.478]]},"properties":{"name":"AN\\SA","plate_boundary":"AN\\SA","step_class":"SUB"}},{"type":"Feature","geometry":{"type":"LineString","coordinates":[[-76.321,-47.478],[-75.997,-47.08]]},"properties":{"name":"AN\\SA","plate_boundary":"AN\\SA","step_class":"SUB"}},{"type":"Feature","geometry":{"type":"LineString","coordinates":[[-75.997,-47.08],[-75.958,-46.422]]},"properties":{"name":"AN\\SA","plate_boundary":"AN\\SA","step_class":"SUB"}},{"type":"Feature","geometry":{"type":"LineString","coordinates":[[-75.958,-46.422],[-76.006,-45.659]]},"properties":{"name":"AN\\SA","plate_boundary":"AN\\SA","step_class":"SUB"}},{"type":"Feature","geometry":{"type":"LineString","coordinates":[[-179.811,-36.793],[-179.371,-36.179]]},"properties":{"name":"KE/PA","plate_boundary":"KE/PA","step_class":"SUB"}},{"type":"Feature","geometry":{"type":"LineString","coordinates":[[-179.371,-36.179],[-179.044,-35.542]]},"properties":{"name":"KE/PA","plate_boundary":"KE/PA","step_class":"SUB"}},{"type":"Feature","geometry":{"type":"LineString","coordinates":[[-179.044,-35.542],[-178.641,-35.022]]},"properties":{"name":"KE/PA","plate_boundary":"KE/PA","step_class":"SUB"}},{"type":"Feature","geometry":{"type":"LineString","coordinates":[[-178.641,-35.022],[-178.539,-34.706]]},"properties":{"name":"KE/PA","plate_boundary":"KE/PA","step_class":"SUB"}},{"type":"Feature","geometry":{"type":"LineString","coordinates":[[-178.539,-34.706],[-178.413,-34.485]]},"properties":{"name":"KE/PA","plate_boundary":"KE/PA","step_class":"SUB"}},{"type":"Feature","geometry":{"type":"LineString","coordinates":[[-178.413,-34.485],[-178.294,-34.241]]},"properties":{"name":"KE/PA","plate_boundary":"KE/PA","step_class":"SUB"}},{"type":"Feature","geometry":{"type":"LineString","coordinates":[[-178.294,-34.241],[-178.208,-33.846]]},"properties":{"name":"KE/PA","plate_boundary":"KE/PA","step_class":"SUB"}},{"type":"Feature","geometry":{"type":"LineString","coordinates":[[-178.208,-33.846],[-177.981,-33.579]]},"properties":{"name":"KE/PA","plate_boundary":"KE/PA","step_class":"SUB"}},{"type":"Feature","geometry":{"type":"LineString","coordinates":[[-177.981,-33.579],[-177.81,-33.191]]},"properties":{"name":"KE/PA","plate_boundary":"KE/PA","step_class":"SUB"}},{"type":"Feature","geometry":{"type":"LineString","coordinates":[[-177.81,-33.191],[-177.666,-32.696]]},"properties":{"name":"KE/PA","plate_boundary":"KE/PA","step_class":"SUB"}},{"type":"Feature","geometry":{"type":"LineString","coordinates":[[-177.666,-32.696],[-177.649,-32.203]]},"properties":{"name":"KE/PA","plate_boundary":"KE/PA","step_class":"SUB"}},{"type":"Feature","geometry":{"type":"LineString","coordinates":[[-177.649,-32.203],[-177.538,-31.957]]},"properties":{"name":"KE/PA","plate_boundary":"KE/PA","step_class":"SUB"}},{"type":"Feature","geometry":{"type":"LineString","coordinates":[[-177.538,-31.957],[-177.301,-31.793]]},"properties":{"name":"KE/PA","plate_boundary":"KE/PA","step_class":"SUB"}},{"type":"Feature","geometry":{"type":"LineString","coordinates":[[-177.301,-31.793],[-177.108,-31.452]]},"properties":{"name":"KE/PA","plate_boundary":"KE/PA","step_class":"SUB"}},{"type":"Feature","geometry":{"type":"LineString","coordinates":[[-177.108,-31.452],[-176.919,-31.037]]},"properties":{"name":"KE/PA","plate_boundary":"KE/PA","step_class":"SUB"}},{"type":"Feature","geometry":{"type":"LineString","coordinates":[[-176.919,-31.037],[-176.69,-30.678]]},"properties":{"name":"KE/PA","plate_boundary":"KE/PA","step_class":"SUB"}},{"type":"Feature","geometry":{"type":"LineString","coordinates":[[-176.69,-30.678],[-176.547,-30.322]]},"properties":{"name":"KE/PA","plate_boundary":"KE/PA","step_class":"SUB"}},{"type":"Feature","geometry":{"type":"LineString","coordinates":[[-176.547,-30.322],[-176.339,-29.881]]},"properties":{"name":"KE/PA","plate_boundary":"KE/PA","step_class":"SUB"}},{"type":"Feature","geometry":{"type":"LineString","coordinates":[[-176.339,-29.881],[-176.153,-29.469]]},"properties":{"name":"KE/PA","plate_boundary":"KE/PA","step_class":"SUB"}},{"type":"Feature","geometry":{"type":"LineString","coordinates":[[-176.153,-29.469],[-176.078,-29.065]]},"properties":{"name":"KE/PA","plate_boundary":"KE/PA","step_class":"SUB"}},{"type":"Feature","geometry":{"type":"LineString","coordinates":[[-176.078,-29.065],[-175.995,-28.697]]},"properties":{"name":"KE/PA","plate_boundary":"KE/PA","step_class":"SUB"}},{"type":"Feature","geometry":{"type":"LineString","coordinates":[[-175.995,-28.697],[-175.885,-28.264]]},"properties":{"name":"KE/PA","plate_boundary":"KE/PA","step_class":"SUB"}},{"type":"Feature","geometry":{"type":"LineString","coordinates":[[-175.885,-28.264],[-175.785,-27.784]]},"properties":{"name":"KE/PA","plate_boundary":"KE/PA","step_class":"SUB"}},{"type":"Feature","geometry":{"type":"LineString","coordinates":[[-175.785,-27.784],[-175.545,-27.318]]},"properties":{"name":"KE/PA","plate_boundary":"KE/PA","step_class":"SUB"}},{"type":"Feature","geometry":{"type":"LineString","coordinates":[[-175.545,-27.318],[-175.4,-26.857]]},"properties":{"name":"KE/PA","plate_boundary":"KE/PA","step_class":"SUB"}},{"type":"Feature","geometry":{"type":"LineString","coordinates":[[-175.4,-26.857],[-175.423,-26.437]]},"properties":{"name":"KE/PA","plate_boundary":"KE/PA","step_class":"SUB"}},{"type":"Feature","geometry":{"type":"LineString","coordinates":[[-175.423,-26.437],[-175.415,-26.025]]},"properties":{"name":"KE/PA","plate_boundary":"KE/PA","step_class":"SUB"}},{"type":"Feature","geometry":{"type":"LineString","coordinates":[[-175.415,-26.025],[-175.382,-25.729]]},"properties":{"name":"KE/PA","plate_boundary":"KE/PA","step_class":"SUB"}},{"type":"Feature","geometry":{"type":"LineString","coordinates":[[-175.382,-25.729],[-175.297,-25.426]]},"properties":{"name":"KE/PA","plate_boundary":"KE/PA","step_class":"SUB"}},{"type":"Feature","geometry":{"type":"LineString","coordinates":[[-175.297,-25.426],[-175.261,-25.142]]},"properties":{"name":"KE/PA","plate_boundary":"KE/PA","step_class":"SUB"}},{"type":"Feature","geometry":{"type":"LineString","coordinates":[[-175.261,-25.142],[-175.229,-24.836]]},"properties":{"name":"KE/PA","plate_boundary":"KE/PA","step_class":"SUB"}},{"type":"Feature","geometry":{"type":"LineString","coordinates":[[-175.229,-24.836],[-175.209,-24.472]]},"properties":{"name":"KE/PA","plate_boundary":"KE/PA","step_class":"SUB"}},{"type":"Feature","geometry":{"type":"LineString","coordinates":[[-175.209,-24.472],[-175.102,-24.07]]},"properties":{"name":"KE/PA","plate_boundary":"KE/PA","step_class":"SUB"}},{"type":"Feature","geometry":{"type":"LineString","coordinates":[[-175.102,-24.07],[-174.985,-23.75]]},"properties":{"name":"KE/PA","plate_boundary":"KE/PA","step_class":"SUB"}},{"type":"Feature","geometry":{"type":"LineString","coordinates":[[-174.985,-23.75],[-174.842,-23.513]]},"properties":{"name":"TO/PA","plate_boundary":"TO/PA","step_class":"SUB"}},{"type":"Feature","geometry":{"type":"LineString","coordinates":[[-174.842,-23.513],[-174.663,-23.221]]},"properties":{"name":"TO/PA","plate_boundary":"TO/PA","step_class":"SUB"}},{"type":"Feature","geometry":{"type":"LineString","coordinates":[[-174.663,-23.221],[-174.489,-22.906]]},"properties":{"name":"TO/PA","plate_boundary":"TO/PA","step_class":"SUB"}},{"type":"Feature","geometry":{"type":"LineString","coordinates":[[-174.489,-22.906],[-174.323,-22.617]]},"properties":{"name":"TO/PA","plate_boundary":"TO/PA","step_class":"SUB"}},{"type":"Feature","geometry":{"type":"LineString","coordinates":[[-174.323,-22.617],[-174.139,-22.29]]},"properties":{"name":"TO/PA","plate_boundary":"TO/PA","step_class":"SUB"}},{"type":"Feature","geometry":{"type":"LineString","coordinates":[[-174.139,-22.29],[-173.952,-21.915]]},"properties":{"name":"TO/PA","plate_boundary":"TO/PA","step_class":"SUB"}},{"type":"Feature","geometry":{"type":"LineString","coordinates":[[-173.952,-21.915],[-173.818,-21.526]]},"properties":{"name":"TO/PA","plate_boundary":"TO/PA","step_class":"SUB"}},{"type":"Feature","geometry":{"type":"LineString","coordinates":[[-173.818,-21.526],[-173.703,-21.248]]},"properties":{"name":"TO/PA","plate_boundary":"TO/PA","step_class":"SUB"}},{"type":"Feature","geometry":{"type":"LineString","coordinates":[[-173.703,-21.248],[-173.551,-20.893]]},"properties":{"name":"TO/PA","plate_boundary":"TO/PA","step_class":"SUB"}},{"type":"Feature","geometry":{"type":"LineString","coordinates":[[-173.551,-20.893],[-173.403,-20.586]]},"properties":{"name":"TO/PA","plate_boundary":"TO/PA","step_class":"SUB"}},{"type":"Feature","geometry":{"type":"LineString","coordinates":[[-173.403,-20.586],[-173.218,-20.204]]},"properties":{"name":"TO/PA","plate_boundary":"TO/PA","step_class":"SUB"}},{"type":"Feature","geometry":{"type":"LineString","coordinates":[[-173.218,-20.204],[-173.053,-19.779]]},"properties":{"name":"TO/PA","plate_boundary":"TO/PA","step_class":"SUB"}},{"type":"Feature","geometry":{"type":"LineString","coordinates":[[-173.053,-19.779],[-172.97,-19.461]]},"properties":{"name":"TO/PA","plate_boundary":"TO/PA","step_class":"SUB"}},{"type":"Feature","geometry":{"type":"LineString","coordinates":[[-172.97,-19.461],[-172.874,-19.071]]},"properties":{"name":"TO/PA","plate_boundary":"TO/PA","step_class":"SUB"}},{"type":"Feature","geometry":{"type":"LineString","coordinates":[[-172.874,-19.071],[-172.786,-18.777]]},"properties":{"name":"TO/PA","plate_boundary":"TO/PA","step_class":"SUB"}},{"type":"Feature","geometry":{"type":"LineString","coordinates":[[-172.786,-18.777],[-172.698,-18.483]]},"properties":{"name":"TO/PA","plate_boundary":"TO/PA","step_class":"SUB"}},{"type":"Feature","geometry":{"type":"LineString","coordinates":[[-172.698,-18.483],[-172.591,-18.152]]},"properties":{"name":"TO/PA","plate_boundary":"TO/PA","step_class":"SUB"}},{"type":"Feature","geometry":{"type":"LineString","coordinates":[[-172.591,-18.152],[-172.54,-17.935]]},"properties":{"name":"TO/PA","plate_boundary":"TO/PA","step_class":"SUB"}},{"type":"Feature","geometry":{"type":"LineString","coordinates":[[-172.54,-17.935],[-172.445,-17.677]]},"properties":{"name":"TO/PA","plate_boundary":"TO/PA","step_class":"SUB"}},{"type":"Feature","geometry":{"type":"LineString","coordinates":[[-172.445,-17.677],[-172.374,-17.271]]},"properties":{"name":"TO/PA","plate_boundary":"TO/PA","step_class":"SUB"}},{"type":"Feature","geometry":{"type":"LineString","coordinates":[[-172.374,-17.271],[-172.335,-16.963]]},"properties":{"name":"TO/PA","plate_boundary":"TO/PA","step_class":"SUB"}},{"type":"Feature","geometry":{"type":"LineString","coordinates":[[-172.335,-16.963],[-172.311,-16.716]]},"properties":{"name":"TO/PA","plate_boundary":"TO/PA","step_class":"SUB"}},{"type":"Feature","geometry":{"type":"LineString","coordinates":[[-172.311,-16.716],[-172.307,-16.332]]},"properties":{"name":"TO/PA","plate_boundary":"TO/PA","step_class":"SUB"}},{"type":"Feature","geometry":{"type":"LineString","coordinates":[[-172.307,-16.332],[-172.3,-16.041]]},"properties":{"name":"TO/PA","plate_boundary":"TO/PA","step_class":"SUB"}},{"type":"Feature","geometry":{"type":"LineString","coordinates":[[-172.3,-16.041],[-172.331,-15.732]]},"properties":{"name":"TO/PA","plate_boundary":"TO/PA","step_class":"SUB"}},{"type":"Feature","geometry":{"type":"LineString","coordinates":[[-172.331,-15.732],[-172.355,-15.561]]},"properties":{"name":"TO/PA","plate_boundary":"TO/PA","step_class":"SUB"}},{"type":"Feature","geometry":{"type":"LineString","coordinates":[[-172.355,-15.561],[-172.428,-15.373]]},"properties":{"name":"TO/PA","plate_boundary":"TO/PA","step_class":"SUB"}},{"type":"Feature","geometry":{"type":"LineString","coordinates":[[-172.428,-15.373],[-172.602,-15.151]]},"properties":{"name":"TO/PA","plate_boundary":"TO/PA","step_class":"SUB"}},{"type":"Feature","geometry":{"type":"LineString","coordinates":[[-172.602,-15.151],[-172.774,-15.033]]},"properties":{"name":"TO/PA","plate_boundary":"TO/PA","step_class":"SUB"}},{"type":"Feature","geometry":{"type":"LineString","coordinates":[[-172.774,-15.033],[-172.939,-14.867]]},"properties":{"name":"TO/PA","plate_boundary":"TO/PA","step_class":"SUB"}},{"type":"Feature","geometry":{"type":"LineString","coordinates":[[-172.939,-14.867],[-173.13,-14.785]]},"properties":{"name":"TO/PA","plate_boundary":"TO/PA","step_class":"SUB"}},{"type":"Feature","geometry":{"type":"LineString","coordinates":[[-173.13,-14.785],[-173.273,-14.697]]},"properties":{"name":"TO/PA","plate_boundary":"TO/PA","step_class":"SUB"}},{"type":"Feature","geometry":{"type":"LineString","coordinates":[[-173.273,-14.697],[-173.407,-14.584]]},"properties":{"name":"TO/PA","plate_boundary":"TO/PA","step_class":"SUB"}},{"type":"Feature","geometry":{"type":"LineString","coordinates":[[-90.898,12.584],[-90.293,12.543]]},"properties":{"name":"CA/CO","plate_boundary":"CA/CO","step_class":"SUB"}},{"type":"Feature","geometry":{"type":"LineString","coordinates":[[-90.293,12.543],[-89.619,12.295]]},"properties":{"name":"CA/CO","plate_boundary":"CA/CO","step_class":"SUB"}},{"type":"Feature","geometry":{"type":"LineString","coordinates":[[-89.619,12.295],[-88.92,11.999]]},"properties":{"name":"CA/CO","plate_boundary":"CA/CO","step_class":"SUB"}},{"type":"Feature","geometry":{"type":"LineString","coordinates":[[-88.92,11.999],[-88.319,11.697]]},"properties":{"name":"CA/CO","plate_boundary":"CA/CO","step_class":"SUB"}},{"type":"Feature","geometry":{"type":"LineString","coordinates":[[-88.319,11.697],[-87.89,11.397]]},"properties":{"name":"CA/CO","plate_boundary":"CA/CO","step_class":"SUB"}},{"type":"Feature","geometry":{"type":"LineString","coordinates":[[-87.89,11.397],[-87.462,11.096]]},"properties":{"name":"CA/CO","plate_boundary":"CA/CO","step_class":"SUB"}},{"type":"Feature","geometry":{"type":"LineString","coordinates":[[-87.462,11.096],[-86.975,10.547]]},"properties":{"name":"CA/CO","plate_boundary":"CA/CO","step_class":"SUB"}},{"type":"Feature","geometry":{"type":"LineString","coordinates":[[-86.975,10.547],[-86.648,10.235]]},"properties":{"name":"CA/CO","plate_boundary":"CA/CO","step_class":"SUB"}},{"type":"Feature","geometry":{"type":"LineString","coordinates":[[-60.051,17.823],[-60.278,18.191]]},"properties":{"name":"CA/SA","plate_boundary":"CA/SA","step_class":"SUB"}},{"type":"Feature","geometry":{"type":"LineString","coordinates":[[-60.278,18.191],[-60.534,18.513]]},"properties":{"name":"CA/SA","plate_boundary":"CA/SA","step_class":"SUB"}},{"type":"Feature","geometry":{"type":"LineString","coordinates":[[-60.534,18.513],[-60.729,18.595]]},"properties":{"name":"CA/SA","plate_boundary":"CA/SA","step_class":"SUB"}},{"type":"Feature","geometry":{"type":"LineString","coordinates":[[-60.729,18.595],[-60.912,18.889]]},"properties":{"name":"CA/SA","plate_boundary":"CA/SA","step_class":"SUB"}},{"type":"Feature","geometry":{"type":"LineString","coordinates":[[-60.912,18.889],[-61.553,18.959]]},"properties":{"name":"CA/SA","plate_boundary":"CA/SA","step_class":"SUB"}},{"type":"Feature","geometry":{"type":"LineString","coordinates":[[-90.898,12.584],[-91.308,12.832]]},"properties":{"name":"CO\\NA","plate_boundary":"CO\\NA","step_class":"SUB"}},{"type":"Feature","geometry":{"type":"LineString","coordinates":[[-91.308,12.832],[-91.719,13.08]]},"properties":{"name":"CO\\NA","plate_boundary":"CO\\NA","step_class":"SUB"}},{"type":"Feature","geometry":{"type":"LineString","coordinates":[[-91.719,13.08],[-92.063,13.271]]},"properties":{"name":"CO\\NA","plate_boundary":"CO\\NA","step_class":"SUB"}},{"type":"Feature","geometry":{"type":"LineString","coordinates":[[-92.063,13.271],[-92.272,13.223]]},"properties":{"name":"CO\\NA","plate_boundary":"CO\\NA","step_class":"SUB"}},{"type":"Feature","geometry":{"type":"LineString","coordinates":[[-92.272,13.223],[-92.599,13.498]]},"properties":{"name":"CO\\NA","plate_boundary":"CO\\NA","step_class":"SUB"}},{"type":"Feature","geometry":{"type":"LineString","coordinates":[[-92.599,13.498],[-92.962,13.722]]},"properties":{"name":"CO\\NA","plate_boundary":"CO\\NA","step_class":"SUB"}},{"type":"Feature","geometry":{"type":"LineString","coordinates":[[-92.962,13.722],[-93.309,13.793]]},"properties":{"name":"CO\\NA","plate_boundary":"CO\\NA","step_class":"SUB"}},{"type":"Feature","geometry":{"type":"LineString","coordinates":[[-93.309,13.793],[-93.656,14.016]]},"properties":{"name":"CO\\NA","plate_boundary":"CO\\NA","step_class":"SUB"}},{"type":"Feature","geometry":{"type":"LineString","coordinates":[[-93.656,14.016],[-94.055,14.222]]},"properties":{"name":"CO\\NA","plate_boundary":"CO\\NA","step_class":"SUB"}},{"type":"Feature","geometry":{"type":"LineString","coordinates":[[-94.055,14.222],[-94.542,14.479]]},"properties":{"name":"CO\\NA","plate_boundary":"CO\\NA","step_class":"SUB"}},{"type":"Feature","geometry":{"type":"LineString","coordinates":[[-94.542,14.479],[-94.873,14.7]]},"properties":{"name":"CO\\NA","plate_boundary":"CO\\NA","step_class":"SUB"}},{"type":"Feature","geometry":{"type":"LineString","coordinates":[[-94.873,14.7],[-95.117,14.887]]},"properties":{"name":"CO\\NA","plate_boundary":"CO\\NA","step_class":"SUB"}},{"type":"Feature","geometry":{"type":"LineString","coordinates":[[-95.117,14.887],[-95.466,15.09]]},"properties":{"name":"CO\\NA","plate_boundary":"CO\\NA","step_class":"SUB"}},{"type":"Feature","geometry":{"type":"LineString","coordinates":[[-95.466,15.09],[-95.799,15.276]]},"properties":{"name":"CO\\NA","plate_boundary":"CO\\NA","step_class":"SUB"}},{"type":"Feature","geometry":{"type":"LineString","coordinates":[[-95.799,15.276],[-96.219,15.361]]},"properties":{"name":"CO\\NA","plate_boundary":"CO\\NA","step_class":"SUB"}},{"type":"Feature","geometry":{"type":"LineString","coordinates":[[-96.219,15.361],[-96.727,15.36]]},"properties":{"name":"CO\\NA","plate_boundary":"CO\\NA","step_class":"SUB"}},{"type":"Feature","geometry":{"type":"LineString","coordinates":[[-96.727,15.36],[-97.217,15.358]]},"properties":{"name":"CO\\NA","plate_boundary":"CO\\NA","step_class":"SUB"}},{"type":"Feature","geometry":{"type":"LineString","coordinates":[[-97.217,15.358],[-97.691,15.508]]},"properties":{"name":"CO\\NA","plate_boundary":"CO\\NA","step_class":"SUB"}},{"type":"Feature","geometry":{"type":"LineString","coordinates":[[-97.691,15.508],[-98.166,15.64]]},"properties":{"name":"CO\\NA","plate_boundary":"CO\\NA","step_class":"SUB"}},{"type":"Feature","geometry":{"type":"LineString","coordinates":[[-98.166,15.64],[-98.588,15.771]]},"properties":{"name":"CO\\NA","plate_boundary":"CO\\NA","step_class":"SUB"}},{"type":"Feature","geometry":{"type":"LineString","coordinates":[[-98.588,15.771],[-99.028,15.919]]},"properties":{"name":"CO\\NA","plate_boundary":"CO\\NA","step_class":"SUB"}},{"type":"Feature","geometry":{"type":"LineString","coordinates":[[-99.028,15.919],[-99.435,16.134]]},"properties":{"name":"CO\\NA","plate_boundary":"CO\\NA","step_class":"SUB"}},{"type":"Feature","geometry":{"type":"LineString","coordinates":[[-99.435,16.134],[-99.806,16.298]]},"properties":{"name":"CO\\NA","plate_boundary":"CO\\NA","step_class":"SUB"}},{"type":"Feature","geometry":{"type":"LineString","coordinates":[[-99.806,16.298],[-100.336,16.442]]},"properties":{"name":"CO\\NA","plate_boundary":"CO\\NA","step_class":"SUB"}},{"type":"Feature","geometry":{"type":"LineString","coordinates":[[-100.336,16.442],[-100.867,16.636]]},"properties":{"name":"CO\\NA","plate_boundary":"CO\\NA","step_class":"SUB"}},{"type":"Feature","geometry":{"type":"LineString","coordinates":[[-100.867,16.636],[-101.703,17.026]]},"properties":{"name":"CO\\NA","plate_boundary":"CO\\NA","step_class":"SUB"}},{"type":"Feature","geometry":{"type":"LineString","coordinates":[[-101.703,17.026],[-102.432,17.28]]},"properties":{"name":"CO\\NA","plate_boundary":"CO\\NA","step_class":"SUB"}},{"type":"Feature","geometry":{"type":"LineString","coordinates":[[-102.432,17.28],[-103.2,17.615]]},"properties":{"name":"CO\\NA","plate_boundary":"CO\\NA","step_class":"SUB"}},{"type":"Feature","geometry":{"type":"LineString","coordinates":[[-103.2,17.615],[-103.792,17.92]]},"properties":{"name":"CO\\NA","plate_boundary":"CO\\NA","step_class":"SUB"}},{"type":"Feature","geometry":{"type":"LineString","coordinates":[[-103.792,17.92],[-104.191,18.138]]},"properties":{"name":"CO\\NA","plate_boundary":"CO\\NA","step_class":"SUB"}},{"type":"Feature","geometry":{"type":"LineString","coordinates":[[-104.191,18.138],[-104.406,18.209]]},"properties":{"name":"CO\\NA","plate_boundary":"CO\\NA","step_class":"SUB"}},{"type":"Feature","geometry":{"type":"LineString","coordinates":[[-104.406,18.209],[-104.725,18.368]]},"properties":{"name":"CO\\NA","plate_boundary":"CO\\NA","step_class":"SUB"}},{"type":"Feature","geometry":{"type":"LineString","coordinates":[[-104.725,18.368],[-105.043,18.622]]},"properties":{"name":"CO\\NA","plate_boundary":"CO\\NA","step_class":"SUB"}},{"type":"Feature","geometry":{"type":"LineString","coordinates":[[-105.043,18.622],[-105.247,18.762]]},"properties":{"name":"CO\\NA","plate_boundary":"CO\\NA","step_class":"SUB"}},{"type":"Feature","geometry":{"type":"LineString","coordinates":[[-124.742,40.313],[-124.953,40.633]]},"properties":{"name":"JF\\NA","plate_boundary":"JF\\NA","step_class":"SUB"}},{"type":"Feature","geometry":{"type":"LineString","coordinates":[[-124.953,40.633],[-124.933,40.884]]},"properties":{"name":"JF\\NA","plate_boundary":"JF\\NA","step_class":"SUB"}},{"type":"Feature","geometry":{"type":"LineString","coordinates":[[-124.933,40.884],[-125.089,41.135]]},"properties":{"name":"JF\\NA","plate_boundary":"JF\\NA","step_class":"SUB"}},{"type":"Feature","geometry":{"type":"LineString","coordinates":[[-125.089,41.135],[-125.182,41.38]]},"properties":{"name":"JF\\NA","plate_boundary":"JF\\NA","step_class":"SUB"}},{"type":"Feature","geometry":{"type":"LineString","coordinates":[[-125.182,41.38],[-125.309,41.652]]},"properties":{"name":"JF\\NA","plate_boundary":"JF\\NA","step_class":"SUB"}},{"type":"Feature","geometry":{"type":"LineString","coordinates":[[-125.309,41.652],[-125.281,41.818]]},"properties":{"name":"JF\\NA","plate_boundary":"JF\\NA","step_class":"SUB"}},{"type":"Feature","geometry":{"type":"LineString","coordinates":[[-125.281,41.818],[-125.313,41.986]]},"properties":{"name":"JF\\NA","plate_boundary":"JF\\NA","step_class":"SUB"}},{"type":"Feature","geometry":{"type":"LineString","coordinates":[[-125.313,41.986],[-125.331,42.142]]},"properties":{"name":"JF\\NA","plate_boundary":"JF\\NA","step_class":"SUB"}},{"type":"Feature","geometry":{"type":"LineString","coordinates":[[-125.331,42.142],[-125.29,42.285]]},"properties":{"name":"JF\\NA","plate_boundary":"JF\\NA","step_class":"SUB"}},{"type":"Feature","geometry":{"type":"LineString","coordinates":[[-125.29,42.285],[-125.209,42.359]]},"properties":{"name":"JF\\NA","plate_boundary":"JF\\NA","step_class":"SUB"}},{"type":"Feature","geometry":{"type":"LineString","coordinates":[[-125.209,42.359],[-125.198,42.492]]},"properties":{"name":"JF\\NA","plate_boundary":"JF\\NA","step_class":"SUB"}},{"type":"Feature","geometry":{"type":"LineString","coordinates":[[-125.198,42.492],[-125.268,42.561]]},"properties":{"name":"JF\\NA","plate_boundary":"JF\\NA","step_class":"SUB"}},{"type":"Feature","geometry":{"type":"LineString","coordinates":[[-125.268,42.561],[-125.289,42.862]]},"properties":{"name":"JF\\NA","plate_boundary":"JF\\NA","step_class":"SUB"}},{"type":"Feature","geometry":{"type":"LineString","coordinates":[[-125.289,42.862],[-125.289,43.051]]},"properties":{"name":"JF\\NA","plate_boundary":"JF\\NA","step_class":"SUB"}},{"type":"Feature","geometry":{"type":"LineString","coordinates":[[-125.289,43.051],[-125.343,43.143]]},"properties":{"name":"JF\\NA","plate_boundary":"JF\\NA","step_class":"SUB"}},{"type":"Feature","geometry":{"type":"LineString","coordinates":[[-125.343,43.143],[-125.394,43.267]]},"properties":{"name":"JF\\NA","plate_boundary":"JF\\NA","step_class":"SUB"}},{"type":"Feature","geometry":{"type":"LineString","coordinates":[[-125.394,43.267],[-125.474,43.426]]},"properties":{"name":"JF\\NA","plate_boundary":"JF\\NA","step_class":"SUB"}},{"type":"Feature","geometry":{"type":"LineString","coordinates":[[-125.474,43.426],[-125.48,43.737]]},"properties":{"name":"JF\\NA","plate_boundary":"JF\\NA","step_class":"SUB"}},{"type":"Feature","geometry":{"type":"LineString","coordinates":[[-125.48,43.737],[-125.45,43.925]]},"properties":{"name":"JF\\NA","plate_boundary":"JF\\NA","step_class":"SUB"}},{"type":"Feature","geometry":{"type":"LineString","coordinates":[[-125.45,43.925],[-125.429,44.002]]},"properties":{"name":"JF\\NA","plate_boundary":"JF\\NA","step_class":"SUB"}},{"type":"Feature","geometry":{"type":"LineString","coordinates":[[-125.429,44.002],[-125.362,44.066]]},"properties":{"name":"JF\\NA","plate_boundary":"JF\\NA","step_class":"SUB"}},{"type":"Feature","geometry":{"type":"LineString","coordinates":[[-125.362,44.066],[-125.372,44.323]]},"properties":{"name":"JF\\NA","plate_boundary":"JF\\NA","step_class":"SUB"}},{"type":"Feature","geometry":{"type":"LineString","coordinates":[[-125.372,44.323],[-125.372,44.523]]},"properties":{"name":"JF\\NA","plate_boundary":"JF\\NA","step_class":"SUB"}},{"type":"Feature","geometry":{"type":"LineString","coordinates":[[-125.372,44.523],[-125.376,44.667]]},"properties":{"name":"JF\\NA","plate_boundary":"JF\\NA","step_class":"SUB"}},{"type":"Feature","geometry":{"type":"LineString","coordinates":[[-125.376,44.667],[-125.434,44.725]]},"properties":{"name":"JF\\NA","plate_boundary":"JF\\NA","step_class":"SUB"}},{"type":"Feature","geometry":{"type":"LineString","coordinates":[[-125.434,44.725],[-125.437,44.881]]},"properties":{"name":"JF\\NA","plate_boundary":"JF\\NA","step_class":"SUB"}},{"type":"Feature","geometry":{"type":"LineString","coordinates":[[-125.437,44.881],[-125.435,45.104]]},"properties":{"name":"JF\\NA","plate_boundary":"JF\\NA","step_class":"SUB"}},{"type":"Feature","geometry":{"type":"LineString","coordinates":[[-125.435,45.104],[-125.517,45.474]]},"properties":{"name":"JF\\NA","plate_boundary":"JF\\NA","step_class":"SUB"}},{"type":"Feature","geometry":{"type":"LineString","coordinates":[[-125.517,45.474],[-125.655,45.946]]},"properties":{"name":"JF\\NA","plate_boundary":"JF\\NA","step_class":"SUB"}},{"type":"Feature","geometry":{"type":"LineString","coordinates":[[-125.655,45.946],[-125.773,46.295]]},"properties":{"name":"JF\\NA","plate_boundary":"JF\\NA","step_class":"SUB"}},{"type":"Feature","geometry":{"type":"LineString","coordinates":[[-125.773,46.295],[-125.876,46.643]]},"properties":{"name":"JF\\NA","plate_boundary":"JF\\NA","step_class":"SUB"}},{"type":"Feature","geometry":{"type":"LineString","coordinates":[[-125.876,46.643],[-125.998,46.97]]},"properties":{"name":"JF\\NA","plate_boundary":"JF\\NA","step_class":"SUB"}},{"type":"Feature","geometry":{"type":"LineString","coordinates":[[-125.998,46.97],[-126.085,47.35]]},"properties":{"name":"JF\\NA","plate_boundary":"JF\\NA","step_class":"SUB"}},{"type":"Feature","geometry":{"type":"LineString","coordinates":[[-126.085,47.35],[-126.37,47.748]]},"properties":{"name":"JF\\NA","plate_boundary":"JF\\NA","step_class":"SUB"}},{"type":"Feature","geometry":{"type":"LineString","coordinates":[[-126.37,47.748],[-126.486,47.996]]},"properties":{"name":"JF\\NA","plate_boundary":"JF\\NA","step_class":"SUB"}},{"type":"Feature","geometry":{"type":"LineString","coordinates":[[-126.486,47.996],[-126.733,48.291]]},"properties":{"name":"JF\\NA","plate_boundary":"JF\\NA","step_class":"SUB"}},{"type":"Feature","geometry":{"type":"LineString","coordinates":[[-126.733,48.291],[-127.018,48.565]]},"properties":{"name":"JF\\NA","plate_boundary":"JF\\NA","step_class":"SUB"}},{"type":"Feature","geometry":{"type":"LineString","coordinates":[[-127.018,48.565],[-127.378,48.75]]},"properties":{"name":"JF\\NA","plate_boundary":"JF\\NA","step_class":"SUB"}},{"type":"Feature","geometry":{"type":"LineString","coordinates":[[-127.378,48.75],[-127.608,48.877]]},"properties":{"name":"JF\\NA","plate_boundary":"JF\\NA","step_class":"SUB"}},{"type":"Feature","geometry":{"type":"LineString","coordinates":[[-127.608,48.877],[-127.818,49.08]]},"properties":{"name":"JF\\NA","plate_boundary":"JF\\NA","step_class":"SUB"}},{"type":"Feature","geometry":{"type":"LineString","coordinates":[[-127.818,49.08],[-127.852,49.491]]},"properties":{"name":"JF\\NA","plate_boundary":"JF\\NA","step_class":"SUB"}},{"type":"Feature","geometry":{"type":"LineString","coordinates":[[-127.852,49.491],[-128.029,49.781]]},"properties":{"name":"JF\\NA","plate_boundary":"JF\\NA","step_class":"SUB"}},{"type":"Feature","geometry":{"type":"LineString","coordinates":[[-128.029,49.781],[-128.283,49.885]]},"properties":{"name":"JF\\NA","plate_boundary":"JF\\NA","step_class":"SUB"}},{"type":"Feature","geometry":{"type":"LineString","coordinates":[[-128.283,49.885],[-128.414,50.086]]},"properties":{"name":"JF\\NA","plate_boundary":"JF\\NA","step_class":"SUB"}},{"type":"Feature","geometry":{"type":"LineString","coordinates":[[-128.414,50.086],[-128.719,50.31]]},"properties":{"name":"JF\\NA","plate_boundary":"JF\\NA","step_class":"SUB"}},{"type":"Feature","geometry":{"type":"LineString","coordinates":[[-128.719,50.31],[-129.01,50.479]]},"properties":{"name":"JF\\NA","plate_boundary":"JF\\NA","step_class":"SUB"}},{"type":"Feature","geometry":{"type":"LineString","coordinates":[[-129.01,50.479],[-129.46,50.647]]},"properties":{"name":"JF\\NA","plate_boundary":"JF\\NA","step_class":"SUB"}},{"type":"Feature","geometry":{"type":"LineString","coordinates":[[-129.46,50.647],[-129.738,50.836]]},"properties":{"name":"JF\\NA","plate_boundary":"JF\\NA","step_class":"SUB"}},{"type":"Feature","geometry":{"type":"LineString","coordinates":[[-129.738,50.836],[-129.982,51.101]]},"properties":{"name":"JF\\NA","plate_boundary":"JF\\NA","step_class":"SUB"}},{"type":"Feature","geometry":{"type":"LineString","coordinates":[[-129.982,51.101],[-130.212,51.278]]},"properties":{"name":"JF\\NA","plate_boundary":"JF\\NA","step_class":"SUB"}},{"type":"Feature","geometry":{"type":"LineString","coordinates":[[-130.212,51.278],[-130.548,51.398]]},"properties":{"name":"JF\\NA","plate_boundary":"JF\\NA","step_class":"SUB"}},{"type":"Feature","geometry":{"type":"LineString","coordinates":[[-130.548,51.398],[-130.85,51.612]]},"properties":{"name":"JF\\NA","plate_boundary":"JF\\NA","step_class":"SUB"}},{"type":"Feature","geometry":{"type":"LineString","coordinates":[[-179.202,50.496],[-178.48,50.49]]},"properties":{"name":"NA/PA","plate_boundary":"NA/PA","step_class":"SUB"}},{"type":"Feature","geometry":{"type":"LineString","coordinates":[[-178.48,50.49],[-177.758,50.484]]},"properties":{"name":"NA/PA","plate_boundary":"NA/PA","step_class":"SUB"}},{"type":"Feature","geometry":{"type":"LineString","coordinates":[[-177.758,50.484],[-177.088,50.496]]},"properties":{"name":"NA/PA","plate_boundary":"NA/PA","step_class":"SUB"}},{"type":"Feature","geometry":{"type":"LineString","coordinates":[[-177.088,50.496],[-176.223,50.588]]},"properties":{"name":"NA/PA","plate_boundary":"NA/PA","step_class":"SUB"}},{"type":"Feature","geometry":{"type":"LineString","coordinates":[[-176.223,50.588],[-175.629,50.745]]},"properties":{"name":"NA/PA","plate_boundary":"NA/PA","step_class":"SUB"}},{"type":"Feature","geometry":{"type":"LineString","coordinates":[[-175.629,50.745],[-174.907,50.826]]},"properties":{"name":"NA/PA","plate_boundary":"NA/PA","step_class":"SUB"}},{"type":"Feature","geometry":{"type":"LineString","coordinates":[[-174.907,50.826],[-174.119,50.896]]},"properties":{"name":"NA/PA","plate_boundary":"NA/PA","step_class":"SUB"}},{"type":"Feature","geometry":{"type":"LineString","coordinates":[[-174.119,50.896],[-173.328,50.964]]},"properties":{"name":"NA/PA","plate_boundary":"NA/PA","step_class":"SUB"}},{"type":"Feature","geometry":{"type":"LineString","coordinates":[[-173.328,50.964],[-172.484,51.069]]},"properties":{"name":"NA/PA","plate_boundary":"NA/PA","step_class":"SUB"}},{"type":"Feature","geometry":{"type":"LineString","coordinates":[[-172.484,51.069],[-171.634,51.171]]},"properties":{"name":"NA/PA","plate_boundary":"NA/PA","step_class":"SUB"}},{"type":"Feature","geometry":{"type":"LineString","coordinates":[[-171.634,51.171],[-170.897,51.306]]},"properties":{"name":"NA/PA","plate_boundary":"NA/PA","step_class":"SUB"}},{"type":"Feature","geometry":{"type":"LineString","coordinates":[[-170.897,51.306],[-170.159,51.439]]},"properties":{"name":"NA/PA","plate_boundary":"NA/PA","step_class":"SUB"}},{"type":"Feature","geometry":{"type":"LineString","coordinates":[[-170.159,51.439],[-169.378,51.632]]},"properties":{"name":"NA/PA","plate_boundary":"NA/PA","step_class":"SUB"}},{"type":"Feature","geometry":{"type":"LineString","coordinates":[[-169.378,51.632],[-168.972,51.74]]},"properties":{"name":"NA/PA","plate_boundary":"NA/PA","step_class":"SUB"}},{"type":"Feature","geometry":{"type":"LineString","coordinates":[[-168.972,51.74],[-167.99,52.001]]},"properties":{"name":"NA/PA","plate_boundary":"NA/PA","step_class":"SUB"}},{"type":"Feature","geometry":{"type":"LineString","coordinates":[[-167.99,52.001],[-166.819,52.257]]},"properties":{"name":"NA/PA","plate_boundary":"NA/PA","step_class":"SUB"}},{"type":"Feature","geometry":{"type":"LineString","coordinates":[[-166.819,52.257],[-166.108,52.453]]},"properties":{"name":"NA/PA","plate_boundary":"NA/PA","step_class":"SUB"}},{"type":"Feature","geometry":{"type":"LineString","coordinates":[[-166.108,52.453],[-165.39,52.644]]},"properties":{"name":"NA/PA","plate_boundary":"NA/PA","step_class":"SUB"}},{"type":"Feature","geometry":{"type":"LineString","coordinates":[[-165.39,52.644],[-164.665,52.818]]},"properties":{"name":"NA/PA","plate_boundary":"NA/PA","step_class":"SUB"}},{"type":"Feature","geometry":{"type":"LineString","coordinates":[[-164.665,52.818],[-163.934,52.988]]},"properties":{"name":"NA/PA","plate_boundary":"NA/PA","step_class":"SUB"}},{"type":"Feature","geometry":{"type":"LineString","coordinates":[[-163.934,52.988],[-163.177,53.18]]},"properties":{"name":"NA/PA","plate_boundary":"NA/PA","step_class":"SUB"}},{"type":"Feature","geometry":{"type":"LineString","coordinates":[[-163.177,53.18],[-162.413,53.367]]},"properties":{"name":"NA/PA","plate_boundary":"NA/PA","step_class":"SUB"}},{"type":"Feature","geometry":{"type":"LineString","coordinates":[[-162.413,53.367],[-161.664,53.496]]},"properties":{"name":"NA/PA","plate_boundary":"NA/PA","step_class":"SUB"}},{"type":"Feature","geometry":{"type":"LineString","coordinates":[[-161.664,53.496],[-160.91,53.621]]},"properties":{"name":"NA/PA","plate_boundary":"NA/PA","step_class":"SUB"}},{"type":"Feature","geometry":{"type":"LineString","coordinates":[[-160.91,53.621],[-160.129,53.741]]},"properties":{"name":"NA/PA","plate_boundary":"NA/PA","step_class":"SUB"}},{"type":"Feature","geometry":{"type":"LineString","coordinates":[[-160.129,53.741],[-159.344,53.855]]},"properties":{"name":"NA/PA","plate_boundary":"NA/PA","step_class":"SUB"}},{"type":"Feature","geometry":{"type":"LineString","coordinates":[[-159.344,53.855],[-157.986,54.101]]},"properties":{"name":"NA/PA","plate_boundary":"NA/PA","step_class":"SUB"}},{"type":"Feature","geometry":{"type":"LineString","coordinates":[[-157.986,54.101],[-157.067,54.318]]},"properties":{"name":"NA/PA","plate_boundary":"NA/PA","step_class":"SUB"}},{"type":"Feature","geometry":{"type":"LineString","coordinates":[[-157.067,54.318],[-156.138,54.527]]},"properties":{"name":"NA/PA","plate_boundary":"NA/PA","step_class":"SUB"}},{"type":"Feature","geometry":{"type":"LineString","coordinates":[[-156.138,54.527],[-155.239,54.785]]},"properties":{"name":"NA/PA","plate_boundary":"NA/PA","step_class":"SUB"}},{"type":"Feature","geometry":{"type":"LineString","coordinates":[[-155.239,54.785],[-154.16,55.239]]},"properties":{"name":"NA/PA","plate_boundary":"NA/PA","step_class":"SUB"}},{"type":"Feature","geometry":{"type":"LineString","coordinates":[[-154.16,55.239],[-153.164,55.61]]},"properties":{"name":"NA/PA","plate_boundary":"NA/PA","step_class":"SUB"}},{"type":"Feature","geometry":{"type":"LineString","coordinates":[[-153.164,55.61],[-152.227,56.058]]},"properties":{"name":"NA/PA","plate_boundary":"NA/PA","step_class":"SUB"}},{"type":"Feature","geometry":{"type":"LineString","coordinates":[[-152.227,56.058],[-151.218,56.309]]},"properties":{"name":"NA/PA","plate_boundary":"NA/PA","step_class":"SUB"}},{"type":"Feature","geometry":{"type":"LineString","coordinates":[[-151.218,56.309],[-150.547,56.499]]},"properties":{"name":"NA/PA","plate_boundary":"NA/PA","step_class":"SUB"}},{"type":"Feature","geometry":{"type":"LineString","coordinates":[[-150.547,56.499],[-150.081,56.623]]},"properties":{"name":"NA/PA","plate_boundary":"NA/PA","step_class":"SUB"}},{"type":"Feature","geometry":{"type":"LineString","coordinates":[[-150.081,56.623],[-149.22,56.925]]},"properties":{"name":"NA/PA","plate_boundary":"NA/PA","step_class":"SUB"}},{"type":"Feature","geometry":{"type":"LineString","coordinates":[[-149.22,56.925],[-148.257,57.347]]},"properties":{"name":"NA/PA","plate_boundary":"NA/PA","step_class":"SUB"}},{"type":"Feature","geometry":{"type":"LineString","coordinates":[[-148.257,57.347],[-147.449,57.832]]},"properties":{"name":"NA/PA","plate_boundary":"NA/PA","step_class":"SUB"}},{"type":"Feature","geometry":{"type":"LineString","coordinates":[[-147.449,57.832],[-146.759,58.352]]},"properties":{"name":"NA/PA","plate_boundary":"NA/PA","step_class":"SUB"}},{"type":"Feature","geometry":{"type":"LineString","coordinates":[[-146.759,58.352],[-146.264,58.814]]},"properties":{"name":"NA/PA","plate_boundary":"NA/PA","step_class":"SUB"}},{"type":"Feature","geometry":{"type":"LineString","coordinates":[[-146.264,58.814],[-145.756,59.273]]},"properties":{"name":"NA/PA","plate_boundary":"NA/PA","step_class":"SUB"}},{"type":"Feature","geometry":{"type":"LineString","coordinates":[[-76.006,-45.659],[-75.821,-44.849]]},"properties":{"name":"NZ\\SA","plate_boundary":"NZ\\SA","step_class":"SUB"}},{"type":"Feature","geometry":{"type":"LineString","coordinates":[[-75.821,-44.849],[-75.782,-44.051]]},"properties":{"name":"NZ\\SA","plate_boundary":"NZ\\SA","step_class":"SUB"}},{"type":"Feature","geometry":{"type":"LineString","coordinates":[[-75.782,-44.051],[-75.632,-43.648]]},"properties":{"name":"NZ\\SA","plate_boundary":"NZ\\SA","step_class":"SUB"}},{"type":"Feature","geometry":{"type":"LineString","coordinates":[[-75.632,-43.648],[-75.558,-42.972]]},"properties":{"name":"NZ\\SA","plate_boundary":"NZ\\SA","step_class":"SUB"}},{"type":"Feature","geometry":{"type":"LineString","coordinates":[[-75.558,-42.972],[-75.402,-42.285]]},"properties":{"name":"NZ\\SA","plate_boundary":"NZ\\SA","step_class":"SUB"}},{"type":"Feature","geometry":{"type":"LineString","coordinates":[[-75.402,-42.285],[-75.397,-41.826]]},"properties":{"name":"NZ\\SA","plate_boundary":"NZ\\SA","step_class":"SUB"}},{"type":"Feature","geometry":{"type":"LineString","coordinates":[[-75.397,-41.826],[-75.392,-41.367]]},"properties":{"name":"NZ\\SA","plate_boundary":"NZ\\SA","step_class":"SUB"}},{"type":"Feature","geometry":{"type":"LineString","coordinates":[[-75.392,-41.367],[-75.189,-40.863]]},"properties":{"name":"NZ\\SA","plate_boundary":"NZ\\SA","step_class":"SUB"}},{"type":"Feature","geometry":{"type":"LineString","coordinates":[[-75.189,-40.863],[-75.195,-40.359]]},"properties":{"name":"NZ\\SA","plate_boundary":"NZ\\SA","step_class":"SUB"}},{"type":"Feature","geometry":{"type":"LineString","coordinates":[[-75.195,-40.359],[-75.128,-39.813]]},"properties":{"name":"NZ\\SA","plate_boundary":"NZ\\SA","step_class":"SUB"}},{"type":"Feature","geometry":{"type":"LineString","coordinates":[[-75.128,-39.813],[-75.149,-39.564]]},"properties":{"name":"NZ\\SA","plate_boundary":"NZ\\SA","step_class":"SUB"}},{"type":"Feature","geometry":{"type":"LineString","coordinates":[[-75.149,-39.564],[-74.988,-39.068]]},"properties":{"name":"NZ\\SA","plate_boundary":"NZ\\SA","step_class":"SUB"}},{"type":"Feature","geometry":{"type":"LineString","coordinates":[[-74.988,-39.068],[-74.836,-38.542]]},"properties":{"name":"NZ\\SA","plate_boundary":"NZ\\SA","step_class":"SUB"}},{"type":"Feature","geometry":{"type":"LineString","coordinates":[[-74.836,-38.542],[-74.655,-38.138]]},"properties":{"name":"NZ\\SA","plate_boundary":"NZ\\SA","step_class":"SUB"}},{"type":"Feature","geometry":{"type":"LineString","coordinates":[[-74.655,-38.138],[-74.596,-37.563]]},"properties":{"name":"NZ\\SA","plate_boundary":"NZ\\SA","step_class":"SUB"}},{"type":"Feature","geometry":{"type":"LineString","coordinates":[[-74.596,-37.563],[-74.442,-36.725]]},"properties":{"name":"NZ\\SA","plate_boundary":"NZ\\SA","step_class":"SUB"}},{"type":"Feature","geometry":{"type":"LineString","coordinates":[[-74.442,-36.725],[-74.262,-36.165]]},"properties":{"name":"NZ\\SA","plate_boundary":"NZ\\SA","step_class":"SUB"}},{"type":"Feature","geometry":{"type":"LineString","coordinates":[[-74.262,-36.165],[-73.897,-35.578]]},"properties":{"name":"NZ\\SA","plate_boundary":"NZ\\SA","step_class":"SUB"}},{"type":"Feature","geometry":{"type":"LineString","coordinates":[[-73.897,-35.578],[-73.675,-34.888]]},"properties":{"name":"NZ\\SA","plate_boundary":"NZ\\SA","step_class":"SUB"}},{"type":"Feature","geometry":{"type":"LineString","coordinates":[[-73.675,-34.888],[-73.246,-34.29]]},"properties":{"name":"NZ\\SA","plate_boundary":"NZ\\SA","step_class":"SUB"}},{"type":"Feature","geometry":{"type":"LineString","coordinates":[[-73.246,-34.29],[-72.938,-33.837]]},"properties":{"name":"NZ\\SA","plate_boundary":"NZ\\SA","step_class":"SUB"}},{"type":"Feature","geometry":{"type":"LineString","coordinates":[[-72.938,-33.837],[-72.861,-33.359]]},"properties":{"name":"NZ\\SA","plate_boundary":"NZ\\SA","step_class":"SUB"}},{"type":"Feature","geometry":{"type":"LineString","coordinates":[[-72.861,-33.359],[-72.889,-32.742]]},"properties":{"name":"NZ\\SA","plate_boundary":"NZ\\SA","step_class":"SUB"}},{"type":"Feature","geometry":{"type":"LineString","coordinates":[[-72.889,-32.742],[-72.762,-32.319]]},"properties":{"name":"NZ\\SA","plate_boundary":"NZ\\SA","step_class":"SUB"}},{"type":"Feature","geometry":{"type":"LineString","coordinates":[[-72.762,-32.319],[-72.678,-31.531]]},"properties":{"name":"NZ\\SA","plate_boundary":"NZ\\SA","step_class":"SUB"}},{"type":"Feature","geometry":{"type":"LineString","coordinates":[[-72.678,-31.531],[-72.618,-30.965]]},"properties":{"name":"NZ\\SA","plate_boundary":"NZ\\SA","step_class":"SUB"}},{"type":"Feature","geometry":{"type":"LineString","coordinates":[[-72.618,-30.965],[-72.6,-30.19]]},"properties":{"name":"NZ\\SA","plate_boundary":"NZ\\SA","step_class":"SUB"}},{"type":"Feature","geometry":{"type":"LineString","coordinates":[[-72.6,-30.19],[-72.555,-29.536]]},"properties":{"name":"NZ\\SA","plate_boundary":"NZ\\SA","step_class":"SUB"}},{"type":"Feature","geometry":{"type":"LineString","coordinates":[[-72.555,-29.536],[-72.433,-28.901]]},"properties":{"name":"NZ\\SA","plate_boundary":"NZ\\SA","step_class":"SUB"}},{"type":"Feature","geometry":{"type":"LineString","coordinates":[[-72.433,-28.901],[-72.17,-28.278]]},"properties":{"name":"NZ\\SA","plate_boundary":"NZ\\SA","step_class":"SUB"}},{"type":"Feature","geometry":{"type":"LineString","coordinates":[[-72.17,-28.278],[-71.958,-27.755]]},"properties":{"name":"NZ\\SA","plate_boundary":"NZ\\SA","step_class":"SUB"}},{"type":"Feature","geometry":{"type":"LineString","coordinates":[[-71.958,-27.755],[-71.847,-27.248]]},"properties":{"name":"NZ\\SA","plate_boundary":"NZ\\SA","step_class":"SUB"}},{"type":"Feature","geometry":{"type":"LineString","coordinates":[[-71.847,-27.248],[-71.753,-26.652]]},"properties":{"name":"NZ\\SA","plate_boundary":"NZ\\SA","step_class":"SUB"}},{"type":"Feature","geometry":{"type":"LineString","coordinates":[[-71.753,-26.652],[-71.628,-25.84]]},"properties":{"name":"NZ\\SA","plate_boundary":"NZ\\SA","step_class":"SUB"}},{"type":"Feature","geometry":{"type":"LineString","coordinates":[[-71.628,-25.84],[-71.524,-25.093]]},"properties":{"name":"NZ\\SA","plate_boundary":"NZ\\SA","step_class":"SUB"}},{"type":"Feature","geometry":{"type":"LineString","coordinates":[[-71.524,-25.093],[-71.466,-24.263]]},"properties":{"name":"NZ\\SA","plate_boundary":"NZ\\SA","step_class":"SUB"}},{"type":"Feature","geometry":{"type":"LineString","coordinates":[[-71.466,-24.263],[-71.39,-23.523]]},"properties":{"name":"NZ\\SA","plate_boundary":"NZ\\SA","step_class":"SUB"}},{"type":"Feature","geometry":{"type":"LineString","coordinates":[[-71.39,-23.523],[-71.348,-22.758]]},"properties":{"name":"NZ\\SA","plate_boundary":"NZ\\SA","step_class":"SUB"}},{"type":"Feature","geometry":{"type":"LineString","coordinates":[[-71.348,-22.758],[-71.307,-21.965]]},"properties":{"name":"NZ\\SA","plate_boundary":"NZ\\SA","step_class":"SUB"}},{"type":"Feature","geometry":{"type":"LineString","coordinates":[[-71.307,-21.965],[-71.249,-21.262]]},"properties":{"name":"NZ\\AP","plate_boundary":"NZ\\AP","step_class":"SUB"}},{"type":"Feature","geometry":{"type":"LineString","coordinates":[[-71.249,-21.262],[-71.323,-20.758]]},"properties":{"name":"NZ\\AP","plate_boundary":"NZ\\AP","step_class":"SUB"}},{"type":"Feature","geometry":{"type":"LineString","coordinates":[[-71.323,-20.758],[-71.362,-20.249]]},"properties":{"name":"NZ\\AP","plate_boundary":"NZ\\AP","step_class":"SUB"}},{"type":"Feature","geometry":{"type":"LineString","coordinates":[[-71.362,-20.249],[-71.487,-19.811]]},"properties":{"name":"NZ\\AP","plate_boundary":"NZ\\AP","step_class":"SUB"}},{"type":"Feature","geometry":{"type":"LineString","coordinates":[[-71.487,-19.811],[-71.746,-19.298]]},"properties":{"name":"NZ\\AP","plate_boundary":"NZ\\AP","step_class":"SUB"}},{"type":"Feature","geometry":{"type":"LineString","coordinates":[[-71.746,-19.298],[-72.266,-18.722]]},"properties":{"name":"NZ\\AP","plate_boundary":"NZ\\AP","step_class":"SUB"}},{"type":"Feature","geometry":{"type":"LineString","coordinates":[[-72.266,-18.722],[-72.737,-18.257]]},"properties":{"name":"NZ\\AP","plate_boundary":"NZ\\AP","step_class":"SUB"}},{"type":"Feature","geometry":{"type":"LineString","coordinates":[[-72.737,-18.257],[-73.4,-17.747]]},"properties":{"name":"NZ\\AP","plate_boundary":"NZ\\AP","step_class":"SUB"}},{"type":"Feature","geometry":{"type":"LineString","coordinates":[[-73.4,-17.747],[-73.949,-17.374]]},"properties":{"name":"NZ\\AP","plate_boundary":"NZ\\AP","step_class":"SUB"}},{"type":"Feature","geometry":{"type":"LineString","coordinates":[[-73.949,-17.374],[-74.609,-16.823]]},"properties":{"name":"NZ\\AP","plate_boundary":"NZ\\AP","step_class":"SUB"}},{"type":"Feature","geometry":{"type":"LineString","coordinates":[[-74.609,-16.823],[-75.292,-16.33]]},"properties":{"name":"NZ\\AP","plate_boundary":"NZ\\AP","step_class":"SUB"}},{"type":"Feature","geometry":{"type":"LineString","coordinates":[[-75.292,-16.33],[-75.916,-15.736]]},"properties":{"name":"NZ\\AP","plate_boundary":"NZ\\AP","step_class":"SUB"}},{"type":"Feature","geometry":{"type":"LineString","coordinates":[[-75.916,-15.736],[-76.403,-15.219]]},"properties":{"name":"NZ\\SA","plate_boundary":"NZ\\SA","step_class":"SUB"}},{"type":"Feature","geometry":{"type":"LineString","coordinates":[[-76.403,-15.219],[-76.765,-14.843]]},"properties":{"name":"NZ\\SA","plate_boundary":"NZ\\SA","step_class":"SUB"}},{"type":"Feature","geometry":{"type":"LineString","coordinates":[[-76.765,-14.843],[-77.125,-14.467]]},"properties":{"name":"NZ\\SA","plate_boundary":"NZ\\SA","step_class":"SUB"}},{"type":"Feature","geometry":{"type":"LineString","coordinates":[[-77.125,-14.467],[-77.639,-13.914]]},"properties":{"name":"NZ\\SA","plate_boundary":"NZ\\SA","step_class":"SUB"}},{"type":"Feature","geometry":{"type":"LineString","coordinates":[[-77.639,-13.914],[-78.148,-13.387]]},"properties":{"name":"NZ\\SA","plate_boundary":"NZ\\SA","step_class":"SUB"}},{"type":"Feature","geometry":{"type":"LineString","coordinates":[[-78.148,-13.387],[-78.407,-13.014]]},"properties":{"name":"NZ\\SA","plate_boundary":"NZ\\SA","step_class":"SUB"}},{"type":"Feature","geometry":{"type":"LineString","coordinates":[[-78.407,-13.014],[-78.665,-12.641]]},"properties":{"name":"NZ\\SA","plate_boundary":"NZ\\SA","step_class":"SUB"}},{"type":"Feature","geometry":{"type":"LineString","coordinates":[[-78.665,-12.641],[-79.147,-11.89]]},"properties":{"name":"NZ\\SA","plate_boundary":"NZ\\SA","step_class":"SUB"}},{"type":"Feature","geometry":{"type":"LineString","coordinates":[[-79.147,-11.89],[-79.618,-11.291]]},"properties":{"name":"NZ\\SA","plate_boundary":"NZ\\SA","step_class":"SUB"}},{"type":"Feature","geometry":{"type":"LineString","coordinates":[[-79.618,-11.291],[-79.997,-10.56]]},"properties":{"name":"NZ\\SA","plate_boundary":"NZ\\SA","step_class":"SUB"}},{"type":"Feature","geometry":{"type":"LineString","coordinates":[[-79.997,-10.56],[-80.368,-9.921]]},"properties":{"name":"NZ\\SA","plate_boundary":"NZ\\SA","step_class":"SUB"}},{"type":"Feature","geometry":{"type":"LineString","coordinates":[[-80.368,-9.921],[-80.701,-9.434]]},"properties":{"name":"NZ\\SA","plate_boundary":"NZ\\SA","step_class":"SUB"}},{"type":"Feature","geometry":{"type":"LineString","coordinates":[[-80.701,-9.434],[-81.041,-8.665]]},"properties":{"name":"NZ\\SA","plate_boundary":"NZ\\SA","step_class":"SUB"}},{"type":"Feature","geometry":{"type":"LineString","coordinates":[[-81.041,-8.665],[-81.375,-7.988]]},"properties":{"name":"NZ\\SA","plate_boundary":"NZ\\SA","step_class":"SUB"}},{"type":"Feature","geometry":{"type":"LineString","coordinates":[[-81.375,-7.988],[-81.549,-7.306]]},"properties":{"name":"NZ\\SA","plate_boundary":"NZ\\SA","step_class":"SUB"}},{"type":"Feature","geometry":{"type":"LineString","coordinates":[[-81.549,-7.306],[-81.784,-6.655]]},"properties":{"name":"NZ\\SA","plate_boundary":"NZ\\SA","step_class":"SUB"}},{"type":"Feature","geometry":{"type":"LineString","coordinates":[[-81.784,-6.655],[-81.954,-6.003]]},"properties":{"name":"NZ\\SA","plate_boundary":"NZ\\SA","step_class":"SUB"}},{"type":"Feature","geometry":{"type":"LineString","coordinates":[[-81.954,-6.003],[-81.998,-5.253]]},"properties":{"name":"NZ\\SA","plate_boundary":"NZ\\SA","step_class":"SUB"}},{"type":"Feature","geometry":{"type":"LineString","coordinates":[[-81.998,-5.253],[-82.01,-4.504]]},"properties":{"name":"NZ\\SA","plate_boundary":"NZ\\SA","step_class":"SUB"}},{"type":"Feature","geometry":{"type":"LineString","coordinates":[[-82.01,-4.504],[-81.926,-3.721]]},"properties":{"name":"NZ\\SA","plate_boundary":"NZ\\SA","step_class":"SUB"}},{"type":"Feature","geometry":{"type":"LineString","coordinates":[[-81.926,-3.721],[-81.599,-3.245]]},"properties":{"name":"NZ\\SA","plate_boundary":"NZ\\SA","step_class":"SUB"}},{"type":"Feature","geometry":{"type":"LineString","coordinates":[[-81.599,-3.245],[-81.652,-3.0]]},"properties":{"name":"NZ\\ND","plate_boundary":"NZ\\ND","step_class":"SUB"}},{"type":"Feature","geometry":{"type":"LineString","coordinates":[[-81.652,-3.0],[-81.532,-2.437]]},"properties":{"name":"NZ\\ND","plate_boundary":"NZ\\ND","step_class":"SUB"}},{"type":"Feature","geometry":{"type":"LineString","coordinates":[[-81.532,-2.437],[-81.599,-1.814]]},"properties":{"name":"NZ\\ND","plate_boundary":"NZ\\ND","step_class":"SUB"}},{"type":"Feature","geometry":{"type":"LineString","coordinates":[[-81.599,-1.814],[-81.415,-1.095]]},"properties":{"name":"NZ\\ND","plate_boundary":"NZ\\ND","step_class":"SUB"}},{"type":"Feature","geometry":{"type":"LineString","coordinates":[[-81.415,-1.095],[-81.229,-0.284]]},"properties":{"name":"NZ\\ND","plate_boundary":"NZ\\ND","step_class":"SUB"}},{"type":"Feature","geometry":{"type":"LineString","coordinates":[[-81.229,-0.284],[-80.887,0.432]]},"properties":{"name":"NZ\\ND","plate_boundary":"NZ\\ND","step_class":"SUB"}},{"type":"Feature","geometry":{"type":"LineString","coordinates":[[-80.887,0.432],[-80.574,1.053]]},"properties":{"name":"NZ\\ND","plate_boundary":"NZ\\ND","step_class":"SUB"}},{"type":"Feature","geometry":{"type":"LineString","coordinates":[[-80.574,1.053],[-80.292,1.549]]},"properties":{"name":"NZ\\ND","plate_boundary":"NZ\\ND","step_class":"SUB"}},{"type":"Feature","geometry":{"type":"LineString","coordinates":[[-80.292,1.549],[-79.791,2.074]]},"properties":{"name":"NZ\\ND","plate_boundary":"NZ\\ND","step_class":"SUB"}},{"type":"Feature","geometry":{"type":"LineString","coordinates":[[-79.791,2.074],[-79.478,2.427]]},"properties":{"name":"NZ\\ND","plate_boundary":"NZ\\ND","step_class":"SUB"}},{"type":"Feature","geometry":{"type":"LineString","coordinates":[[-79.478,2.427],[-79.165,2.78]]},"properties":{"name":"NZ\\ND","plate_boundary":"NZ\\ND","step_class":"SUB"}},{"type":"Feature","geometry":{"type":"LineString","coordinates":[[-79.165,2.78],[-78.662,3.392]]},"properties":{"name":"NZ\\ND","plate_boundary":"NZ\\ND","step_class":"SUB"}},{"type":"Feature","geometry":{"type":"LineString","coordinates":[[-78.662,3.392],[-78.342,4.066]]},"properties":{"name":"NZ\\ND","plate_boundary":"NZ\\ND","step_class":"SUB"}},{"type":"Feature","geometry":{"type":"LineString","coordinates":[[-78.342,4.066],[-78.08,4.832]]},"properties":{"name":"NZ\\ND","plate_boundary":"NZ\\ND","step_class":"SUB"}},{"type":"Feature","geometry":{"type":"LineString","coordinates":[[-78.08,4.832],[-77.91,5.505]]},"properties":{"name":"NZ\\ND","plate_boundary":"NZ\\ND","step_class":"SUB"}},{"type":"Feature","geometry":{"type":"LineString","coordinates":[[-77.91,5.505],[-78.008,6.005]]},"properties":{"name":"NZ\\ND","plate_boundary":"NZ\\ND","step_class":"SUB"}},{"type":"Feature","geometry":{"type":"LineString","coordinates":[[-76.483,-52.068],[-76.312,-52.929]]},"properties":{"name":"SC/AN","plate_boundary":"SC/AN","step_class":"SUB"}},{"type":"Feature","geometry":{"type":"LineString","coordinates":[[-76.312,-52.929],[-76.02,-53.435]]},"properties":{"name":"SC/AN","plate_boundary":"SC/AN","step_class":"SUB"}},{"type":"Feature","geometry":{"type":"LineString","coordinates":[[-76.02,-53.435],[-75.72,-53.941]]},"properties":{"name":"SC/AN","plate_boundary":"SC/AN","step_class":"SUB"}},{"type":"Feature","geometry":{"type":"LineString","coordinates":[[-75.72,-53.941],[-75.239,-54.294]]},"properties":{"name":"SC/AN","plate_boundary":"SC/AN","step_class":"SUB"}},{"type":"Feature","geometry":{"type":"LineString","coordinates":[[-75.239,-54.294],[-74.749,-54.645]]},"properties":{"name":"SC/AN","plate_boundary":"SC/AN","step_class":"SUB"}},{"type":"Feature","geometry":{"type":"LineString","coordinates":[[-74.749,-54.645],[-74.12,-55.004]]},"properties":{"name":"SC/AN","plate_boundary":"SC/AN","step_class":"SUB"}},{"type":"Feature","geometry":{"type":"LineString","coordinates":[[-74.12,-55.004],[-73.48,-55.359]]},"properties":{"name":"SC/AN","plate_boundary":"SC/AN","step_class":"SUB"}},{"type":"Feature","geometry":{"type":"LineString","coordinates":[[-73.48,-55.359],[-72.995,-55.665]]},"properties":{"name":"SC/AN","plate_boundary":"SC/AN","step_class":"SUB"}},{"type":"Feature","geometry":{"type":"LineString","coordinates":[[-72.995,-55.665],[-72.277,-55.962]]},"properties":{"name":"SC/AN","plate_boundary":"SC/AN","step_class":"SUB"}},{"type":"Feature","geometry":{"type":"LineString","coordinates":[[-72.277,-55.962],[-71.548,-56.255]]},"properties":{"name":"SC/AN","plate_boundary":"SC/AN","step_class":"SUB"}},{"type":"Feature","geometry":{"type":"LineString","coordinates":[[-71.548,-56.255],[-70.401,-56.622]]},"properties":{"name":"SC/AN","plate_boundary":"SC/AN","step_class":"SUB"}},{"type":"Feature","geometry":{"type":"LineString","coordinates":[[-70.401,-56.622],[-69.256,-56.852]]},"properties":{"name":"SC/AN","plate_boundary":"SC/AN","step_class":"SUB"}},{"type":"Feature","geometry":{"type":"LineString","coordinates":[[-69.256,-56.852],[-68.097,-57.072]]},"properties":{"name":"SC/AN","plate_boundary":"SC/AN","step_class":"SUB"}},{"type":"Feature","geometry":{"type":"LineString","coordinates":[[-68.097,-57.072],[-67.102,-57.502]]},"properties":{"name":"SC/AN","plate_boundary":"SC/AN","step_class":"SUB"}},{"type":"Feature","geometry":{"type":"LineString","coordinates":[[-67.102,-57.502],[-65.867,-57.736]]},"properties":{"name":"SC/AN","plate_boundary":"SC/AN","step_class":"SUB"}},{"type":"Feature","geometry":{"type":"LineString","coordinates":[[-65.867,-57.736],[-64.617,-57.959]]},"properties":{"name":"SC/AN","plate_boundary":"SC/AN","step_class":"SUB"}},{"type":"Feature","geometry":{"type":"LineString","coordinates":[[-106.89,21.799],[-106.862,21.716]]},"properties":{"name":"NA/RI","plate_boundary":"NA/RI","step_class":"SUB"}},{"type":"Feature","geometry":{"type":"LineString","coordinates":[[-106.862,21.716],[-106.808,21.64]]},"properties":{"name":"NA/RI","plate_boundary":"NA/RI","step_class":"SUB"}},{"type":"Feature","geometry":{"type":"LineString","coordinates":[[-106.808,21.64],[-106.757,21.483]]},"properties":{"name":"NA/RI","plate_boundary":"NA/RI","step_class":"SUB"}},{"type":"Feature","geometry":{"type":"LineString","coordinates":[[-106.757,21.483],[-106.624,21.311]]},"properties":{"name":"NA/RI","plate_boundary":"NA/RI","step_class":"SUB"}},{"type":"Feature","geometry":{"type":"LineString","coordinates":[[-106.624,21.311],[-106.551,21.236]]},"properties":{"name":"NA/RI","plate_boundary":"NA/RI","step_class":"SUB"}},{"type":"Feature","geometry":{"type":"LineString","coordinates":[[-106.551,21.236],[-106.525,21.184]]},"properties":{"name":"NA/RI","plate_boundary":"NA/RI","step_class":"SUB"}},{"type":"Feature","geometry":{"type":"LineString","coordinates":[[-106.525,21.184],[-106.442,21.121]]},"properties":{"name":"NA/RI","plate_boundary":"NA/RI","step_class":"SUB"}},{"type":"Feature","geometry":{"type":"LineString","coordinates":[[-106.442,21.121],[-106.381,20.84]]},"properties":{"name":"NA/RI","plate_boundary":"NA/RI","step_class":"SUB"}},{"type":"Feature","geometry":{"type":"LineString","coordinates":[[-106.381,20.84],[-106.387,20.638]]},"properties":{"name":"NA/RI","plate_boundary":"NA/RI","step_class":"SUB"}},{"type":"Feature","geometry":{"type":"LineString","coordinates":[[-106.387,20.638],[-106.385,20.428]]},"properties":{"name":"NA/RI","plate_boundary":"NA/RI","step_class":"SUB"}},{"type":"Feature","geometry":{"type":"LineString","coordinates":[[-106.385,20.428],[-106.352,20.203]]},"properties":{"name":"NA/RI","plate_boundary":"NA/RI","step_class":"SUB"}},{"type":"Feature","geometry":{"type":"LineString","coordinates":[[-106.352,20.203],[-106.271,19.916]]},"properties":{"name":"NA/RI","plate_boundary":"NA/RI","step_class":"SUB"}},{"type":"Feature","geometry":{"type":"LineString","coordinates":[[-106.271,19.916],[-106.121,19.644]]},"properties":{"name":"NA/RI","plate_boundary":"NA/RI","step_class":"SUB"}},{"type":"Feature","geometry":{"type":"LineString","coordinates":[[-106.121,19.644],[-105.949,19.402]]},"properties":{"name":"NA/RI","plate_boundary":"NA/RI","step_class":"SUB"}},{"type":"Feature","geometry":{"type":"LineString","coordinates":[[-105.949,19.402],[-105.739,19.164]]},"properties":{"name":"NA/RI","plate_boundary":"NA/RI","step_class":"SUB"}},{"type":"Feature","geometry":{"type":"LineString","coordinates":[[-105.739,19.164],[-105.546,18.981]]},"properties":{"name":"NA/RI","plate_boundary":"NA/RI","step_class":"SUB"}},{"type":"Feature","geometry":{"type":"LineString","coordinates":[[-105.546,18.981],[-105.247,18.762]]},"properties":{"name":"NA/RI","plate_boundary":"NA/RI","step_class":"SUB"}},{"type":"Feature","geometry":{"type":"LineString","coordinates":[[-82.875,7.366],[-83.074,7.592]]},"properties":{"name":"CO\\PM","plate_boundary":"CO\\PM","step_class":"SUB"}},{"type":"Feature","geometry":{"type":"LineString","coordinates":[[-83.074,7.592],[-83.233,7.849]]},"properties":{"name":"CO\\PM","plate_boundary":"CO\\PM","step_class":"SUB"}},{"type":"Feature","geometry":{"type":"LineString","coordinates":[[-83.233,7.849],[-83.36,7.928]]},"properties":{"name":"CO\\PM","plate_boundary":"CO\\PM","step_class":"SUB"}},{"type":"Feature","geometry":{"type":"LineString","coordinates":[[-83.36,7.928],[-83.605,8.044]]},"properties":{"name":"CO\\PM","plate_boundary":"CO\\PM","step_class":"SUB"}},{"type":"Feature","geometry":{"type":"LineString","coordinates":[[-83.605,8.044],[-83.838,8.182]]},"properties":{"name":"CO\\PM","plate_boundary":"CO\\PM","step_class":"SUB"}},{"type":"Feature","geometry":{"type":"LineString","coordinates":[[-83.838,8.182],[-84.007,8.3]]},"properties":{"name":"CO\\PM","plate_boundary":"CO\\PM","step_class":"SUB"}},{"type":"Feature","geometry":{"type":"LineString","coordinates":[[-84.007,8.3],[-84.158,8.474]]},"properties":{"name":"CO\\PM","plate_boundary":"CO\\PM","step_class":"SUB"}},{"type":"Feature","geometry":{"type":"LineString","coordinates":[[-84.158,8.474],[-84.419,8.637]]},"properties":{"name":"CO\\PM","plate_boundary":"CO\\PM","step_class":"SUB"}},{"type":"Feature","geometry":{"type":"LineString","coordinates":[[-84.419,8.637],[-84.686,8.772]]},"properties":{"name":"CO\\PM","plate_boundary":"CO\\PM","step_class":"SUB"}},{"type":"Feature","geometry":{"type":"LineString","coordinates":[[-84.686,8.772],[-85.044,8.937]]},"properties":{"name":"CO\\PM","plate_boundary":"CO\\PM","step_class":"SUB"}},{"type":"Feature","geometry":{"type":"LineString","coordinates":[[-85.044,8.937],[-85.381,9.089]]},"properties":{"name":"CO\\PM","plate_boundary":"CO\\PM","step_class":"SUB"}},{"type":"Feature","geometry":{"type":"LineString","coordinates":[[-85.381,9.089],[-85.612,9.203]]},"properties":{"name":"CO\\PM","plate_boundary":"CO\\PM","step_class":"SUB"}},{"type":"Feature","geometry":{"type":"LineString","coordinates":[[-85.612,9.203],[-85.91,9.423]]},"properties":{"name":"CO\\PM","plate_boundary":"CO\\PM","step_class":"SUB"}},{"type":"Feature","geometry":{"type":"LineString","coordinates":[[-85.91,9.423],[-86.204,9.684]]},"properties":{"name":"CO\\PM","plate_boundary":"CO\\PM","step_class":"SUB"}},{"type":"Feature","geometry":{"type":"LineString","coordinates":[[-86.204,9.684],[-86.449,9.938]]},"properties":{"name":"CO\\PM","plate_boundary":"CO\\PM","step_class":"SUB"}},{"type":"Feature","geometry":{"type":"LineString","coordinates":[[-86.449,9.938],[-86.648,10.235]]},"properties":{"name":"CO\\PM","plate_boundary":"CO\\PM","step_class":"SUB"}},{"type":"Feature","geometry":{"type":"LineString","coordinates":[[-78.646,7.337],[-78.715,7.232]]},"properties":{"name":"ND/NZ","plate_boundary":"ND/NZ","step_class":"SUB"}},{"type":"Feature","geometry":{"type":"LineString","coordinates":[[-78.715,7.232],[-78.762,7.1]]},"properties":{"name":"ND/NZ","plate_boundary":"ND/NZ","step_class":"SUB"}},{"type":"Feature","geometry":{"type":"LineString","coordinates":[[-78.762,7.1],[-78.747,7.031]]},"properties":{"name":"ND/NZ","plate_boundary":"ND/NZ","step_class":"SUB"}},{"type":"Feature","geometry":{"type":"LineString","coordinates":[[-78.747,7.031],[-78.698,6.997]]},"properties":{"name":"ND/NZ","plate_boundary":"ND/NZ","step_class":"SUB"}},{"type":"Feature","geometry":{"type":"LineString","coordinates":[[-78.698,6.997],[-78.599,6.942]]},"properties":{"name":"ND/NZ","plate_boundary":"ND/NZ","step_class":"SUB"}},{"type":"Feature","geometry":{"type":"LineString","coordinates":[[-78.599,6.942],[-78.542,6.853]]},"properties":{"name":"ND/NZ","plate_boundary":"ND/NZ","step_class":"SUB"}},{"type":"Feature","geometry":{"type":"LineString","coordinates":[[-78.542,6.853],[-78.443,6.757]]},"properties":{"name":"ND/NZ","plate_boundary":"ND/NZ","step_class":"SUB"}},{"type":"Feature","geometry":{"type":"LineString","coordinates":[[-78.443,6.757],[-78.4,6.66]]},"properties":{"name":"ND/NZ","plate_boundary":"ND/NZ","step_class":"SUB"}},{"type":"Feature","geometry":{"type":"LineString","coordinates":[[-78.4,6.66],[-78.336,6.564]]},"properties":{"name":"ND/NZ","plate_boundary":"ND/NZ","step_class":"SUB"}},{"type":"Feature","geometry":{"type":"LineString","coordinates":[[-78.336,6.564],[-78.265,6.502]]},"properties":{"name":"ND/NZ","plate_boundary":"ND/NZ","step_class":"SUB"}},{"type":"Feature","geometry":{"type":"LineString","coordinates":[[-78.265,6.502],[-78.195,6.461]]},"properties":{"name":"ND/NZ","plate_boundary":"ND/NZ","step_class":"SUB"}},{"type":"Feature","geometry":{"type":"LineString","coordinates":[[-78.195,6.461],[-78.151,6.343]]},"properties":{"name":"ND/NZ","plate_boundary":"ND/NZ","step_class":"SUB"}},{"type":"Feature","geometry":{"type":"LineString","coordinates":[[-78.151,6.343],[-78.129,6.239]]},"properties":{"name":"ND/NZ","plate_boundary":"ND/NZ","step_class":"SUB"}},{"type":"Feature","geometry":{"type":"LineString","coordinates":[[-78.129,6.239],[-78.086,6.122]]},"properties":{"name":"ND/NZ","plate_boundary":"ND/NZ","step_class":"SUB"}},{"type":"Feature","geometry":{"type":"LineString","coordinates":[[-78.086,6.122],[-78.05,6.053]]},"properties":{"name":"ND/NZ","plate_boundary":"ND/NZ","step_class":"SUB"}},{"type":"Feature","geometry":{"type":"LineString","coordinates":[[-78.05,6.053],[-78.008,6.005]]},"properties":{"name":"ND/NZ","plate_boundary":"ND/NZ","step_class":"SUB"}},{"type":"Feature","geometry":{"type":"LineString","coordinates":[[-76.684,8.731],[-76.701,9.017]]},"properties":{"name":"CA\\ND","plate_boundary":"CA\\ND","step_class":"SUB"}},{"type":"Feature","geometry":{"type":"LineString","coordinates":[[-76.701,9.017],[-76.706,9.379]]},"properties":{"name":"CA\\ND","plate_boundary":"CA\\ND","step_class":"SUB"}},{"type":"Feature","geometry":{"type":"LineString","coordinates":[[-76.706,9.379],[-76.703,9.761]]},"properties":{"name":"CA\\ND","plate_boundary":"CA\\ND","step_class":"SUB"}},{"type":"Feature","geometry":{"type":"LineString","coordinates":[[-76.703,9.761],[-76.594,10.09]]},"properties":{"name":"CA\\ND","plate_boundary":"CA\\ND","step_class":"SUB"}},{"type":"Feature","geometry":{"type":"LineString","coordinates":[[-76.594,10.09],[-76.456,10.328]]},"properties":{"name":"CA\\ND","plate_boundary":"CA\\ND","step_class":"SUB"}},{"type":"Feature","geometry":{"type":"LineString","coordinates":[[-76.456,10.328],[-76.275,10.574]]},"properties":{"name":"CA\\ND","plate_boundary":"CA\\ND","step_class":"SUB"}},{"type":"Feature","geometry":{"type":"LineString","coordinates":[[-76.275,10.574],[-76.064,10.765]]},"properties":{"name":"CA\\ND","plate_boundary":"CA\\ND","step_class":"SUB"}},{"type":"Feature","geometry":{"type":"LineString","coordinates":[[-76.064,10.765],[-75.905,11.087]]},"properties":{"name":"CA\\ND","plate_boundary":"CA\\ND","step_class":"SUB"}},{"type":"Feature","geometry":{"type":"LineString","coordinates":[[-75.905,11.087],[-75.631,11.39]]},"properties":{"name":"CA\\ND","plate_boundary":"CA\\ND","step_class":"SUB"}},{"type":"Feature","geometry":{"type":"LineString","coordinates":[[-75.631,11.39],[-75.37,11.595]]},"properties":{"name":"CA\\ND","plate_boundary":"CA\\ND","step_class":"SUB"}},{"type":"Feature","geometry":{"type":"LineString","coordinates":[[-75.37,11.595],[-75.123,11.764]]},"properties":{"name":"CA\\ND","plate_boundary":"CA\\ND","step_class":"SUB"}},{"type":"Feature","geometry":{"type":"LineString","coordinates":[[-75.123,11.764],[-74.796,11.914]]},"properties":{"name":"CA\\ND","plate_boundary":"CA\\ND","step_class":"SUB"}},{"type":"Feature","geometry":{"type":"LineString","coordinates":[[-74.796,11.914],[-74.476,12.021]]},"properties":{"name":"CA\\ND","plate_boundary":"CA\\ND","step_class":"SUB"}},{"type":"Feature","geometry":{"type":"LineString","coordinates":[[-74.476,12.021],[-74.307,12.224]]},"properties":{"name":"CA\\ND","plate_boundary":"CA\\ND","step_class":"SUB"}},{"type":"Feature","geometry":{"type":"LineString","coordinates":[[-74.307,12.224],[-74.058,12.386]]},"properties":{"name":"CA\\ND","plate_boundary":"CA\\ND","step_class":"SUB"}},{"type":"Feature","geometry":{"type":"LineString","coordinates":[[-74.058,12.386],[-73.874,12.743]]},"properties":{"name":"CA\\ND","plate_boundary":"CA\\ND","step_class":"SUB"}},{"type":"Feature","geometry":{"type":"LineString","coordinates":[[-73.874,12.743],[-73.632,13.058]]},"properties":{"name":"CA\\ND","plate_boundary":"CA\\ND","step_class":"SUB"}},{"type":"Feature","geometry":{"type":"LineString","coordinates":[[-73.632,13.058],[-73.303,13.29]]},"properties":{"name":"CA\\ND","plate_boundary":"CA\\ND","step_class":"SUB"}},{"type":"Feature","geometry":{"type":"LineString","coordinates":[[-73.303,13.29],[-72.916,13.368]]},"properties":{"name":"CA\\ND","plate_boundary":"CA\\ND","step_class":"SUB"}},{"type":"Feature","geometry":{"type":"LineString","coordinates":[[-72.916,13.368],[-72.428,13.41]]},"properties":{"name":"CA\\ND","plate_boundary":"CA\\ND","step_class":"SUB"}},{"type":"Feature","geometry":{"type":"LineString","coordinates":[[-72.428,13.41],[-71.84,13.465]]},"properties":{"name":"CA\\ND","plate_boundary":"CA\\ND","step_class":"SUB"}},{"type":"Feature","geometry":{"type":"LineString","coordinates":[[-71.84,13.465],[-71.195,13.503]]},"properties":{"name":"CA\\ND","plate_boundary":"CA\\ND","step_class":"SUB"}},{"type":"Feature","geometry":{"type":"LineString","coordinates":[[-71.195,13.503],[-70.952,13.438]]},"properties":{"name":"CA\\ND","plate_boundary":"CA\\ND","step_class":"SUB"}}],"metadata":{"source":"PB2002 plate boundaries (Peter Bird, 2003)","layer_id":"americas","feature_count":394}}