{"type":"FeatureCollection","features":[{"type":"Feature","geometry":{"type":"LineString","coordinates":[[179.838,-37.476],[-179.811,-36.793]]},"properties":{"name":"KE/PA","plate_boundary":"KE/PA","step_class":"SUB"}},{"type":"Feature","geometry":{"type":"LineString","coordinates":[[-58.157,10.16],[-57.762,10.634]]},"properties":{"name":"CA/SA","plate_boundary":"CA/SA","step_class":"SUB"}},{"type":"Feature","geometry":{"type":"LineString","coordinates":[[-57.762,10.634],[-57.533,11.144]]},"properties":{"name":"CA/SA","plate_boundary":"CA/SA","step_class":"SUB"}},{"type":"Feature","geometry":{"type":"LineString","coordinates":[[-57.533,11.144],[-57.424,11.661]]},"properties":{"name":"CA/SA","plate_boundary":"CA/SA","step_class":"SUB"}},{"type":"Feature","geometry":{"type":"LineString","coordinates":[[-57.424,11.661],[-57.468,12.427]]},"properties":{"name":"CA/SA","plate_boundary":"CA/SA","step_class":"SUB"}},{"type":"Feature","geometry":{"type":"LineString","coordinates":[[-57.468,12.427],[-57.568,13.102]]},"properties":{"name":"CA/SA","plate_boundary":"CA/SA","step_class":"SUB"}},{"type":"Feature","geometry":{"type":"LineString","coordinates":[[-57.568,13.102],[-57.711,13.874]]},"properties":{"name":"CA/SA","plate_boundary":"CA/SA","step_class":"SUB"}},{"type":"Feature","geometry":{"type":"LineString","coordinates":[[-57.711,13.874],[-57.791,14.499]]},"properties":{"name":"CA/SA","plate_boundary":"CA/SA","step_class":"SUB"}},{"type":"Feature","geometry":{"type":"LineString","coordinates":[[-57.791,14.499],[-57.913,14.864]]},"properties":{"name":"CA/SA","plate_boundary":"CA/SA","step_class":"SUB"}},{"type":"Feature","geometry":{"type":"LineString","coordinates":[[-57.913,14.864],[-58.288,15.15]]},"properties":{"name":"CA/SA","plate_boundary":"CA/SA","step_class":"SUB"}},{"type":"Feature","geometry":{"type":"LineString","coordinates":[[-58.288,15.15],[-58.526,15.284]]},"properties":{"name":"CA/SA","plate_boundary":"CA/SA","step_class":"SUB"}},{"type":"Feature","geometry":{"type":"LineString","coordinates":[[-58.526,15.284],[-58.666,15.412]]},"properties":{"name":"CA/SA","plate_boundary":"CA/SA","step_class":"SUB"}},{"type":"Feature","geometry":{"type":"LineString","coordinates":[[-58.666,15.412],[-58.692,15.77]]},"properties":{"name":"CA/SA","plate_boundary":"CA/SA","step_class":"SUB"}},{"type":"Feature","geometry":{"type":"LineString","coordinates":[[-58.692,15.77],[-58.801,15.991]]},"properties":{"name":"CA/SA","plate_boundary":"CA/SA","step_class":"SUB"}},{"type":"Feature","geometry":{"type":"LineString","coordinates":[[-58.801,15.991],[-58.824,16.397]]},"properties":{"name":"CA/SA","plate_boundary":"CA/SA","step_class":"SUB"}},{"type":"Feature","geometry":{"type":"LineString","coordinates":[[-58.824,16.397],[-59.088,16.912]]},"properties":{"name":"CA/SA","plate_boundary":"CA/SA","step_class":"SUB"}},{"type":"Feature","geometry":{"type":"LineString","coordinates":[[-59.088,16.912],[-59.465,17.243]]},"properties":{"name":"CA/SA","plate_boundary":"CA/SA","step_class":"SUB"}},{"type":"Feature","geometry":{"type":"LineString","coordinates":[[-59.465,17.243],[-59.819,17.548]]},"properties":{"name":"CA/SA","plate_boundary":"CA/SA","step_class":"SUB"}},{"type":"Feature","geometry":{"type":"LineString","coordinates":[[-59.819,17.548],[-60.051,17.823]]},"properties":{"name":"CA/SA","plate_boundary":"CA/SA","step_class":"SUB"}},{"type":"Feature","geometry":{"type":"LineString","coordinates":[[150.339,44.187],[150.877,44.447]]},"properties":{"name":"OK/PA","plate_boundary":"OK/PA","step_class":"SUB"}},{"type":"Feature","geometry":{"type":"LineString","coordinates":[[150.877,44.447],[151.419,44.704]]},"properties":{"name":"OK/PA","plate_boundary":"OK/PA","step_class":"SUB"}},{"type":"Feature","geometry":{"type":"LineString","coordinates":[[151.419,44.704],[152.24,45.158]]},"properties":{"name":"OK/PA","plate_boundary":"OK/PA","step_class":"SUB"}},{"type":"Feature","geometry":{"type":"LineString","coordinates":[[152.24,45.158],[152.88,45.529]]},"properties":{"name":"OK/PA","plate_boundary":"OK/PA","step_class":"SUB"}},{"type":"Feature","geometry":{"type":"LineString","coordinates":[[152.88,45.529],[153.528,45.897]]},"properties":{"name":"OK/PA","plate_boundary":"OK/PA","step_class":"SUB"}},{"type":"Feature","geometry":{"type":"LineString","coordinates":[[153.528,45.897],[154.195,46.44]]},"properties":{"name":"OK/PA","plate_boundary":"OK/PA","step_class":"SUB"}},{"type":"Feature","geometry":{"type":"LineString","coordinates":[[154.195,46.44],[154.664,46.853]]},"properties":{"name":"OK/PA","plate_boundary":"OK/PA","step_class":"SUB"}},{"type":"Feature","geometry":{"type":"LineString","coordinates":[[154.664,46.853],[155.141,47.263]]},"properties":{"name":"OK/PA","plate_boundary":"OK/PA","step_class":"SUB"}},{"type":"Feature","geometry":{"type":"LineString","coordinates":[[155.141,47.263],[155.742,47.725]]},"properties":{"name":"OK/PA","plate_boundary":"OK/PA","step_class":"SUB"}},{"type":"Feature","geometry":{"type":"LineString","coordinates":[[155.742,47.725],[156.353,48.183]]},"properties":{"name":"OK/PA","plate_boundary":"OK/PA","step_class":"SUB"}},{"type":"Feature","geometry":{"type":"LineString","coordinates":[[156.353,48.183],[157.024,48.659]]},"properties":{"name":"OK/PA","plate_boundary":"OK/PA","step_class":"SUB"}},{"type":"Feature","geometry":{"type":"LineString","coordinates":[[157.024,48.659],[157.568,49.107]]},"properties":{"name":"OK/PA","plate_boundary":"OK/PA","step_class":"SUB"}},{"type":"Feature","geometry":{"type":"LineString","coordinates":[[157.568,49.107],[158.121,49.552]]},"properties":{"name":"OK/PA","plate_boundary":"OK/PA","step_class":"SUB"}},{"type":"Feature","geometry":{"type":"LineString","coordinates":[[158.121,49.552],[158.644,49.855]]},"properties":{"name":"OK/PA","plate_boundary":"OK/PA","step_class":"SUB"}},{"type":"Feature","geometry":{"type":"LineString","coordinates":[[158.644,49.855],[159.174,50.154]]},"properties":{"name":"OK/PA","plate_boundary":"OK/PA","step_class":"SUB"}},{"type":"Feature","geometry":{"type":"LineString","coordinates":[[159.174,50.154],[159.877,50.855]]},"properties":{"name":"OK/PA","plate_boundary":"OK/PA","step_class":"SUB"}},{"type":"Feature","geometry":{"type":"LineString","coordinates":[[159.877,50.855],[160.599,51.488]]},"properties":{"name":"OK/PA","plate_boundary":"OK/PA","step_class":"SUB"}},{"type":"Feature","geometry":{"type":"LineString","coordinates":[[160.599,51.488],[160.945,52.159]]},"properties":{"name":"OK/PA","plate_boundary":"OK/PA","step_class":"SUB"}},{"type":"Feature","geometry":{"type":"LineString","coordinates":[[160.945,52.159],[161.584,52.654]]},"properties":{"name":"OK/PA","plate_boundary":"OK/PA","step_class":"SUB"}},{"type":"Feature","geometry":{"type":"LineString","coordinates":[[161.584,52.654],[162.458,53.003]]},"properties":{"name":"OK/PA","plate_boundary":"OK/PA","step_class":"SUB"}},{"type":"Feature","geometry":{"type":"LineString","coordinates":[[162.458,53.003],[162.79,53.625]]},"properties":{"name":"OK/PA","plate_boundary":"OK/PA","step_class":"SUB"}},{"type":"Feature","geometry":{"type":"LineString","coordinates":[[162.79,53.625],[163.282,54.347]]},"properties":{"name":"OK/PA","plate_boundary":"OK/PA","step_class":"SUB"}},{"type":"Feature","geometry":{"type":"LineString","coordinates":[[163.282,54.347],[163.67,54.779]]},"properties":{"name":"OK/PA","plate_boundary":"OK/PA","step_class":"SUB"}},{"type":"Feature","geometry":{"type":"LineString","coordinates":[[163.67,54.779],[164.066,55.209]]},"properties":{"name":"OK/PA","plate_boundary":"OK/PA","step_class":"SUB"}},{"type":"Feature","geometry":{"type":"LineString","coordinates":[[164.066,55.209],[164.847,54.957]]},"properties":{"name":"NA/PA","plate_boundary":"NA/PA","step_class":"SUB"}},{"type":"Feature","geometry":{"type":"LineString","coordinates":[[164.847,54.957],[165.771,54.588]]},"properties":{"name":"NA/PA","plate_boundary":"NA/PA","step_class":"SUB"}},{"type":"Feature","geometry":{"type":"LineString","coordinates":[[166.407,54.237],[167.413,53.906]]},"properties":{"name":"NA/PA","plate_boundary":"NA/PA","step_class":"SUB"}},{"type":"Feature","geometry":{"type":"LineString","coordinates":[[167.413,53.906],[168.188,53.569]]},"properties":{"name":"NA/PA","plate_boundary":"NA/PA","step_class":"SUB"}},{"type":"Feature","geometry":{"type":"LineString","coordinates":[[168.836,53.208],[169.752,52.855]]},"properties":{"name":"NA/PA","plate_boundary":"NA/PA","step_class":"SUB"}},{"type":"Feature","geometry":{"type":"LineString","coordinates":[[169.752,52.855],[170.7,52.498]]},"properties":{"name":"NA/PA","plate_boundary":"NA/PA","step_class":"SUB"}},{"type":"Feature","geometry":{"type":"LineString","coordinates":[[170.7,52.498],[171.847,52.026]]},"properties":{"name":"NA/PA","plate_boundary":"NA/PA","step_class":"SUB"}},{"type":"Feature","geometry":{"type":"LineString","coordinates":[[171.847,52.026],[172.964,51.684]]},"properties":{"name":"NA/PA","plate_boundary":"NA/PA","step_class":"SUB"}},{"type":"Feature","geometry":{"type":"LineString","coordinates":[[172.964,51.684],[174.219,51.403]]},"properties":{"name":"NA/PA","plate_boundary":"NA/PA","step_class":"SUB"}},{"type":"Feature","geometry":{"type":"LineString","coordinates":[[174.219,51.403],[175.571,51.108]]},"properties":{"name":"NA/PA","plate_boundary":"NA/PA","step_class":"SUB"}},{"type":"Feature","geometry":{"type":"LineString","coordinates":[[175.571,51.108],[176.72,50.896]]},"properties":{"name":"NA/PA","plate_boundary":"NA/PA","step_class":"SUB"}},{"type":"Feature","geometry":{"type":"LineString","coordinates":[[176.72,50.896],[177.68,50.698]]},"properties":{"name":"NA/PA","plate_boundary":"NA/PA","step_class":"SUB"}},{"type":"Feature","geometry":{"type":"LineString","coordinates":[[177.68,50.698],[178.498,50.619]]},"properties":{"name":"NA/PA","plate_boundary":"NA/PA","step_class":"SUB"}},{"type":"Feature","geometry":{"type":"LineString","coordinates":[[178.498,50.619],[179.688,50.506]]},"properties":{"name":"NA/PA","plate_boundary":"NA/PA","step_class":"SUB"}},{"type":"Feature","geometry":{"type":"LineString","coordinates":[[179.688,50.506],[-179.202,50.496]]},"properties":{"name":"NA/PA","plate_boundary":"NA/PA","step_class":"SUB"}},{"type":"Feature","geometry":{"type":"LineString","coordinates":[[138.359,9.379],[138.574,9.953]]},"properties":{"name":"PS/PA","plate_boundary":"PS/PA","step_class":"SUB"}},{"type":"Feature","geometry":{"type":"LineString","coordinates":[[138.574,9.953],[138.71,10.649]]},"properties":{"name":"PS/PA","plate_boundary":"PS/PA","step_class":"SUB"}},{"type":"Feature","geometry":{"type":"LineString","coordinates":[[138.71,10.649],[138.813,11.121]]},"properties":{"name":"PS/PA","plate_boundary":"PS/PA","step_class":"SUB"}},{"type":"Feature","geometry":{"type":"LineString","coordinates":[[138.813,11.121],[139.483,10.901]]},"properties":{"name":"PS/PA","plate_boundary":"PS/PA","step_class":"SUB"}},{"type":"Feature","geometry":{"type":"LineString","coordinates":[[139.483,10.901],[140.1,10.946]]},"properties":{"name":"PS/PA","plate_boundary":"PS/PA","step_class":"SUB"}},{"type":"Feature","geometry":{"type":"LineString","coordinates":[[140.1,10.946],[140.772,10.858]]},"properties":{"name":"PS/PA","plate_boundary":"PS/PA","step_class":"SUB"}},{"type":"Feature","geometry":{"type":"LineString","coordinates":[[140.772,10.858],[141.608,11.058]]},"properties":{"name":"PS/PA","plate_boundary":"PS/PA","step_class":"SUB"}},{"type":"Feature","geometry":{"type":"LineString","coordinates":[[141.608,11.058],[142.122,11.285]]},"properties":{"name":"PS/PA","plate_boundary":"PS/PA","step_class":"SUB"}},{"type":"Feature","geometry":{"type":"LineString","coordinates":[[142.122,11.285],[142.961,11.403]]},"properties":{"name":"PS/PA","plate_boundary":"PS/PA","step_class":"SUB"}},{"type":"Feature","geometry":{"type":"LineString","coordinates":[[142.961,11.403],[143.097,11.569]]},"properties":{"name":"PS/PA","plate_boundary":"PS/PA","step_class":"SUB"}},{"type":"Feature","geometry":{"type":"LineString","coordinates":[[143.503,11.494],[144.157,11.79]]},"properties":{"name":"MA/PA","plate_boundary":"MA/PA","step_class":"SUB"}},{"type":"Feature","geometry":{"type":"LineString","coordinates":[[144.157,11.79],[144.619,12.021]]},"properties":{"name":"MA/PA","plate_boundary":"MA/PA","step_class":"SUB"}},{"type":"Feature","geometry":{"type":"LineString","coordinates":[[144.619,12.021],[145.024,12.211]]},"properties":{"name":"MA/PA","plate_boundary":"MA/PA","step_class":"SUB"}},{"type":"Feature","geometry":{"type":"LineString","coordinates":[[145.024,12.211],[145.349,12.314]]},"properties":{"name":"MA/PA","plate_boundary":"MA/PA","step_class":"SUB"}},{"type":"Feature","geometry":{"type":"LineString","coordinates":[[145.349,12.314],[145.691,12.647]]},"properties":{"name":"MA/PA","plate_boundary":"MA/PA","step_class":"SUB"}},{"type":"Feature","geometry":{"type":"LineString","coordinates":[[145.691,12.647],[146.221,13.002]]},"properties":{"name":"MA/PA","plate_boundary":"MA/PA","step_class":"SUB"}},{"type":"Feature","geometry":{"type":"LineString","coordinates":[[146.221,13.002],[146.752,13.363]]},"properties":{"name":"MA/PA","plate_boundary":"MA/PA","step_class":"SUB"}},{"type":"Feature","geometry":{"type":"LineString","coordinates":[[146.752,13.363],[147.201,14.216]]},"properties":{"name":"MA/PA","plate_boundary":"MA/PA","step_class":"SUB"}},{"type":"Feature","geometry":{"type":"LineString","coordinates":[[147.201,14.216],[147.462,14.966]]},"properties":{"name":"MA/PA","plate_boundary":"MA/PA","step_class":"SUB"}},{"type":"Feature","geometry":{"type":"LineString","coordinates":[[147.462,14.966],[147.684,15.653]]},"properties":{"name":"MA/PA","plate_boundary":"MA/PA","step_class":"SUB"}},{"type":"Feature","geometry":{"type":"LineString","coordinates":[[147.684,15.653],[147.787,16.523]]},"properties":{"name":"MA/PA","plate_boundary":"MA/PA","step_class":"SUB"}},{"type":"Feature","geometry":{"type":"LineString","coordinates":[[147.787,16.523],[147.856,17.283]]},"properties":{"name":"MA/PA","plate_boundary":"MA/PA","step_class":"SUB"}},{"type":"Feature","geometry":{"type":"LineString","coordinates":[[147.856,17.283],[147.811,18.06]]},"properties":{"name":"MA/PA","plate_boundary":"MA/PA","step_class":"SUB"}},{"type":"Feature","geometry":{"type":"LineString","coordinates":[[147.811,18.06],[147.82,18.646]]},"properties":{"name":"MA/PA","plate_boundary":"MA/PA","step_class":"SUB"}},{"type":"Feature","geometry":{"type":"LineString","coordinates":[[147.82,18.646],[147.619,19.172]]},"properties":{"name":"MA/PA","plate_boundary":"MA/PA","step_class":"SUB"}},{"type":"Feature","geometry":{"type":"LineString","coordinates":[[147.619,19.172],[147.46,19.745]]},"properties":{"name":"MA/PA","plate_boundary":"MA/PA","step_class":"SUB"}},{"type":"Feature","geometry":{"type":"LineString","coordinates":[[-56.925,-60.565],[-57.494,-60.855]]},"properties":{"name":"SL/AN","plate_boundary":"SL/AN","step_class":"SUB"}},{"type":"Feature","geometry":{"type":"LineString","coordinates":[[-57.494,-60.855],[-58.131,-60.961]]},"properties":{"name":"SL/AN","plate_boundary":"SL/AN","step_class":"SUB"}},{"type":"Feature","geometry":{"type":"LineString","coordinates":[[-58.131,-60.961],[-58.891,-61.082]]},"properties":{"name":"SL/AN","plate_boundary":"SL/AN","step_class":"SUB"}},{"type":"Feature","geometry":{"type":"LineString","coordinates":[[-58.891,-61.082],[-59.836,-61.177]]},"properties":{"name":"SL/AN","plate_boundary":"SL/AN","step_class":"SUB"}},{"type":"Feature","geometry":{"type":"LineString","coordinates":[[-59.836,-61.177],[-60.65,-61.363]]},"properties":{"name":"SL/AN","plate_boundary":"SL/AN","step_class":"SUB"}},{"type":"Feature","geometry":{"type":"LineString","coordinates":[[-60.65,-61.363],[-61.332,-61.543]]},"properties":{"name":"SL/AN","plate_boundary":"SL/AN","step_class":"SUB"}},{"type":"Feature","geometry":{"type":"LineString","coordinates":[[-61.332,-61.543],[-62.203,-61.841]]},"properties":{"name":"SL/AN","plate_boundary":"SL/AN","step_class":"SUB"}},{"type":"Feature","geometry":{"type":"LineString","coordinates":[[-62.203,-61.841],[-63.105,-62.11]]},"properties":{"name":"SL/AN","plate_boundary":"SL/AN","step_class":"SUB"}},{"type":"Feature","geometry":{"type":"LineString","coordinates":[[-63.105,-62.11],[-63.969,-62.422]]},"properties":{"name":"SL/AN","plate_boundary":"SL/AN","step_class":"SUB"}},{"type":"Feature","geometry":{"type":"LineString","coordinates":[[164.066,55.209],[163.34,55.817]]},"properties":{"name":"OK/NA","plate_boundary":"OK/NA","step_class":"SUB"}},{"type":"Feature","geometry":{"type":"LineString","coordinates":[[163.34,55.817],[162.592,56.42]]},"properties":{"name":"OK/NA","plate_boundary":"OK/NA","step_class":"SUB"}},{"type":"Feature","geometry":{"type":"LineString","coordinates":[[162.592,56.42],[162.96,56.836]]},"properties":{"name":"OK/NA","plate_boundary":"OK/NA","step_class":"SUB"}},{"type":"Feature","geometry":{"type":"LineString","coordinates":[[162.96,56.836],[163.336,57.25]]},"properties":{"name":"OK/NA","plate_boundary":"OK/NA","step_class":"SUB"}},{"type":"Feature","geometry":{"type":"LineString","coordinates":[[163.336,57.25],[163.721,57.664]]},"properties":{"name":"OK/NA","plate_boundary":"OK/NA","step_class":"SUB"}},{"type":"Feature","geometry":{"type":"LineString","coordinates":[[163.721,57.664],[164.115,58.076]]},"properties":{"name":"OK/NA","plate_boundary":"OK/NA","step_class":"SUB"}},{"type":"Feature","geometry":{"type":"LineString","coordinates":[[164.115,58.076],[164.518,58.487]]},"properties":{"name":"OK/NA","plate_boundary":"OK/NA","step_class":"SUB"}},{"type":"Feature","geometry":{"type":"LineString","coordinates":[[164.518,58.487],[164.93,58.897]]},"properties":{"name":"OK/NA","plate_boundary":"OK/NA","step_class":"SUB"}},{"type":"Feature","geometry":{"type":"LineString","coordinates":[[164.93,58.897],[166.258,59.376]]},"properties":{"name":"OK/NA","plate_boundary":"OK/NA","step_class":"SUB"}},{"type":"Feature","geometry":{"type":"LineString","coordinates":[[166.258,59.376],[167.623,59.842]]},"properties":{"name":"OK/NA","plate_boundary":"OK/NA","step_class":"SUB"}},{"type":"Feature","geometry":{"type":"LineString","coordinates":[[167.623,59.842],[169.027,60.293]]},"properties":{"name":"OK/NA","plate_boundary":"OK/NA","step_class":"SUB"}},{"type":"Feature","geometry":{"type":"LineString","coordinates":[[169.027,60.293],[169.865,61.017]]},"properties":{"name":"OK/NA","plate_boundary":"OK/NA","step_class":"SUB"}},{"type":"Feature","geometry":{"type":"LineString","coordinates":[[169.865,61.017],[170.743,61.736]]},"properties":{"name":"OK/NA","plate_boundary":"OK/NA","step_class":"SUB"}},{"type":"Feature","geometry":{"type":"LineString","coordinates":[[92.278,6.948],[92.376,6.333]]},"properties":{"name":"BU/IN","plate_boundary":"BU/IN","step_class":"SUB"}},{"type":"Feature","geometry":{"type":"LineString","coordinates":[[92.376,6.333],[92.537,5.702]]},"properties":{"name":"BU/IN","plate_boundary":"BU/IN","step_class":"SUB"}},{"type":"Feature","geometry":{"type":"LineString","coordinates":[[92.537,5.702],[92.665,5.005]]},"properties":{"name":"BU/IN","plate_boundary":"BU/IN","step_class":"SUB"}},{"type":"Feature","geometry":{"type":"LineString","coordinates":[[92.665,5.005],[92.903,4.384]]},"properties":{"name":"BU/IN","plate_boundary":"BU/IN","step_class":"SUB"}},{"type":"Feature","geometry":{"type":"LineString","coordinates":[[92.903,4.384],[93.227,3.716]]},"properties":{"name":"BU/IN","plate_boundary":"BU/IN","step_class":"SUB"}},{"type":"Feature","geometry":{"type":"LineString","coordinates":[[93.227,3.716],[93.754,3.048]]},"properties":{"name":"BU/IN","plate_boundary":"BU/IN","step_class":"SUB"}},{"type":"Feature","geometry":{"type":"LineString","coordinates":[[93.754,3.048],[94.405,2.457]]},"properties":{"name":"BU/IN","plate_boundary":"BU/IN","step_class":"SUB"}},{"type":"Feature","geometry":{"type":"LineString","coordinates":[[94.405,2.457],[94.979,2.104]]},"properties":{"name":"BU/IN","plate_boundary":"BU/IN","step_class":"SUB"}},{"type":"Feature","geometry":{"type":"LineString","coordinates":[[128.684,3.7],[128.998,3.114]]},"properties":{"name":"PS\\SU","plate_boundary":"PS\\SU","step_class":"SUB"}},{"type":"Feature","geometry":{"type":"LineString","coordinates":[[128.998,3.114],[129.217,2.671]]},"properties":{"name":"PS\\SU","plate_boundary":"PS\\SU","step_class":"SUB"}},{"type":"Feature","geometry":{"type":"LineString","coordinates":[[129.217,2.671],[129.246,1.928]]},"properties":{"name":"PS\\SU","plate_boundary":"PS\\SU","step_class":"SUB"}},{"type":"Feature","geometry":{"type":"LineString","coordinates":[[129.246,1.928],[129.197,1.059]]},"properties":{"name":"PS\\SU","plate_boundary":"PS\\SU","step_class":"SUB"}},{"type":"Feature","geometry":{"type":"LineString","coordinates":[[126.872,2.346],[126.426,1.706]]},"properties":{"name":"BH/SU","plate_boundary":"BH/SU","step_class":"SUB"}},{"type":"Feature","geometry":{"type":"LineString","coordinates":[[123.43,2.006],[123.219,2.024]]},"properties":{"name":"MS/SU","plate_boundary":"MS/SU","step_class":"SUB"}},{"type":"Feature","geometry":{"type":"LineString","coordinates":[[123.219,2.024],[122.48,2.377]]},"properties":{"name":"MS/SU","plate_boundary":"MS/SU","step_class":"SUB"}},{"type":"Feature","geometry":{"type":"LineString","coordinates":[[122.48,2.377],[121.669,2.309]]},"properties":{"name":"MS/SU","plate_boundary":"MS/SU","step_class":"SUB"}},{"type":"Feature","geometry":{"type":"LineString","coordinates":[[121.669,2.309],[120.824,2.311]]},"properties":{"name":"MS/SU","plate_boundary":"MS/SU","step_class":"SUB"}},{"type":"Feature","geometry":{"type":"LineString","coordinates":[[120.824,2.311],[120.189,2.208]]},"properties":{"name":"MS/SU","plate_boundary":"MS/SU","step_class":"SUB"}},{"type":"Feature","geometry":{"type":"LineString","coordinates":[[120.189,2.208],[119.696,2.033]]},"properties":{"name":"MS/SU","plate_boundary":"MS/SU","step_class":"SUB"}},{"type":"Feature","geometry":{"type":"LineString","coordinates":[[119.696,2.033],[119.306,1.577]]},"properties":{"name":"MS/SU","plate_boundary":"MS/SU","step_class":"SUB"}},{"type":"Feature","geometry":{"type":"LineString","coordinates":[[119.306,1.577],[119.249,0.714]]},"properties":{"name":"MS/SU","plate_boundary":"MS/SU","step_class":"SUB"}},{"type":"Feature","geometry":{"type":"LineString","coordinates":[[125.969,-0.278],[125.969,0.19]]},"properties":{"name":"MS\\BH","plate_boundary":"MS\\BH","step_class":"SUB"}},{"type":"Feature","geometry":{"type":"LineString","coordinates":[[119.475,-0.081],[119.296,-0.68]]},"properties":{"name":"BS/SU","plate_boundary":"BS/SU","step_class":"SUB"}},{"type":"Feature","geometry":{"type":"LineString","coordinates":[[119.296,-0.68],[119.045,-1.491]]},"properties":{"name":"BS/SU","plate_boundary":"BS/SU","step_class":"SUB"}},{"type":"Feature","geometry":{"type":"LineString","coordinates":[[119.045,-1.491],[118.884,-1.95]]},"properties":{"name":"BS/SU","plate_boundary":"BS/SU","step_class":"SUB"}},{"type":"Feature","geometry":{"type":"LineString","coordinates":[[118.884,-1.95],[118.723,-2.408]]},"properties":{"name":"BS/SU","plate_boundary":"BS/SU","step_class":"SUB"}},{"type":"Feature","geometry":{"type":"LineString","coordinates":[[118.723,-2.408],[118.578,-3.255]]},"properties":{"name":"BS/SU","plate_boundary":"BS/SU","step_class":"SUB"}},{"type":"Feature","geometry":{"type":"LineString","coordinates":[[118.578,-3.255],[118.823,-3.61]]},"properties":{"name":"BS/SU","plate_boundary":"BS/SU","step_class":"SUB"}},{"type":"Feature","geometry":{"type":"LineString","coordinates":[[128.383,-2.286],[129.258,-2.416]]},"properties":{"name":"BH\\BS","plate_boundary":"BH\\BS","step_class":"SUB"}},{"type":"Feature","geometry":{"type":"LineString","coordinates":[[129.258,-2.416],[130.107,-2.519]]},"properties":{"name":"BH\\BS","plate_boundary":"BH\\BS","step_class":"SUB"}},{"type":"Feature","geometry":{"type":"LineString","coordinates":[[130.107,-2.519],[130.585,-2.694]]},"properties":{"name":"BH\\BS","plate_boundary":"BH\\BS","step_class":"SUB"}},{"type":"Feature","geometry":{"type":"LineString","coordinates":[[130.585,-2.694],[131.063,-2.868]]},"properties":{"name":"BH\\BS","plate_boundary":"BH\\BS","step_class":"SUB"}},{"type":"Feature","geometry":{"type":"LineString","coordinates":[[131.063,-2.868],[131.489,-3.149]]},"properties":{"name":"BH\\BS","plate_boundary":"BH\\BS","step_class":"SUB"}},{"type":"Feature","geometry":{"type":"LineString","coordinates":[[131.489,-3.149],[131.915,-3.429]]},"properties":{"name":"BH\\BS","plate_boundary":"BH\\BS","step_class":"SUB"}},{"type":"Feature","geometry":{"type":"LineString","coordinates":[[131.915,-3.429],[132.316,-3.935]]},"properties":{"name":"BH\\BS","plate_boundary":"BH\\BS","step_class":"SUB"}},{"type":"Feature","geometry":{"type":"LineString","coordinates":[[132.316,-3.935],[132.717,-4.44]]},"properties":{"name":"BH\\BS","plate_boundary":"BH\\BS","step_class":"SUB"}},{"type":"Feature","geometry":{"type":"LineString","coordinates":[[138.793,-1.159],[138.674,-0.82]]},"properties":{"name":"BH/CL","plate_boundary":"BH/CL","step_class":"SUB"}},{"type":"Feature","geometry":{"type":"LineString","coordinates":[[138.674,-0.82],[138.054,-0.718]]},"properties":{"name":"BH/CL","plate_boundary":"BH/CL","step_class":"SUB"}},{"type":"Feature","geometry":{"type":"LineString","coordinates":[[138.054,-0.718],[137.435,-0.616]]},"properties":{"name":"BH/CL","plate_boundary":"BH/CL","step_class":"SUB"}},{"type":"Feature","geometry":{"type":"LineString","coordinates":[[137.435,-0.616],[136.943,-0.422]]},"properties":{"name":"BH/CL","plate_boundary":"BH/CL","step_class":"SUB"}},{"type":"Feature","geometry":{"type":"LineString","coordinates":[[136.943,-0.422],[136.451,-0.228]]},"properties":{"name":"BH/CL","plate_boundary":"BH/CL","step_class":"SUB"}},{"type":"Feature","geometry":{"type":"LineString","coordinates":[[136.451,-0.228],[135.656,-0.023]]},"properties":{"name":"BH/CL","plate_boundary":"BH/CL","step_class":"SUB"}},{"type":"Feature","geometry":{"type":"LineString","coordinates":[[135.656,-0.023],[134.938,0.421]]},"properties":{"name":"BH/CL","plate_boundary":"BH/CL","step_class":"SUB"}},{"type":"Feature","geometry":{"type":"LineString","coordinates":[[134.938,0.421],[134.471,0.259]]},"properties":{"name":"BH/CL","plate_boundary":"BH/CL","step_class":"SUB"}},{"type":"Feature","geometry":{"type":"LineString","coordinates":[[134.471,0.259],[133.899,0.057]]},"properties":{"name":"BH/CL","plate_boundary":"BH/CL","step_class":"SUB"}},{"type":"Feature","geometry":{"type":"LineString","coordinates":[[133.899,0.057],[133.327,-0.146]]},"properties":{"name":"BH/CL","plate_boundary":"BH/CL","step_class":"SUB"}},{"type":"Feature","geometry":{"type":"LineString","coordinates":[[133.327,-0.146],[132.824,-0.043]]},"properties":{"name":"BH/CL","plate_boundary":"BH/CL","step_class":"SUB"}},{"type":"Feature","geometry":{"type":"LineString","coordinates":[[132.824,-0.043],[132.515,0.017]]},"properties":{"name":"BH/CL","plate_boundary":"BH/CL","step_class":"SUB"}},{"type":"Feature","geometry":{"type":"LineString","coordinates":[[132.515,0.017],[132.373,0.034]]},"properties":{"name":"BH/PS","plate_boundary":"BH/PS","step_class":"SUB"}},{"type":"Feature","geometry":{"type":"LineString","coordinates":[[132.373,0.034],[131.738,0.15]]},"properties":{"name":"BH/PS","plate_boundary":"BH/PS","step_class":"SUB"}},{"type":"Feature","geometry":{"type":"LineString","coordinates":[[131.738,0.15],[131.102,0.266]]},"properties":{"name":"BH/PS","plate_boundary":"BH/PS","step_class":"SUB"}},{"type":"Feature","geometry":{"type":"LineString","coordinates":[[131.102,0.266],[130.546,0.475]]},"properties":{"name":"BH/PS","plate_boundary":"BH/PS","step_class":"SUB"}},{"type":"Feature","geometry":{"type":"LineString","coordinates":[[130.546,0.475],[129.989,0.684]]},"properties":{"name":"BH/PS","plate_boundary":"BH/PS","step_class":"SUB"}},{"type":"Feature","geometry":{"type":"LineString","coordinates":[[129.989,0.684],[129.197,1.059]]},"properties":{"name":"BH/PS","plate_boundary":"BH/PS","step_class":"SUB"}},{"type":"Feature","geometry":{"type":"LineString","coordinates":[[92.278,6.948],[91.903,7.663]]},"properties":{"name":"IN\\BU","plate_boundary":"IN\\BU","step_class":"SUB"}},{"type":"Feature","geometry":{"type":"LineString","coordinates":[[91.903,7.663],[91.781,8.16]]},"properties":{"name":"IN\\BU","plate_boundary":"IN\\BU","step_class":"SUB"}},{"type":"Feature","geometry":{"type":"LineString","coordinates":[[91.781,8.16],[91.651,8.656]]},"properties":{"name":"IN\\BU","plate_boundary":"IN\\BU","step_class":"SUB"}},{"type":"Feature","geometry":{"type":"LineString","coordinates":[[91.651,8.656],[91.596,9.13]]},"properties":{"name":"IN\\BU","plate_boundary":"IN\\BU","step_class":"SUB"}},{"type":"Feature","geometry":{"type":"LineString","coordinates":[[91.596,9.13],[91.533,9.604]]},"properties":{"name":"IN\\BU","plate_boundary":"IN\\BU","step_class":"SUB"}},{"type":"Feature","geometry":{"type":"LineString","coordinates":[[91.533,9.604],[91.559,10.056]]},"properties":{"name":"IN\\BU","plate_boundary":"IN\\BU","step_class":"SUB"}},{"type":"Feature","geometry":{"type":"LineString","coordinates":[[91.559,10.056],[91.576,10.514]]},"properties":{"name":"IN\\BU","plate_boundary":"IN\\BU","step_class":"SUB"}},{"type":"Feature","geometry":{"type":"LineString","coordinates":[[91.576,10.514],[91.591,11.3]]},"properties":{"name":"IN\\BU","plate_boundary":"IN\\BU","step_class":"SUB"}},{"type":"Feature","geometry":{"type":"LineString","coordinates":[[91.591,11.3],[91.643,11.792]]},"properties":{"name":"IN\\BU","plate_boundary":"IN\\BU","step_class":"SUB"}},{"type":"Feature","geometry":{"type":"LineString","coordinates":[[91.643,11.792],[91.7,12.283]]},"properties":{"name":"IN\\BU","plate_boundary":"IN\\BU","step_class":"SUB"}},{"type":"Feature","geometry":{"type":"LineString","coordinates":[[91.7,12.283],[91.889,13.154]]},"properties":{"name":"IN\\BU","plate_boundary":"IN\\BU","step_class":"SUB"}},{"type":"Feature","geometry":{"type":"LineString","coordinates":[[91.889,13.154],[92.068,13.715]]},"properties":{"name":"IN\\BU","plate_boundary":"IN\\BU","step_class":"SUB"}},{"type":"Feature","geometry":{"type":"LineString","coordinates":[[125.969,0.19],[125.616,-0.128]]},"properties":{"name":"MS/SU","plate_boundary":"MS/SU","step_class":"SUB"}},{"type":"Feature","geometry":{"type":"LineString","coordinates":[[125.616,-0.128],[125.263,-0.446]]},"properties":{"name":"MS/SU","plate_boundary":"MS/SU","step_class":"SUB"}},{"type":"Feature","geometry":{"type":"LineString","coordinates":[[163.296,-49.985],[163.235,-50.079]]},"properties":{"name":"PA/AU","plate_boundary":"PA/AU","step_class":"SUB"}},{"type":"Feature","geometry":{"type":"LineString","coordinates":[[138.793,-1.159],[139.257,-1.39]]},"properties":{"name":"CL\\WL","plate_boundary":"CL\\WL","step_class":"SUB"}},{"type":"Feature","geometry":{"type":"LineString","coordinates":[[139.257,-1.39],[139.805,-1.557]]},"properties":{"name":"CL\\WL","plate_boundary":"CL\\WL","step_class":"SUB"}},{"type":"Feature","geometry":{"type":"LineString","coordinates":[[139.805,-1.557],[140.226,-1.767]]},"properties":{"name":"CL\\WL","plate_boundary":"CL\\WL","step_class":"SUB"}},{"type":"Feature","geometry":{"type":"LineString","coordinates":[[140.226,-1.767],[140.837,-1.893]]},"properties":{"name":"CL\\WL","plate_boundary":"CL\\WL","step_class":"SUB"}},{"type":"Feature","geometry":{"type":"LineString","coordinates":[[140.837,-1.893],[141.195,-2.167]]},"properties":{"name":"CL\\WL","plate_boundary":"CL\\WL","step_class":"SUB"}},{"type":"Feature","geometry":{"type":"LineString","coordinates":[[141.195,-2.167],[141.594,-2.272]]},"properties":{"name":"CL\\WL","plate_boundary":"CL\\WL","step_class":"SUB"}},{"type":"Feature","geometry":{"type":"LineString","coordinates":[[141.594,-2.272],[141.868,-2.398]]},"properties":{"name":"CL\\WL","plate_boundary":"CL\\WL","step_class":"SUB"}},{"type":"Feature","geometry":{"type":"LineString","coordinates":[[141.868,-2.398],[142.246,-2.693]]},"properties":{"name":"CL\\WL","plate_boundary":"CL\\WL","step_class":"SUB"}},{"type":"Feature","geometry":{"type":"LineString","coordinates":[[142.246,-2.693],[142.449,-2.814]]},"properties":{"name":"NB\\WL","plate_boundary":"NB\\WL","step_class":"SUB"}},{"type":"Feature","geometry":{"type":"LineString","coordinates":[[142.449,-2.814],[142.633,-2.932]]},"properties":{"name":"NB\\WL","plate_boundary":"NB\\WL","step_class":"SUB"}},{"type":"Feature","geometry":{"type":"LineString","coordinates":[[142.633,-2.932],[142.936,-3.018]]},"properties":{"name":"NB\\WL","plate_boundary":"NB\\WL","step_class":"SUB"}},{"type":"Feature","geometry":{"type":"LineString","coordinates":[[142.936,-3.018],[143.172,-3.053]]},"properties":{"name":"NB\\WL","plate_boundary":"NB\\WL","step_class":"SUB"}},{"type":"Feature","geometry":{"type":"LineString","coordinates":[[143.172,-3.053],[143.508,-3.156]]},"properties":{"name":"NB\\WL","plate_boundary":"NB\\WL","step_class":"SUB"}},{"type":"Feature","geometry":{"type":"LineString","coordinates":[[143.508,-3.156],[143.743,-3.46]]},"properties":{"name":"NB\\WL","plate_boundary":"NB\\WL","step_class":"SUB"}},{"type":"Feature","geometry":{"type":"LineString","coordinates":[[-26.071,-60.391],[-25.069,-59.973]]},"properties":{"name":"SW/SA","plate_boundary":"SW/SA","step_class":"SUB"}},{"type":"Feature","geometry":{"type":"LineString","coordinates":[[-25.069,-59.973],[-24.456,-59.386]]},"properties":{"name":"SW/SA","plate_boundary":"SW/SA","step_class":"SUB"}},{"type":"Feature","geometry":{"type":"LineString","coordinates":[[-24.456,-59.386],[-23.991,-58.921]]},"properties":{"name":"SW/SA","plate_boundary":"SW/SA","step_class":"SUB"}},{"type":"Feature","geometry":{"type":"LineString","coordinates":[[-23.991,-58.921],[-23.819,-58.195]]},"properties":{"name":"SW/SA","plate_boundary":"SW/SA","step_class":"SUB"}},{"type":"Feature","geometry":{"type":"LineString","coordinates":[[-23.819,-58.195],[-24.13,-57.425]]},"properties":{"name":"SW/SA","plate_boundary":"SW/SA","step_class":"SUB"}},{"type":"Feature","geometry":{"type":"LineString","coordinates":[[-24.13,-57.425],[-24.233,-57.174]]},"properties":{"name":"SW/SA","plate_boundary":"SW/SA","step_class":"SUB"}},{"type":"Feature","geometry":{"type":"LineString","coordinates":[[-24.233,-57.174],[-24.696,-56.734]]},"properties":{"name":"SW/SA","plate_boundary":"SW/SA","step_class":"SUB"}},{"type":"Feature","geometry":{"type":"LineString","coordinates":[[-24.696,-56.734],[-25.149,-56.292]]},"properties":{"name":"SW/SA","plate_boundary":"SW/SA","step_class":"SUB"}},{"type":"Feature","geometry":{"type":"LineString","coordinates":[[-25.149,-56.292],[-25.721,-55.84]]},"properties":{"name":"SW/SA","plate_boundary":"SW/SA","step_class":"SUB"}},{"type":"Feature","geometry":{"type":"LineString","coordinates":[[-25.721,-55.84],[-26.414,-55.424]]},"properties":{"name":"SW/SA","plate_boundary":"SW/SA","step_class":"SUB"}},{"type":"Feature","geometry":{"type":"LineString","coordinates":[[-26.414,-55.424],[-26.995,-55.232]]},"properties":{"name":"SW/SA","plate_boundary":"SW/SA","step_class":"SUB"}},{"type":"Feature","geometry":{"type":"LineString","coordinates":[[-26.995,-55.232],[-27.604,-55.095]]},"properties":{"name":"SW/SA","plate_boundary":"SW/SA","step_class":"SUB"}},{"type":"Feature","geometry":{"type":"LineString","coordinates":[[-27.604,-55.095],[-28.647,-55.005]]},"properties":{"name":"SW/SA","plate_boundary":"SW/SA","step_class":"SUB"}},{"type":"Feature","geometry":{"type":"LineString","coordinates":[[126.426,1.706],[126.144,1.001]]},"properties":{"name":"MS\\SU","plate_boundary":"MS\\SU","step_class":"SUB"}},{"type":"Feature","geometry":{"type":"LineString","coordinates":[[126.144,1.001],[126.426,1.706]]},"properties":{"name":"MS\\BH","plate_boundary":"MS\\BH","step_class":"SUB"}},{"type":"Feature","geometry":{"type":"LineString","coordinates":[[126.144,1.001],[125.969,0.19]]},"properties":{"name":"MS\\SU","plate_boundary":"MS\\SU","step_class":"SUB"}},{"type":"Feature","geometry":{"type":"LineString","coordinates":[[125.969,0.19],[126.144,1.001]]},"properties":{"name":"MS\\BH","plate_boundary":"MS\\BH","step_class":"SUB"}},{"type":"Feature","geometry":{"type":"LineString","coordinates":[[179.838,-37.476],[-179.811,-36.793]]},"properties":{"name":"KE/PA","plate_boundary":"KE/PA","step_class":"SUB"}},{"type":"Feature","geometry":{"type":"LineString","coordinates":[[179.688,50.506],[-179.202,50.496]]},"properties":{"name":"NA/PA","plate_boundary":"NA/PA","step_class":"SUB"}}],"metadata":{"source":"PB2002 plate boundaries (Peter Bird, 2003)","layer_id":"global-other","feature_count":208}}