{"type":"FeatureCollection","features":[{"type":"Feature","geometry":{"type":"LineString","coordinates":[[116.174,-11.275],[116.853,-11.331]]},"properties":{"name":"SU/AU","plate_boundary":"SU/AU","step_class":"SUB"}},{"type":"Feature","geometry":{"type":"LineString","coordinates":[[116.853,-11.331],[117.576,-11.337]]},"properties":{"name":"SU/AU","plate_boundary":"SU/AU","step_class":"SUB"}},{"type":"Feature","geometry":{"type":"LineString","coordinates":[[117.576,-11.337],[118.236,-11.387]]},"properties":{"name":"SU/AU","plate_boundary":"SU/AU","step_class":"SUB"}},{"type":"Feature","geometry":{"type":"LineString","coordinates":[[118.236,-11.387],[118.75,-11.362]]},"properties":{"name":"SU/AU","plate_boundary":"SU/AU","step_class":"SUB"}},{"type":"Feature","geometry":{"type":"LineString","coordinates":[[118.75,-11.362],[119.27,-11.393]]},"properties":{"name":"SU/AU","plate_boundary":"SU/AU","step_class":"SUB"}},{"type":"Feature","geometry":{"type":"LineString","coordinates":[[119.27,-11.393],[119.841,-11.462]]},"properties":{"name":"SU/AU","plate_boundary":"SU/AU","step_class":"SUB"}},{"type":"Feature","geometry":{"type":"LineString","coordinates":[[119.841,-11.462],[120.451,-11.524]]},"properties":{"name":"SU/AU","plate_boundary":"SU/AU","step_class":"SUB"}},{"type":"Feature","geometry":{"type":"LineString","coordinates":[[120.451,-11.524],[120.886,-11.493]]},"properties":{"name":"SU/AU","plate_boundary":"SU/AU","step_class":"SUB"}},{"type":"Feature","geometry":{"type":"LineString","coordinates":[[166.951,-44.987],[167.1,-44.826]]},"properties":{"name":"AU\\PA","plate_boundary":"AU\\PA","step_class":"SUB"}},{"type":"Feature","geometry":{"type":"LineString","coordinates":[[167.1,-44.826],[167.368,-44.648]]},"properties":{"name":"AU\\PA","plate_boundary":"AU\\PA","step_class":"SUB"}},{"type":"Feature","geometry":{"type":"LineString","coordinates":[[167.368,-44.648],[167.688,-44.466]]},"properties":{"name":"AU\\PA","plate_boundary":"AU\\PA","step_class":"SUB"}},{"type":"Feature","geometry":{"type":"LineString","coordinates":[[167.688,-44.466],[168.081,-44.33]]},"properties":{"name":"AU\\PA","plate_boundary":"AU\\PA","step_class":"SUB"}},{"type":"Feature","geometry":{"type":"LineString","coordinates":[[168.081,-44.33],[168.488,-44.166]]},"properties":{"name":"AU\\PA","plate_boundary":"AU\\PA","step_class":"SUB"}},{"type":"Feature","geometry":{"type":"LineString","coordinates":[[168.488,-44.166],[168.77,-44.021]]},"properties":{"name":"AU\\PA","plate_boundary":"AU\\PA","step_class":"SUB"}},{"type":"Feature","geometry":{"type":"LineString","coordinates":[[175.503,-42.059],[176.081,-41.91]]},"properties":{"name":"KE/PA","plate_boundary":"KE/PA","step_class":"SUB"}},{"type":"Feature","geometry":{"type":"LineString","coordinates":[[176.081,-41.91],[176.673,-41.756]]},"properties":{"name":"KE/PA","plate_boundary":"KE/PA","step_class":"SUB"}},{"type":"Feature","geometry":{"type":"LineString","coordinates":[[176.673,-41.756],[177.123,-41.657]]},"properties":{"name":"KE/PA","plate_boundary":"KE/PA","step_class":"SUB"}},{"type":"Feature","geometry":{"type":"LineString","coordinates":[[177.123,-41.657],[177.607,-41.5]]},"properties":{"name":"KE/PA","plate_boundary":"KE/PA","step_class":"SUB"}},{"type":"Feature","geometry":{"type":"LineString","coordinates":[[177.607,-41.5],[178.015,-41.188]]},"properties":{"name":"KE/PA","plate_boundary":"KE/PA","step_class":"SUB"}},{"type":"Feature","geometry":{"type":"LineString","coordinates":[[178.015,-41.188],[178.284,-40.807]]},"properties":{"name":"KE/PA","plate_boundary":"KE/PA","step_class":"SUB"}},{"type":"Feature","geometry":{"type":"LineString","coordinates":[[178.284,-40.807],[178.566,-40.424]]},"properties":{"name":"KE/PA","plate_boundary":"KE/PA","step_class":"SUB"}},{"type":"Feature","geometry":{"type":"LineString","coordinates":[[178.566,-40.424],[178.792,-40.087]]},"properties":{"name":"KE/PA","plate_boundary":"KE/PA","step_class":"SUB"}},{"type":"Feature","geometry":{"type":"LineString","coordinates":[[178.792,-40.087],[178.95,-39.685]]},"properties":{"name":"KE/PA","plate_boundary":"KE/PA","step_class":"SUB"}},{"type":"Feature","geometry":{"type":"LineString","coordinates":[[178.95,-39.685],[179.125,-39.23]]},"properties":{"name":"KE/PA","plate_boundary":"KE/PA","step_class":"SUB"}},{"type":"Feature","geometry":{"type":"LineString","coordinates":[[179.125,-39.23],[179.215,-38.889]]},"properties":{"name":"KE/PA","plate_boundary":"KE/PA","step_class":"SUB"}},{"type":"Feature","geometry":{"type":"LineString","coordinates":[[179.215,-38.889],[179.366,-38.538]]},"properties":{"name":"KE/PA","plate_boundary":"KE/PA","step_class":"SUB"}},{"type":"Feature","geometry":{"type":"LineString","coordinates":[[179.366,-38.538],[179.569,-38.204]]},"properties":{"name":"KE/PA","plate_boundary":"KE/PA","step_class":"SUB"}},{"type":"Feature","geometry":{"type":"LineString","coordinates":[[179.569,-38.204],[179.838,-37.476]]},"properties":{"name":"KE/PA","plate_boundary":"KE/PA","step_class":"SUB"}},{"type":"Feature","geometry":{"type":"LineString","coordinates":[[148.587,-7.395],[149.314,-7.032]]},"properties":{"name":"SB/SS","plate_boundary":"SB/SS","step_class":"SUB"}},{"type":"Feature","geometry":{"type":"LineString","coordinates":[[149.314,-7.032],[149.86,-6.939]]},"properties":{"name":"SB/SS","plate_boundary":"SB/SS","step_class":"SUB"}},{"type":"Feature","geometry":{"type":"LineString","coordinates":[[149.86,-6.939],[150.146,-6.881]]},"properties":{"name":"SB/SS","plate_boundary":"SB/SS","step_class":"SUB"}},{"type":"Feature","geometry":{"type":"LineString","coordinates":[[150.146,-6.881],[150.663,-6.694]]},"properties":{"name":"SB/SS","plate_boundary":"SB/SS","step_class":"SUB"}},{"type":"Feature","geometry":{"type":"LineString","coordinates":[[150.663,-6.694],[151.148,-6.443]]},"properties":{"name":"SB/SS","plate_boundary":"SB/SS","step_class":"SUB"}},{"type":"Feature","geometry":{"type":"LineString","coordinates":[[151.148,-6.443],[151.519,-6.21]]},"properties":{"name":"SB/SS","plate_boundary":"SB/SS","step_class":"SUB"}},{"type":"Feature","geometry":{"type":"LineString","coordinates":[[151.519,-6.21],[151.876,-5.926]]},"properties":{"name":"SB/SS","plate_boundary":"SB/SS","step_class":"SUB"}},{"type":"Feature","geometry":{"type":"LineString","coordinates":[[151.876,-5.926],[152.257,-5.755]]},"properties":{"name":"SB/SS","plate_boundary":"SB/SS","step_class":"SUB"}},{"type":"Feature","geometry":{"type":"LineString","coordinates":[[152.257,-5.755],[152.653,-5.64]]},"properties":{"name":"SB/SS","plate_boundary":"SB/SS","step_class":"SUB"}},{"type":"Feature","geometry":{"type":"LineString","coordinates":[[152.653,-5.64],[153.107,-5.741]]},"properties":{"name":"SB/SS","plate_boundary":"SB/SS","step_class":"SUB"}},{"type":"Feature","geometry":{"type":"LineString","coordinates":[[153.107,-5.741],[153.519,-5.946]]},"properties":{"name":"SB/SS","plate_boundary":"SB/SS","step_class":"SUB"}},{"type":"Feature","geometry":{"type":"LineString","coordinates":[[153.519,-5.946],[153.93,-6.265]]},"properties":{"name":"SB/SS","plate_boundary":"SB/SS","step_class":"SUB"}},{"type":"Feature","geometry":{"type":"LineString","coordinates":[[153.93,-6.265],[154.225,-6.507]]},"properties":{"name":"NB/SS","plate_boundary":"NB/SS","step_class":"SUB"}},{"type":"Feature","geometry":{"type":"LineString","coordinates":[[154.225,-6.507],[154.54,-6.818]]},"properties":{"name":"NB/SS","plate_boundary":"NB/SS","step_class":"SUB"}},{"type":"Feature","geometry":{"type":"LineString","coordinates":[[154.54,-6.818],[154.927,-7.293]]},"properties":{"name":"NB/SS","plate_boundary":"NB/SS","step_class":"SUB"}},{"type":"Feature","geometry":{"type":"LineString","coordinates":[[154.927,-7.293],[155.454,-7.489]]},"properties":{"name":"PA/SS","plate_boundary":"PA/SS","step_class":"SUB"}},{"type":"Feature","geometry":{"type":"LineString","coordinates":[[155.454,-7.489],[155.812,-7.706]]},"properties":{"name":"PA/WL","plate_boundary":"PA/WL","step_class":"SUB"}},{"type":"Feature","geometry":{"type":"LineString","coordinates":[[155.812,-7.706],[156.047,-7.884]]},"properties":{"name":"PA/WL","plate_boundary":"PA/WL","step_class":"SUB"}},{"type":"Feature","geometry":{"type":"LineString","coordinates":[[156.047,-7.884],[156.296,-8.174]]},"properties":{"name":"PA/WL","plate_boundary":"PA/WL","step_class":"SUB"}},{"type":"Feature","geometry":{"type":"LineString","coordinates":[[148.587,-7.395],[148.733,-7.475]]},"properties":{"name":"SS\\WL","plate_boundary":"SS\\WL","step_class":"SUB"}},{"type":"Feature","geometry":{"type":"LineString","coordinates":[[148.733,-7.475],[148.944,-7.607]]},"properties":{"name":"SS\\WL","plate_boundary":"SS\\WL","step_class":"SUB"}},{"type":"Feature","geometry":{"type":"LineString","coordinates":[[148.944,-7.607],[149.148,-7.665]]},"properties":{"name":"SS\\WL","plate_boundary":"SS\\WL","step_class":"SUB"}},{"type":"Feature","geometry":{"type":"LineString","coordinates":[[149.148,-7.665],[149.334,-7.665]]},"properties":{"name":"SS\\WL","plate_boundary":"SS\\WL","step_class":"SUB"}},{"type":"Feature","geometry":{"type":"LineString","coordinates":[[149.334,-7.665],[149.609,-7.624]]},"properties":{"name":"SS\\WL","plate_boundary":"SS\\WL","step_class":"SUB"}},{"type":"Feature","geometry":{"type":"LineString","coordinates":[[149.609,-7.624],[149.866,-7.612]]},"properties":{"name":"SS\\WL","plate_boundary":"SS\\WL","step_class":"SUB"}},{"type":"Feature","geometry":{"type":"LineString","coordinates":[[149.866,-7.612],[150.173,-7.629]]},"properties":{"name":"SS\\WL","plate_boundary":"SS\\WL","step_class":"SUB"}},{"type":"Feature","geometry":{"type":"LineString","coordinates":[[150.173,-7.629],[150.555,-7.687]]},"properties":{"name":"SS\\WL","plate_boundary":"SS\\WL","step_class":"SUB"}},{"type":"Feature","geometry":{"type":"LineString","coordinates":[[150.555,-7.687],[150.917,-7.757]]},"properties":{"name":"SS\\WL","plate_boundary":"SS\\WL","step_class":"SUB"}},{"type":"Feature","geometry":{"type":"LineString","coordinates":[[150.917,-7.757],[151.307,-7.852]]},"properties":{"name":"SS\\WL","plate_boundary":"SS\\WL","step_class":"SUB"}},{"type":"Feature","geometry":{"type":"LineString","coordinates":[[151.307,-7.852],[151.68,-7.955]]},"properties":{"name":"SS\\WL","plate_boundary":"SS\\WL","step_class":"SUB"}},{"type":"Feature","geometry":{"type":"LineString","coordinates":[[151.68,-7.955],[152.062,-8.104]]},"properties":{"name":"SS\\WL","plate_boundary":"SS\\WL","step_class":"SUB"}},{"type":"Feature","geometry":{"type":"LineString","coordinates":[[152.062,-8.104],[152.411,-8.26]]},"properties":{"name":"SS\\WL","plate_boundary":"SS\\WL","step_class":"SUB"}},{"type":"Feature","geometry":{"type":"LineString","coordinates":[[152.411,-8.26],[152.685,-8.388]]},"properties":{"name":"SS\\WL","plate_boundary":"SS\\WL","step_class":"SUB"}},{"type":"Feature","geometry":{"type":"LineString","coordinates":[[152.685,-8.388],[152.959,-8.544]]},"properties":{"name":"SS\\WL","plate_boundary":"SS\\WL","step_class":"SUB"}},{"type":"Feature","geometry":{"type":"LineString","coordinates":[[152.959,-8.544],[153.108,-8.684]]},"properties":{"name":"SS\\WL","plate_boundary":"SS\\WL","step_class":"SUB"}},{"type":"Feature","geometry":{"type":"LineString","coordinates":[[153.108,-8.684],[153.17,-8.783]]},"properties":{"name":"SS\\WL","plate_boundary":"SS\\WL","step_class":"SUB"}},{"type":"Feature","geometry":{"type":"LineString","coordinates":[[153.17,-8.783],[153.237,-8.89]]},"properties":{"name":"SS\\WL","plate_boundary":"SS\\WL","step_class":"SUB"}},{"type":"Feature","geometry":{"type":"LineString","coordinates":[[153.237,-8.89],[153.255,-9.186]]},"properties":{"name":"SS\\WL","plate_boundary":"SS\\WL","step_class":"SUB"}},{"type":"Feature","geometry":{"type":"LineString","coordinates":[[156.296,-8.174],[156.467,-8.382]]},"properties":{"name":"PA/AU","plate_boundary":"PA/AU","step_class":"SUB"}},{"type":"Feature","geometry":{"type":"LineString","coordinates":[[156.467,-8.382],[156.706,-8.563]]},"properties":{"name":"PA/AU","plate_boundary":"PA/AU","step_class":"SUB"}},{"type":"Feature","geometry":{"type":"LineString","coordinates":[[156.706,-8.563],[156.782,-8.602]]},"properties":{"name":"PA/AU","plate_boundary":"PA/AU","step_class":"SUB"}},{"type":"Feature","geometry":{"type":"LineString","coordinates":[[156.782,-8.602],[156.858,-8.615]]},"properties":{"name":"PA/AU","plate_boundary":"PA/AU","step_class":"SUB"}},{"type":"Feature","geometry":{"type":"LineString","coordinates":[[156.858,-8.615],[156.935,-8.642]]},"properties":{"name":"PA/AU","plate_boundary":"PA/AU","step_class":"SUB"}},{"type":"Feature","geometry":{"type":"LineString","coordinates":[[156.935,-8.642],[157.049,-8.706]]},"properties":{"name":"PA/AU","plate_boundary":"PA/AU","step_class":"SUB"}},{"type":"Feature","geometry":{"type":"LineString","coordinates":[[157.049,-8.706],[157.177,-8.746]]},"properties":{"name":"PA/AU","plate_boundary":"PA/AU","step_class":"SUB"}},{"type":"Feature","geometry":{"type":"LineString","coordinates":[[157.177,-8.746],[157.241,-8.784]]},"properties":{"name":"PA/AU","plate_boundary":"PA/AU","step_class":"SUB"}},{"type":"Feature","geometry":{"type":"LineString","coordinates":[[157.241,-8.784],[157.317,-8.823]]},"properties":{"name":"PA/AU","plate_boundary":"PA/AU","step_class":"SUB"}},{"type":"Feature","geometry":{"type":"LineString","coordinates":[[157.317,-8.823],[157.419,-8.9]]},"properties":{"name":"PA/AU","plate_boundary":"PA/AU","step_class":"SUB"}},{"type":"Feature","geometry":{"type":"LineString","coordinates":[[157.419,-8.9],[157.572,-8.965]]},"properties":{"name":"PA/AU","plate_boundary":"PA/AU","step_class":"SUB"}},{"type":"Feature","geometry":{"type":"LineString","coordinates":[[157.572,-8.965],[157.648,-9.004]]},"properties":{"name":"PA/AU","plate_boundary":"PA/AU","step_class":"SUB"}},{"type":"Feature","geometry":{"type":"LineString","coordinates":[[157.648,-9.004],[157.724,-9.068]]},"properties":{"name":"PA/AU","plate_boundary":"PA/AU","step_class":"SUB"}},{"type":"Feature","geometry":{"type":"LineString","coordinates":[[157.724,-9.068],[157.827,-9.107]]},"properties":{"name":"PA/AU","plate_boundary":"PA/AU","step_class":"SUB"}},{"type":"Feature","geometry":{"type":"LineString","coordinates":[[157.827,-9.107],[157.916,-9.159]]},"properties":{"name":"PA/AU","plate_boundary":"PA/AU","step_class":"SUB"}},{"type":"Feature","geometry":{"type":"LineString","coordinates":[[157.916,-9.159],[157.992,-9.21]]},"properties":{"name":"PA/AU","plate_boundary":"PA/AU","step_class":"SUB"}},{"type":"Feature","geometry":{"type":"LineString","coordinates":[[157.992,-9.21],[158.056,-9.249]]},"properties":{"name":"PA/AU","plate_boundary":"PA/AU","step_class":"SUB"}},{"type":"Feature","geometry":{"type":"LineString","coordinates":[[158.056,-9.249],[158.145,-9.313]]},"properties":{"name":"PA/AU","plate_boundary":"PA/AU","step_class":"SUB"}},{"type":"Feature","geometry":{"type":"LineString","coordinates":[[158.145,-9.313],[158.273,-9.39]]},"properties":{"name":"PA/AU","plate_boundary":"PA/AU","step_class":"SUB"}},{"type":"Feature","geometry":{"type":"LineString","coordinates":[[158.273,-9.39],[158.388,-9.442]]},"properties":{"name":"PA/AU","plate_boundary":"PA/AU","step_class":"SUB"}},{"type":"Feature","geometry":{"type":"LineString","coordinates":[[158.388,-9.442],[158.478,-9.481]]},"properties":{"name":"PA/AU","plate_boundary":"PA/AU","step_class":"SUB"}},{"type":"Feature","geometry":{"type":"LineString","coordinates":[[158.478,-9.481],[158.58,-9.507]]},"properties":{"name":"PA/AU","plate_boundary":"PA/AU","step_class":"SUB"}},{"type":"Feature","geometry":{"type":"LineString","coordinates":[[158.58,-9.507],[158.709,-9.546]]},"properties":{"name":"PA/AU","plate_boundary":"PA/AU","step_class":"SUB"}},{"type":"Feature","geometry":{"type":"LineString","coordinates":[[158.709,-9.546],[158.773,-9.559]]},"properties":{"name":"PA/AU","plate_boundary":"PA/AU","step_class":"SUB"}},{"type":"Feature","geometry":{"type":"LineString","coordinates":[[158.773,-9.559],[158.85,-9.585]]},"properties":{"name":"PA/AU","plate_boundary":"PA/AU","step_class":"SUB"}},{"type":"Feature","geometry":{"type":"LineString","coordinates":[[158.85,-9.585],[158.926,-9.624]]},"properties":{"name":"PA/AU","plate_boundary":"PA/AU","step_class":"SUB"}},{"type":"Feature","geometry":{"type":"LineString","coordinates":[[158.926,-9.624],[159.003,-9.65]]},"properties":{"name":"PA/AU","plate_boundary":"PA/AU","step_class":"SUB"}},{"type":"Feature","geometry":{"type":"LineString","coordinates":[[159.003,-9.65],[159.068,-9.688]]},"properties":{"name":"PA/AU","plate_boundary":"PA/AU","step_class":"SUB"}},{"type":"Feature","geometry":{"type":"LineString","coordinates":[[159.068,-9.688],[159.119,-9.726]]},"properties":{"name":"PA/AU","plate_boundary":"PA/AU","step_class":"SUB"}},{"type":"Feature","geometry":{"type":"LineString","coordinates":[[159.119,-9.726],[159.17,-9.765]]},"properties":{"name":"PA/AU","plate_boundary":"PA/AU","step_class":"SUB"}},{"type":"Feature","geometry":{"type":"LineString","coordinates":[[159.17,-9.765],[159.221,-9.829]]},"properties":{"name":"PA/AU","plate_boundary":"PA/AU","step_class":"SUB"}},{"type":"Feature","geometry":{"type":"LineString","coordinates":[[159.221,-9.829],[159.285,-9.88]]},"properties":{"name":"PA/AU","plate_boundary":"PA/AU","step_class":"SUB"}},{"type":"Feature","geometry":{"type":"LineString","coordinates":[[159.285,-9.88],[159.362,-9.931]]},"properties":{"name":"PA/AU","plate_boundary":"PA/AU","step_class":"SUB"}},{"type":"Feature","geometry":{"type":"LineString","coordinates":[[159.362,-9.931],[159.439,-9.969]]},"properties":{"name":"PA/AU","plate_boundary":"PA/AU","step_class":"SUB"}},{"type":"Feature","geometry":{"type":"LineString","coordinates":[[159.439,-9.969],[159.503,-10.021]]},"properties":{"name":"PA/AU","plate_boundary":"PA/AU","step_class":"SUB"}},{"type":"Feature","geometry":{"type":"LineString","coordinates":[[159.503,-10.021],[159.58,-10.084]]},"properties":{"name":"PA/AU","plate_boundary":"PA/AU","step_class":"SUB"}},{"type":"Feature","geometry":{"type":"LineString","coordinates":[[159.58,-10.084],[159.644,-10.123]]},"properties":{"name":"PA/AU","plate_boundary":"PA/AU","step_class":"SUB"}},{"type":"Feature","geometry":{"type":"LineString","coordinates":[[159.644,-10.123],[159.708,-10.174]]},"properties":{"name":"PA/AU","plate_boundary":"PA/AU","step_class":"SUB"}},{"type":"Feature","geometry":{"type":"LineString","coordinates":[[159.708,-10.174],[159.772,-10.2]]},"properties":{"name":"PA/AU","plate_boundary":"PA/AU","step_class":"SUB"}},{"type":"Feature","geometry":{"type":"LineString","coordinates":[[159.772,-10.2],[159.837,-10.251]]},"properties":{"name":"PA/AU","plate_boundary":"PA/AU","step_class":"SUB"}},{"type":"Feature","geometry":{"type":"LineString","coordinates":[[159.837,-10.251],[159.914,-10.276]]},"properties":{"name":"PA/AU","plate_boundary":"PA/AU","step_class":"SUB"}},{"type":"Feature","geometry":{"type":"LineString","coordinates":[[159.914,-10.276],[159.978,-10.315]]},"properties":{"name":"PA/AU","plate_boundary":"PA/AU","step_class":"SUB"}},{"type":"Feature","geometry":{"type":"LineString","coordinates":[[159.978,-10.315],[160.068,-10.379]]},"properties":{"name":"PA/AU","plate_boundary":"PA/AU","step_class":"SUB"}},{"type":"Feature","geometry":{"type":"LineString","coordinates":[[160.068,-10.379],[160.132,-10.417]]},"properties":{"name":"PA/AU","plate_boundary":"PA/AU","step_class":"SUB"}},{"type":"Feature","geometry":{"type":"LineString","coordinates":[[160.132,-10.417],[160.21,-10.468]]},"properties":{"name":"PA/AU","plate_boundary":"PA/AU","step_class":"SUB"}},{"type":"Feature","geometry":{"type":"LineString","coordinates":[[160.21,-10.468],[160.287,-10.519]]},"properties":{"name":"PA/AU","plate_boundary":"PA/AU","step_class":"SUB"}},{"type":"Feature","geometry":{"type":"LineString","coordinates":[[160.287,-10.519],[160.364,-10.57]]},"properties":{"name":"PA/AU","plate_boundary":"PA/AU","step_class":"SUB"}},{"type":"Feature","geometry":{"type":"LineString","coordinates":[[160.364,-10.57],[160.493,-10.634]]},"properties":{"name":"PA/AU","plate_boundary":"PA/AU","step_class":"SUB"}},{"type":"Feature","geometry":{"type":"LineString","coordinates":[[160.493,-10.634],[160.544,-10.672]]},"properties":{"name":"PA/AU","plate_boundary":"PA/AU","step_class":"SUB"}},{"type":"Feature","geometry":{"type":"LineString","coordinates":[[160.544,-10.672],[160.622,-10.723]]},"properties":{"name":"PA/AU","plate_boundary":"PA/AU","step_class":"SUB"}},{"type":"Feature","geometry":{"type":"LineString","coordinates":[[160.622,-10.723],[160.725,-10.787]]},"properties":{"name":"PA/AU","plate_boundary":"PA/AU","step_class":"SUB"}},{"type":"Feature","geometry":{"type":"LineString","coordinates":[[160.725,-10.787],[160.776,-10.838]]},"properties":{"name":"PA/AU","plate_boundary":"PA/AU","step_class":"SUB"}},{"type":"Feature","geometry":{"type":"LineString","coordinates":[[160.776,-10.838],[160.867,-10.914]]},"properties":{"name":"PA/AU","plate_boundary":"PA/AU","step_class":"SUB"}},{"type":"Feature","geometry":{"type":"LineString","coordinates":[[160.867,-10.914],[160.931,-10.965]]},"properties":{"name":"PA/AU","plate_boundary":"PA/AU","step_class":"SUB"}},{"type":"Feature","geometry":{"type":"LineString","coordinates":[[160.931,-10.965],[160.996,-11.029]]},"properties":{"name":"PA/AU","plate_boundary":"PA/AU","step_class":"SUB"}},{"type":"Feature","geometry":{"type":"LineString","coordinates":[[160.996,-11.029],[161.06,-11.054]]},"properties":{"name":"PA/AU","plate_boundary":"PA/AU","step_class":"SUB"}},{"type":"Feature","geometry":{"type":"LineString","coordinates":[[161.06,-11.054],[161.125,-11.13]]},"properties":{"name":"PA/AU","plate_boundary":"PA/AU","step_class":"SUB"}},{"type":"Feature","geometry":{"type":"LineString","coordinates":[[161.125,-11.13],[161.202,-11.168]]},"properties":{"name":"PA/AU","plate_boundary":"PA/AU","step_class":"SUB"}},{"type":"Feature","geometry":{"type":"LineString","coordinates":[[161.202,-11.168],[161.306,-11.194]]},"properties":{"name":"PA/AU","plate_boundary":"PA/AU","step_class":"SUB"}},{"type":"Feature","geometry":{"type":"LineString","coordinates":[[161.306,-11.194],[161.384,-11.232]]},"properties":{"name":"PA/AU","plate_boundary":"PA/AU","step_class":"SUB"}},{"type":"Feature","geometry":{"type":"LineString","coordinates":[[161.384,-11.232],[161.461,-11.245]]},"properties":{"name":"PA/AU","plate_boundary":"PA/AU","step_class":"SUB"}},{"type":"Feature","geometry":{"type":"LineString","coordinates":[[161.461,-11.245],[161.552,-11.283]]},"properties":{"name":"PA/AU","plate_boundary":"PA/AU","step_class":"SUB"}},{"type":"Feature","geometry":{"type":"LineString","coordinates":[[161.552,-11.283],[161.72,-11.321]]},"properties":{"name":"PA/AU","plate_boundary":"PA/AU","step_class":"SUB"}},{"type":"Feature","geometry":{"type":"LineString","coordinates":[[161.72,-11.321],[161.798,-11.359]]},"properties":{"name":"PA/AU","plate_boundary":"PA/AU","step_class":"SUB"}},{"type":"Feature","geometry":{"type":"LineString","coordinates":[[161.798,-11.359],[161.901,-11.397]]},"properties":{"name":"PA/AU","plate_boundary":"PA/AU","step_class":"SUB"}},{"type":"Feature","geometry":{"type":"LineString","coordinates":[[161.901,-11.397],[162.018,-11.422]]},"properties":{"name":"PA/AU","plate_boundary":"PA/AU","step_class":"SUB"}},{"type":"Feature","geometry":{"type":"LineString","coordinates":[[162.018,-11.422],[162.109,-11.434]]},"properties":{"name":"PA/AU","plate_boundary":"PA/AU","step_class":"SUB"}},{"type":"Feature","geometry":{"type":"LineString","coordinates":[[162.109,-11.434],[162.225,-11.422]]},"properties":{"name":"PA/AU","plate_boundary":"PA/AU","step_class":"SUB"}},{"type":"Feature","geometry":{"type":"LineString","coordinates":[[162.225,-11.422],[162.354,-11.421]]},"properties":{"name":"PA/AU","plate_boundary":"PA/AU","step_class":"SUB"}},{"type":"Feature","geometry":{"type":"LineString","coordinates":[[162.354,-11.421],[162.484,-11.421]]},"properties":{"name":"PA/AU","plate_boundary":"PA/AU","step_class":"SUB"}},{"type":"Feature","geometry":{"type":"LineString","coordinates":[[162.626,-11.382],[162.833,-11.356]]},"properties":{"name":"PA/AU","plate_boundary":"PA/AU","step_class":"SUB"}},{"type":"Feature","geometry":{"type":"LineString","coordinates":[[162.833,-11.356],[163.053,-11.311]]},"properties":{"name":"PA/AU","plate_boundary":"PA/AU","step_class":"SUB"}},{"type":"Feature","geometry":{"type":"LineString","coordinates":[[163.053,-11.311],[163.195,-11.291]]},"properties":{"name":"PA/AU","plate_boundary":"PA/AU","step_class":"SUB"}},{"type":"Feature","geometry":{"type":"LineString","coordinates":[[163.311,-11.265],[163.505,-11.238]]},"properties":{"name":"PA/AU","plate_boundary":"PA/AU","step_class":"SUB"}},{"type":"Feature","geometry":{"type":"LineString","coordinates":[[163.699,-11.199],[163.854,-11.185]]},"properties":{"name":"PA/AU","plate_boundary":"PA/AU","step_class":"SUB"}},{"type":"Feature","geometry":{"type":"LineString","coordinates":[[163.854,-11.185],[163.996,-11.158]]},"properties":{"name":"PA/AU","plate_boundary":"PA/AU","step_class":"SUB"}},{"type":"Feature","geometry":{"type":"LineString","coordinates":[[163.996,-11.158],[164.151,-11.144]]},"properties":{"name":"PA/AU","plate_boundary":"PA/AU","step_class":"SUB"}},{"type":"Feature","geometry":{"type":"LineString","coordinates":[[164.267,-11.118],[164.409,-11.091]]},"properties":{"name":"PA/AU","plate_boundary":"PA/AU","step_class":"SUB"}},{"type":"Feature","geometry":{"type":"LineString","coordinates":[[164.409,-11.091],[164.512,-11.09]]},"properties":{"name":"PA/AU","plate_boundary":"PA/AU","step_class":"SUB"}},{"type":"Feature","geometry":{"type":"LineString","coordinates":[[164.512,-11.09],[164.641,-11.114]]},"properties":{"name":"PA/AU","plate_boundary":"PA/AU","step_class":"SUB"}},{"type":"Feature","geometry":{"type":"LineString","coordinates":[[164.641,-11.114],[164.758,-11.164]]},"properties":{"name":"PA/AU","plate_boundary":"PA/AU","step_class":"SUB"}},{"type":"Feature","geometry":{"type":"LineString","coordinates":[[164.758,-11.164],[164.901,-11.2]]},"properties":{"name":"PA/AU","plate_boundary":"PA/AU","step_class":"SUB"}},{"type":"Feature","geometry":{"type":"LineString","coordinates":[[164.901,-11.2],[165.07,-11.287]]},"properties":{"name":"PA/AU","plate_boundary":"PA/AU","step_class":"SUB"}},{"type":"Feature","geometry":{"type":"LineString","coordinates":[[165.07,-11.287],[165.252,-11.411]]},"properties":{"name":"PA/AU","plate_boundary":"PA/AU","step_class":"SUB"}},{"type":"Feature","geometry":{"type":"LineString","coordinates":[[165.252,-11.411],[165.396,-11.549]]},"properties":{"name":"PA/AU","plate_boundary":"PA/AU","step_class":"SUB"}},{"type":"Feature","geometry":{"type":"LineString","coordinates":[[165.396,-11.549],[165.514,-11.686]]},"properties":{"name":"PA/AU","plate_boundary":"PA/AU","step_class":"SUB"}},{"type":"Feature","geometry":{"type":"LineString","coordinates":[[165.514,-11.686],[165.621,-11.887]]},"properties":{"name":"PA/AU","plate_boundary":"PA/AU","step_class":"SUB"}},{"type":"Feature","geometry":{"type":"LineString","coordinates":[[165.621,-11.887],[165.715,-12.127]]},"properties":{"name":"PA/AU","plate_boundary":"PA/AU","step_class":"SUB"}},{"type":"Feature","geometry":{"type":"LineString","coordinates":[[165.715,-12.127],[165.77,-12.316]]},"properties":{"name":"PA/AU","plate_boundary":"PA/AU","step_class":"SUB"}},{"type":"Feature","geometry":{"type":"LineString","coordinates":[[165.77,-12.316],[165.838,-12.517]]},"properties":{"name":"PA/AU","plate_boundary":"PA/AU","step_class":"SUB"}},{"type":"Feature","geometry":{"type":"LineString","coordinates":[[165.838,-12.517],[165.894,-12.744]]},"properties":{"name":"PA/AU","plate_boundary":"PA/AU","step_class":"SUB"}},{"type":"Feature","geometry":{"type":"LineString","coordinates":[[165.894,-12.744],[165.909,-12.87]]},"properties":{"name":"PA/AU","plate_boundary":"PA/AU","step_class":"SUB"}},{"type":"Feature","geometry":{"type":"LineString","coordinates":[[165.909,-12.87],[165.952,-13.072]]},"properties":{"name":"PA/AU","plate_boundary":"PA/AU","step_class":"SUB"}},{"type":"Feature","geometry":{"type":"LineString","coordinates":[[165.952,-13.072],[166.02,-13.261]]},"properties":{"name":"PA/AU","plate_boundary":"PA/AU","step_class":"SUB"}},{"type":"Feature","geometry":{"type":"LineString","coordinates":[[166.02,-13.261],[166.09,-13.513]]},"properties":{"name":"PA/AU","plate_boundary":"PA/AU","step_class":"SUB"}},{"type":"Feature","geometry":{"type":"LineString","coordinates":[[166.09,-13.513],[166.132,-13.676]]},"properties":{"name":"PA/AU","plate_boundary":"PA/AU","step_class":"SUB"}},{"type":"Feature","geometry":{"type":"LineString","coordinates":[[166.132,-13.676],[166.154,-13.779]]},"properties":{"name":"PA/AU","plate_boundary":"PA/AU","step_class":"SUB"}},{"type":"Feature","geometry":{"type":"LineString","coordinates":[[166.154,-13.779],[166.161,-13.828]]},"properties":{"name":"NH/AU","plate_boundary":"NH/AU","step_class":"SUB"}},{"type":"Feature","geometry":{"type":"LineString","coordinates":[[166.161,-13.828],[166.204,-13.991]]},"properties":{"name":"NH/AU","plate_boundary":"NH/AU","step_class":"SUB"}},{"type":"Feature","geometry":{"type":"LineString","coordinates":[[166.204,-13.991],[166.234,-14.181]]},"properties":{"name":"NH/AU","plate_boundary":"NH/AU","step_class":"SUB"}},{"type":"Feature","geometry":{"type":"LineString","coordinates":[[166.234,-14.181],[166.25,-14.345]]},"properties":{"name":"NH/AU","plate_boundary":"NH/AU","step_class":"SUB"}},{"type":"Feature","geometry":{"type":"LineString","coordinates":[[166.25,-14.345],[166.252,-14.42]]},"properties":{"name":"NH/AU","plate_boundary":"NH/AU","step_class":"SUB"}},{"type":"Feature","geometry":{"type":"LineString","coordinates":[[166.252,-14.42],[166.268,-14.559]]},"properties":{"name":"NH/AU","plate_boundary":"NH/AU","step_class":"SUB"}},{"type":"Feature","geometry":{"type":"LineString","coordinates":[[166.268,-14.559],[166.271,-14.686]]},"properties":{"name":"NH/AU","plate_boundary":"NH/AU","step_class":"SUB"}},{"type":"Feature","geometry":{"type":"LineString","coordinates":[[166.271,-14.686],[166.262,-14.889]]},"properties":{"name":"NH/AU","plate_boundary":"NH/AU","step_class":"SUB"}},{"type":"Feature","geometry":{"type":"LineString","coordinates":[[166.262,-14.889],[166.213,-15.041]]},"properties":{"name":"NH/AU","plate_boundary":"NH/AU","step_class":"SUB"}},{"type":"Feature","geometry":{"type":"LineString","coordinates":[[166.213,-15.041],[166.228,-15.13]]},"properties":{"name":"NH/AU","plate_boundary":"NH/AU","step_class":"SUB"}},{"type":"Feature","geometry":{"type":"LineString","coordinates":[[166.228,-15.13],[166.217,-15.244]]},"properties":{"name":"NH/AU","plate_boundary":"NH/AU","step_class":"SUB"}},{"type":"Feature","geometry":{"type":"LineString","coordinates":[[166.217,-15.244],[166.193,-15.345]]},"properties":{"name":"NH/AU","plate_boundary":"NH/AU","step_class":"SUB"}},{"type":"Feature","geometry":{"type":"LineString","coordinates":[[166.193,-15.345],[166.209,-15.434]]},"properties":{"name":"NH/AU","plate_boundary":"NH/AU","step_class":"SUB"}},{"type":"Feature","geometry":{"type":"LineString","coordinates":[[166.209,-15.434],[166.225,-15.56]]},"properties":{"name":"NH/AU","plate_boundary":"NH/AU","step_class":"SUB"}},{"type":"Feature","geometry":{"type":"LineString","coordinates":[[166.225,-15.56],[166.227,-15.674]]},"properties":{"name":"NH/AU","plate_boundary":"NH/AU","step_class":"SUB"}},{"type":"Feature","geometry":{"type":"LineString","coordinates":[[166.227,-15.674],[166.27,-15.799]]},"properties":{"name":"NH/AU","plate_boundary":"NH/AU","step_class":"SUB"}},{"type":"Feature","geometry":{"type":"LineString","coordinates":[[166.27,-15.799],[166.285,-15.887]]},"properties":{"name":"NH/AU","plate_boundary":"NH/AU","step_class":"SUB"}},{"type":"Feature","geometry":{"type":"LineString","coordinates":[[166.285,-15.887],[166.34,-15.975]]},"properties":{"name":"NH/AU","plate_boundary":"NH/AU","step_class":"SUB"}},{"type":"Feature","geometry":{"type":"LineString","coordinates":[[166.34,-15.975],[166.395,-16.087]]},"properties":{"name":"NH/AU","plate_boundary":"NH/AU","step_class":"SUB"}},{"type":"Feature","geometry":{"type":"LineString","coordinates":[[166.395,-16.087],[166.45,-16.187]]},"properties":{"name":"NH/AU","plate_boundary":"NH/AU","step_class":"SUB"}},{"type":"Feature","geometry":{"type":"LineString","coordinates":[[166.45,-16.187],[166.506,-16.3]]},"properties":{"name":"NH/AU","plate_boundary":"NH/AU","step_class":"SUB"}},{"type":"Feature","geometry":{"type":"LineString","coordinates":[[166.506,-16.3],[166.562,-16.438]]},"properties":{"name":"NH/AU","plate_boundary":"NH/AU","step_class":"SUB"}},{"type":"Feature","geometry":{"type":"LineString","coordinates":[[166.562,-16.438],[166.604,-16.538]]},"properties":{"name":"NH/AU","plate_boundary":"NH/AU","step_class":"SUB"}},{"type":"Feature","geometry":{"type":"LineString","coordinates":[[166.604,-16.538],[166.659,-16.625]]},"properties":{"name":"NH/AU","plate_boundary":"NH/AU","step_class":"SUB"}},{"type":"Feature","geometry":{"type":"LineString","coordinates":[[166.659,-16.625],[166.728,-16.737]]},"properties":{"name":"NH/AU","plate_boundary":"NH/AU","step_class":"SUB"}},{"type":"Feature","geometry":{"type":"LineString","coordinates":[[166.728,-16.737],[166.81,-16.836]]},"properties":{"name":"NH/AU","plate_boundary":"NH/AU","step_class":"SUB"}},{"type":"Feature","geometry":{"type":"LineString","coordinates":[[166.81,-16.836],[166.868,-16.987]]},"properties":{"name":"NH/AU","plate_boundary":"NH/AU","step_class":"SUB"}},{"type":"Feature","geometry":{"type":"LineString","coordinates":[[166.868,-16.987],[166.95,-17.098]]},"properties":{"name":"NH/AU","plate_boundary":"NH/AU","step_class":"SUB"}},{"type":"Feature","geometry":{"type":"LineString","coordinates":[[166.95,-17.098],[167.059,-17.209]]},"properties":{"name":"NH/AU","plate_boundary":"NH/AU","step_class":"SUB"}},{"type":"Feature","geometry":{"type":"LineString","coordinates":[[167.059,-17.209],[167.155,-17.307]]},"properties":{"name":"NH/AU","plate_boundary":"NH/AU","step_class":"SUB"}},{"type":"Feature","geometry":{"type":"LineString","coordinates":[[167.155,-17.307],[167.171,-17.396]]},"properties":{"name":"NH/AU","plate_boundary":"NH/AU","step_class":"SUB"}},{"type":"Feature","geometry":{"type":"LineString","coordinates":[[167.171,-17.396],[167.215,-17.521]]},"properties":{"name":"NH/AU","plate_boundary":"NH/AU","step_class":"SUB"}},{"type":"Feature","geometry":{"type":"LineString","coordinates":[[167.215,-17.521],[167.245,-17.633]]},"properties":{"name":"NH/AU","plate_boundary":"NH/AU","step_class":"SUB"}},{"type":"Feature","geometry":{"type":"LineString","coordinates":[[167.245,-17.633],[167.275,-17.759]]},"properties":{"name":"NH/AU","plate_boundary":"NH/AU","step_class":"SUB"}},{"type":"Feature","geometry":{"type":"LineString","coordinates":[[167.275,-17.759],[167.32,-17.922]]},"properties":{"name":"NH/AU","plate_boundary":"NH/AU","step_class":"SUB"}},{"type":"Feature","geometry":{"type":"LineString","coordinates":[[167.32,-17.922],[167.35,-18.022]]},"properties":{"name":"NH/AU","plate_boundary":"NH/AU","step_class":"SUB"}},{"type":"Feature","geometry":{"type":"LineString","coordinates":[[167.35,-18.022],[167.394,-18.147]]},"properties":{"name":"NH/AU","plate_boundary":"NH/AU","step_class":"SUB"}},{"type":"Feature","geometry":{"type":"LineString","coordinates":[[167.394,-18.147],[167.424,-18.247]]},"properties":{"name":"NH/AU","plate_boundary":"NH/AU","step_class":"SUB"}},{"type":"Feature","geometry":{"type":"LineString","coordinates":[[167.424,-18.247],[167.455,-18.36]]},"properties":{"name":"NH/AU","plate_boundary":"NH/AU","step_class":"SUB"}},{"type":"Feature","geometry":{"type":"LineString","coordinates":[[167.455,-18.36],[167.486,-18.486]]},"properties":{"name":"NH/AU","plate_boundary":"NH/AU","step_class":"SUB"}},{"type":"Feature","geometry":{"type":"LineString","coordinates":[[167.486,-18.486],[167.504,-18.611]]},"properties":{"name":"NH/AU","plate_boundary":"NH/AU","step_class":"SUB"}},{"type":"Feature","geometry":{"type":"LineString","coordinates":[[167.504,-18.611],[167.521,-18.712]]},"properties":{"name":"NH/AU","plate_boundary":"NH/AU","step_class":"SUB"}},{"type":"Feature","geometry":{"type":"LineString","coordinates":[[167.521,-18.712],[167.607,-18.886]]},"properties":{"name":"NH/AU","plate_boundary":"NH/AU","step_class":"SUB"}},{"type":"Feature","geometry":{"type":"LineString","coordinates":[[167.607,-18.886],[167.68,-19.048]]},"properties":{"name":"NH/AU","plate_boundary":"NH/AU","step_class":"SUB"}},{"type":"Feature","geometry":{"type":"LineString","coordinates":[[167.68,-19.048],[167.727,-19.236]]},"properties":{"name":"NH/AU","plate_boundary":"NH/AU","step_class":"SUB"}},{"type":"Feature","geometry":{"type":"LineString","coordinates":[[167.727,-19.236],[167.812,-19.372]]},"properties":{"name":"NH/AU","plate_boundary":"NH/AU","step_class":"SUB"}},{"type":"Feature","geometry":{"type":"LineString","coordinates":[[167.812,-19.372],[167.886,-19.533]]},"properties":{"name":"NH/AU","plate_boundary":"NH/AU","step_class":"SUB"}},{"type":"Feature","geometry":{"type":"LineString","coordinates":[[167.886,-19.533],[167.943,-19.632]]},"properties":{"name":"NH/AU","plate_boundary":"NH/AU","step_class":"SUB"}},{"type":"Feature","geometry":{"type":"LineString","coordinates":[[167.943,-19.632],[168.003,-19.769]]},"properties":{"name":"NH/AU","plate_boundary":"NH/AU","step_class":"SUB"}},{"type":"Feature","geometry":{"type":"LineString","coordinates":[[168.003,-19.769],[168.075,-19.893]]},"properties":{"name":"NH/AU","plate_boundary":"NH/AU","step_class":"SUB"}},{"type":"Feature","geometry":{"type":"LineString","coordinates":[[168.075,-19.893],[168.16,-20.003]]},"properties":{"name":"NH/AU","plate_boundary":"NH/AU","step_class":"SUB"}},{"type":"Feature","geometry":{"type":"LineString","coordinates":[[168.16,-20.003],[168.191,-20.09]]},"properties":{"name":"NH/AU","plate_boundary":"NH/AU","step_class":"SUB"}},{"type":"Feature","geometry":{"type":"LineString","coordinates":[[168.191,-20.09],[168.263,-20.201]]},"properties":{"name":"NH/AU","plate_boundary":"NH/AU","step_class":"SUB"}},{"type":"Feature","geometry":{"type":"LineString","coordinates":[[168.263,-20.201],[168.335,-20.325]]},"properties":{"name":"NH/AU","plate_boundary":"NH/AU","step_class":"SUB"}},{"type":"Feature","geometry":{"type":"LineString","coordinates":[[168.335,-20.325],[168.396,-20.474]]},"properties":{"name":"NH/AU","plate_boundary":"NH/AU","step_class":"SUB"}},{"type":"Feature","geometry":{"type":"LineString","coordinates":[[168.396,-20.474],[168.512,-20.646]]},"properties":{"name":"NH/AU","plate_boundary":"NH/AU","step_class":"SUB"}},{"type":"Feature","geometry":{"type":"LineString","coordinates":[[168.512,-20.646],[168.585,-20.781]]},"properties":{"name":"NH/AU","plate_boundary":"NH/AU","step_class":"SUB"}},{"type":"Feature","geometry":{"type":"LineString","coordinates":[[168.585,-20.781],[168.645,-20.893]]},"properties":{"name":"NH/AU","plate_boundary":"NH/AU","step_class":"SUB"}},{"type":"Feature","geometry":{"type":"LineString","coordinates":[[168.645,-20.893],[168.705,-21.016]]},"properties":{"name":"NH/AU","plate_boundary":"NH/AU","step_class":"SUB"}},{"type":"Feature","geometry":{"type":"LineString","coordinates":[[168.705,-21.016],[168.776,-21.101]]},"properties":{"name":"NH/AU","plate_boundary":"NH/AU","step_class":"SUB"}},{"type":"Feature","geometry":{"type":"LineString","coordinates":[[168.776,-21.101],[168.879,-21.261]]},"properties":{"name":"NH/AU","plate_boundary":"NH/AU","step_class":"SUB"}},{"type":"Feature","geometry":{"type":"LineString","coordinates":[[168.879,-21.261],[168.996,-21.42]]},"properties":{"name":"NH/AU","plate_boundary":"NH/AU","step_class":"SUB"}},{"type":"Feature","geometry":{"type":"LineString","coordinates":[[168.996,-21.42],[169.054,-21.506]]},"properties":{"name":"NH/AU","plate_boundary":"NH/AU","step_class":"SUB"}},{"type":"Feature","geometry":{"type":"LineString","coordinates":[[169.054,-21.506],[169.143,-21.64]]},"properties":{"name":"NH/AU","plate_boundary":"NH/AU","step_class":"SUB"}},{"type":"Feature","geometry":{"type":"LineString","coordinates":[[169.143,-21.64],[169.215,-21.725]]},"properties":{"name":"NH/AU","plate_boundary":"NH/AU","step_class":"SUB"}},{"type":"Feature","geometry":{"type":"LineString","coordinates":[[169.215,-21.725],[169.288,-21.823]]},"properties":{"name":"NH/AU","plate_boundary":"NH/AU","step_class":"SUB"}},{"type":"Feature","geometry":{"type":"LineString","coordinates":[[169.288,-21.823],[169.32,-21.909]]},"properties":{"name":"NH/AU","plate_boundary":"NH/AU","step_class":"SUB"}},{"type":"Feature","geometry":{"type":"LineString","coordinates":[[169.32,-21.909],[169.419,-21.98]]},"properties":{"name":"NH/AU","plate_boundary":"NH/AU","step_class":"SUB"}},{"type":"Feature","geometry":{"type":"LineString","coordinates":[[169.419,-21.98],[169.491,-22.052]]},"properties":{"name":"NH/AU","plate_boundary":"NH/AU","step_class":"SUB"}},{"type":"Feature","geometry":{"type":"LineString","coordinates":[[169.491,-22.052],[169.577,-22.124]]},"properties":{"name":"NH/AU","plate_boundary":"NH/AU","step_class":"SUB"}},{"type":"Feature","geometry":{"type":"LineString","coordinates":[[169.577,-22.124],[169.719,-22.23]]},"properties":{"name":"NH/AU","plate_boundary":"NH/AU","step_class":"SUB"}},{"type":"Feature","geometry":{"type":"LineString","coordinates":[[169.719,-22.23],[169.835,-22.35]]},"properties":{"name":"NH/AU","plate_boundary":"NH/AU","step_class":"SUB"}},{"type":"Feature","geometry":{"type":"LineString","coordinates":[[169.835,-22.35],[169.95,-22.445]]},"properties":{"name":"NH/AU","plate_boundary":"NH/AU","step_class":"SUB"}},{"type":"Feature","geometry":{"type":"LineString","coordinates":[[169.95,-22.445],[170.036,-22.516]]},"properties":{"name":"NH/AU","plate_boundary":"NH/AU","step_class":"SUB"}},{"type":"Feature","geometry":{"type":"LineString","coordinates":[[170.036,-22.516],[170.109,-22.587]]},"properties":{"name":"NH/AU","plate_boundary":"NH/AU","step_class":"SUB"}},{"type":"Feature","geometry":{"type":"LineString","coordinates":[[170.109,-22.587],[170.221,-22.644]]},"properties":{"name":"NH/AU","plate_boundary":"NH/AU","step_class":"SUB"}},{"type":"Feature","geometry":{"type":"LineString","coordinates":[[170.221,-22.644],[170.321,-22.702]]},"properties":{"name":"NH/AU","plate_boundary":"NH/AU","step_class":"SUB"}},{"type":"Feature","geometry":{"type":"LineString","coordinates":[[170.321,-22.702],[170.42,-22.759]]},"properties":{"name":"NH/AU","plate_boundary":"NH/AU","step_class":"SUB"}},{"type":"Feature","geometry":{"type":"LineString","coordinates":[[170.42,-22.759],[170.547,-22.827]]},"properties":{"name":"NH/AU","plate_boundary":"NH/AU","step_class":"SUB"}},{"type":"Feature","geometry":{"type":"LineString","coordinates":[[170.547,-22.827],[170.66,-22.884]]},"properties":{"name":"NH/AU","plate_boundary":"NH/AU","step_class":"SUB"}},{"type":"Feature","geometry":{"type":"LineString","coordinates":[[170.66,-22.884],[170.745,-22.917]]},"properties":{"name":"NH/AU","plate_boundary":"NH/AU","step_class":"SUB"}},{"type":"Feature","geometry":{"type":"LineString","coordinates":[[170.745,-22.917],[170.842,-22.949]]},"properties":{"name":"NH/AU","plate_boundary":"NH/AU","step_class":"SUB"}},{"type":"Feature","geometry":{"type":"LineString","coordinates":[[170.842,-22.949],[170.939,-22.968]]},"properties":{"name":"NH/AU","plate_boundary":"NH/AU","step_class":"SUB"}},{"type":"Feature","geometry":{"type":"LineString","coordinates":[[170.939,-22.968],[171.037,-23.0]]},"properties":{"name":"NH/AU","plate_boundary":"NH/AU","step_class":"SUB"}},{"type":"Feature","geometry":{"type":"LineString","coordinates":[[171.037,-23.0],[171.162,-23.03]]},"properties":{"name":"NH/AU","plate_boundary":"NH/AU","step_class":"SUB"}},{"type":"Feature","geometry":{"type":"LineString","coordinates":[[171.162,-23.03],[171.288,-23.072]]},"properties":{"name":"NH/AU","plate_boundary":"NH/AU","step_class":"SUB"}},{"type":"Feature","geometry":{"type":"LineString","coordinates":[[171.288,-23.072],[171.385,-23.091]]},"properties":{"name":"NH/AU","plate_boundary":"NH/AU","step_class":"SUB"}},{"type":"Feature","geometry":{"type":"LineString","coordinates":[[171.385,-23.091],[171.496,-23.11]]},"properties":{"name":"NH/AU","plate_boundary":"NH/AU","step_class":"SUB"}},{"type":"Feature","geometry":{"type":"LineString","coordinates":[[171.496,-23.11],[171.62,-23.127]]},"properties":{"name":"NH/AU","plate_boundary":"NH/AU","step_class":"SUB"}},{"type":"Feature","geometry":{"type":"LineString","coordinates":[[171.62,-23.127],[171.703,-23.146]]},"properties":{"name":"NH/AU","plate_boundary":"NH/AU","step_class":"SUB"}},{"type":"Feature","geometry":{"type":"LineString","coordinates":[[171.703,-23.146],[171.854,-23.149]]},"properties":{"name":"NH/AU","plate_boundary":"NH/AU","step_class":"SUB"}},{"type":"Feature","geometry":{"type":"LineString","coordinates":[[171.854,-23.149],[171.95,-23.155]]},"properties":{"name":"NH/AU","plate_boundary":"NH/AU","step_class":"SUB"}},{"type":"Feature","geometry":{"type":"LineString","coordinates":[[171.95,-23.155],[172.06,-23.173]]},"properties":{"name":"NH/AU","plate_boundary":"NH/AU","step_class":"SUB"}},{"type":"Feature","geometry":{"type":"LineString","coordinates":[[172.06,-23.173],[172.197,-23.176]]},"properties":{"name":"NH/AU","plate_boundary":"NH/AU","step_class":"SUB"}},{"type":"Feature","geometry":{"type":"LineString","coordinates":[[172.197,-23.176],[172.278,-23.171]]},"properties":{"name":"NH/AU","plate_boundary":"NH/AU","step_class":"SUB"}},{"type":"Feature","geometry":{"type":"LineString","coordinates":[[172.278,-23.171],[172.361,-23.177]]},"properties":{"name":"NH/AU","plate_boundary":"NH/AU","step_class":"SUB"}},{"type":"Feature","geometry":{"type":"LineString","coordinates":[[172.361,-23.177],[172.439,-23.178]]},"properties":{"name":"NH/AU","plate_boundary":"NH/AU","step_class":"SUB"}},{"type":"Feature","geometry":{"type":"LineString","coordinates":[[166.951,-44.987],[166.71,-45.211]]},"properties":{"name":"PA/AU","plate_boundary":"PA/AU","step_class":"SUB"}},{"type":"Feature","geometry":{"type":"LineString","coordinates":[[166.71,-45.211],[166.537,-45.35]]},"properties":{"name":"PA/AU","plate_boundary":"PA/AU","step_class":"SUB"}},{"type":"Feature","geometry":{"type":"LineString","coordinates":[[166.537,-45.35],[166.377,-45.515]]},"properties":{"name":"PA/AU","plate_boundary":"PA/AU","step_class":"SUB"}},{"type":"Feature","geometry":{"type":"LineString","coordinates":[[166.377,-45.515],[166.205,-45.736]]},"properties":{"name":"PA/AU","plate_boundary":"PA/AU","step_class":"SUB"}},{"type":"Feature","geometry":{"type":"LineString","coordinates":[[166.205,-45.736],[166.019,-45.887]]},"properties":{"name":"PA/AU","plate_boundary":"PA/AU","step_class":"SUB"}},{"type":"Feature","geometry":{"type":"LineString","coordinates":[[166.019,-45.887],[165.92,-45.958]]},"properties":{"name":"PA/AU","plate_boundary":"PA/AU","step_class":"SUB"}},{"type":"Feature","geometry":{"type":"LineString","coordinates":[[165.92,-45.958],[165.733,-46.065]]},"properties":{"name":"PA/AU","plate_boundary":"PA/AU","step_class":"SUB"}},{"type":"Feature","geometry":{"type":"LineString","coordinates":[[165.733,-46.065],[165.427,-46.19]]},"properties":{"name":"PA/AU","plate_boundary":"PA/AU","step_class":"SUB"}},{"type":"Feature","geometry":{"type":"LineString","coordinates":[[165.427,-46.19],[165.168,-46.405]]},"properties":{"name":"PA/AU","plate_boundary":"PA/AU","step_class":"SUB"}},{"type":"Feature","geometry":{"type":"LineString","coordinates":[[165.168,-46.405],[165.021,-46.601]]},"properties":{"name":"PA/AU","plate_boundary":"PA/AU","step_class":"SUB"}},{"type":"Feature","geometry":{"type":"LineString","coordinates":[[165.021,-46.601],[164.943,-46.783]]},"properties":{"name":"PA/AU","plate_boundary":"PA/AU","step_class":"SUB"}},{"type":"Feature","geometry":{"type":"LineString","coordinates":[[164.943,-46.783],[164.923,-47.011]]},"properties":{"name":"PA/AU","plate_boundary":"PA/AU","step_class":"SUB"}},{"type":"Feature","geometry":{"type":"LineString","coordinates":[[164.923,-47.011],[164.838,-47.148]]},"properties":{"name":"PA/AU","plate_boundary":"PA/AU","step_class":"SUB"}},{"type":"Feature","geometry":{"type":"LineString","coordinates":[[164.838,-47.148],[164.739,-47.256]]},"properties":{"name":"PA/AU","plate_boundary":"PA/AU","step_class":"SUB"}},{"type":"Feature","geometry":{"type":"LineString","coordinates":[[164.739,-47.256],[164.699,-47.444]]},"properties":{"name":"PA/AU","plate_boundary":"PA/AU","step_class":"SUB"}},{"type":"Feature","geometry":{"type":"LineString","coordinates":[[164.699,-47.444],[164.651,-47.521]]},"properties":{"name":"PA/AU","plate_boundary":"PA/AU","step_class":"SUB"}},{"type":"Feature","geometry":{"type":"LineString","coordinates":[[164.651,-47.521],[164.528,-47.658]]},"properties":{"name":"PA/AU","plate_boundary":"PA/AU","step_class":"SUB"}},{"type":"Feature","geometry":{"type":"LineString","coordinates":[[164.528,-47.658],[164.48,-47.759]]},"properties":{"name":"PA/AU","plate_boundary":"PA/AU","step_class":"SUB"}},{"type":"Feature","geometry":{"type":"LineString","coordinates":[[164.48,-47.759],[164.483,-47.92]]},"properties":{"name":"PA/AU","plate_boundary":"PA/AU","step_class":"SUB"}},{"type":"Feature","geometry":{"type":"LineString","coordinates":[[164.483,-47.92],[164.398,-48.059]]},"properties":{"name":"PA/AU","plate_boundary":"PA/AU","step_class":"SUB"}},{"type":"Feature","geometry":{"type":"LineString","coordinates":[[164.398,-48.059],[164.389,-48.202]]},"properties":{"name":"PA/AU","plate_boundary":"PA/AU","step_class":"SUB"}},{"type":"Feature","geometry":{"type":"LineString","coordinates":[[164.389,-48.202],[164.309,-48.274]]},"properties":{"name":"PA/AU","plate_boundary":"PA/AU","step_class":"SUB"}},{"type":"Feature","geometry":{"type":"LineString","coordinates":[[164.309,-48.274],[164.287,-48.429]]},"properties":{"name":"PA/AU","plate_boundary":"PA/AU","step_class":"SUB"}},{"type":"Feature","geometry":{"type":"LineString","coordinates":[[164.287,-48.429],[164.215,-48.592]]},"properties":{"name":"PA/AU","plate_boundary":"PA/AU","step_class":"SUB"}},{"type":"Feature","geometry":{"type":"LineString","coordinates":[[164.215,-48.592],[164.13,-48.742]]},"properties":{"name":"PA/AU","plate_boundary":"PA/AU","step_class":"SUB"}},{"type":"Feature","geometry":{"type":"LineString","coordinates":[[164.13,-48.742],[163.964,-48.917]]},"properties":{"name":"PA/AU","plate_boundary":"PA/AU","step_class":"SUB"}},{"type":"Feature","geometry":{"type":"LineString","coordinates":[[163.964,-48.917],[163.868,-49.116]]},"properties":{"name":"PA/AU","plate_boundary":"PA/AU","step_class":"SUB"}},{"type":"Feature","geometry":{"type":"LineString","coordinates":[[163.868,-49.116],[163.74,-49.322]]},"properties":{"name":"PA/AU","plate_boundary":"PA/AU","step_class":"SUB"}},{"type":"Feature","geometry":{"type":"LineString","coordinates":[[163.74,-49.322],[163.545,-49.573]]},"properties":{"name":"PA/AU","plate_boundary":"PA/AU","step_class":"SUB"}},{"type":"Feature","geometry":{"type":"LineString","coordinates":[[163.545,-49.573],[163.448,-49.761]]},"properties":{"name":"PA/AU","plate_boundary":"PA/AU","step_class":"SUB"}},{"type":"Feature","geometry":{"type":"LineString","coordinates":[[163.448,-49.761],[163.412,-49.847]]},"properties":{"name":"PA/AU","plate_boundary":"PA/AU","step_class":"SUB"}},{"type":"Feature","geometry":{"type":"LineString","coordinates":[[163.412,-49.847],[163.296,-49.985]]},"properties":{"name":"PA/AU","plate_boundary":"PA/AU","step_class":"SUB"}}],"metadata":{"source":"PB2002 plate boundaries (Peter Bird, 2003)","layer_id":"indonesia-australia","feature_count":292}}