{"type":"FeatureCollection","features":[{"type":"Feature","geometry":{"type":"LineString","coordinates":[[144.454,40.847],[144.479,40.549]]},"properties":{"name":"PA\\OK","plate_boundary":"PA\\OK","step_class":"SUB"}},{"type":"Feature","geometry":{"type":"LineString","coordinates":[[144.479,40.549],[144.399,40.367]]},"properties":{"name":"PA\\OK","plate_boundary":"PA\\OK","step_class":"SUB"}},{"type":"Feature","geometry":{"type":"LineString","coordinates":[[144.399,40.367],[144.328,40.203]]},"properties":{"name":"PA\\OK","plate_boundary":"PA\\OK","step_class":"SUB"}},{"type":"Feature","geometry":{"type":"LineString","coordinates":[[144.328,40.203],[144.283,40.067]]},"properties":{"name":"PA\\OK","plate_boundary":"PA\\OK","step_class":"SUB"}},{"type":"Feature","geometry":{"type":"LineString","coordinates":[[144.283,40.067],[144.254,39.928]]},"properties":{"name":"PA\\OK","plate_boundary":"PA\\OK","step_class":"SUB"}},{"type":"Feature","geometry":{"type":"LineString","coordinates":[[144.254,39.928],[144.225,39.767]]},"properties":{"name":"PA\\OK","plate_boundary":"PA\\OK","step_class":"SUB"}},{"type":"Feature","geometry":{"type":"LineString","coordinates":[[144.225,39.767],[144.236,39.557]]},"properties":{"name":"PA\\OK","plate_boundary":"PA\\OK","step_class":"SUB"}},{"type":"Feature","geometry":{"type":"LineString","coordinates":[[144.236,39.557],[144.203,39.374]]},"properties":{"name":"PA\\OK","plate_boundary":"PA\\OK","step_class":"SUB"}},{"type":"Feature","geometry":{"type":"LineString","coordinates":[[144.203,39.374],[144.189,39.123]]},"properties":{"name":"PA\\OK","plate_boundary":"PA\\OK","step_class":"SUB"}},{"type":"Feature","geometry":{"type":"LineString","coordinates":[[144.189,39.123],[144.119,38.909]]},"properties":{"name":"PA\\OK","plate_boundary":"PA\\OK","step_class":"SUB"}},{"type":"Feature","geometry":{"type":"LineString","coordinates":[[144.119,38.909],[144.061,38.709]]},"properties":{"name":"PA\\OK","plate_boundary":"PA\\OK","step_class":"SUB"}},{"type":"Feature","geometry":{"type":"LineString","coordinates":[[144.061,38.709],[144.017,38.536]]},"properties":{"name":"PA\\OK","plate_boundary":"PA\\OK","step_class":"SUB"}},{"type":"Feature","geometry":{"type":"LineString","coordinates":[[144.017,38.536],[143.973,38.359]]},"properties":{"name":"PA\\OK","plate_boundary":"PA\\OK","step_class":"SUB"}},{"type":"Feature","geometry":{"type":"LineString","coordinates":[[143.973,38.359],[143.928,38.166]]},"properties":{"name":"PA\\OK","plate_boundary":"PA\\OK","step_class":"SUB"}},{"type":"Feature","geometry":{"type":"LineString","coordinates":[[143.928,38.166],[143.888,37.928]]},"properties":{"name":"PA\\OK","plate_boundary":"PA\\OK","step_class":"SUB"}},{"type":"Feature","geometry":{"type":"LineString","coordinates":[[143.888,37.928],[143.843,37.71]]},"properties":{"name":"PA\\OK","plate_boundary":"PA\\OK","step_class":"SUB"}},{"type":"Feature","geometry":{"type":"LineString","coordinates":[[143.843,37.71],[143.743,37.479]]},"properties":{"name":"PA\\OK","plate_boundary":"PA\\OK","step_class":"SUB"}},{"type":"Feature","geometry":{"type":"LineString","coordinates":[[143.743,37.479],[143.637,37.29]]},"properties":{"name":"PA\\OK","plate_boundary":"PA\\OK","step_class":"SUB"}},{"type":"Feature","geometry":{"type":"LineString","coordinates":[[143.637,37.29],[143.518,37.059]]},"properties":{"name":"PA\\OK","plate_boundary":"PA\\OK","step_class":"SUB"}},{"type":"Feature","geometry":{"type":"LineString","coordinates":[[143.518,37.059],[143.408,36.86]]},"properties":{"name":"PA\\OK","plate_boundary":"PA\\OK","step_class":"SUB"}},{"type":"Feature","geometry":{"type":"LineString","coordinates":[[143.408,36.86],[143.275,36.649]]},"properties":{"name":"PA\\OK","plate_boundary":"PA\\OK","step_class":"SUB"}},{"type":"Feature","geometry":{"type":"LineString","coordinates":[[143.275,36.649],[143.151,36.52]]},"properties":{"name":"PA\\OK","plate_boundary":"PA\\OK","step_class":"SUB"}},{"type":"Feature","geometry":{"type":"LineString","coordinates":[[143.151,36.52],[143.02,36.339]]},"properties":{"name":"PA\\OK","plate_boundary":"PA\\OK","step_class":"SUB"}},{"type":"Feature","geometry":{"type":"LineString","coordinates":[[143.02,36.339],[142.887,36.264]]},"properties":{"name":"PA\\OK","plate_boundary":"PA\\OK","step_class":"SUB"}},{"type":"Feature","geometry":{"type":"LineString","coordinates":[[142.887,36.264],[142.761,36.188]]},"properties":{"name":"PA\\OK","plate_boundary":"PA\\OK","step_class":"SUB"}},{"type":"Feature","geometry":{"type":"LineString","coordinates":[[142.761,36.188],[142.681,36.064]]},"properties":{"name":"PA\\OK","plate_boundary":"PA\\OK","step_class":"SUB"}},{"type":"Feature","geometry":{"type":"LineString","coordinates":[[142.681,36.064],[142.606,36.001]]},"properties":{"name":"PA\\OK","plate_boundary":"PA\\OK","step_class":"SUB"}},{"type":"Feature","geometry":{"type":"LineString","coordinates":[[142.606,36.001],[142.555,35.944]]},"properties":{"name":"PA\\OK","plate_boundary":"PA\\OK","step_class":"SUB"}},{"type":"Feature","geometry":{"type":"LineString","coordinates":[[142.555,35.944],[142.46,35.673]]},"properties":{"name":"PA\\OK","plate_boundary":"PA\\OK","step_class":"SUB"}},{"type":"Feature","geometry":{"type":"LineString","coordinates":[[142.46,35.673],[142.325,35.503]]},"properties":{"name":"PA\\OK","plate_boundary":"PA\\OK","step_class":"SUB"}},{"type":"Feature","geometry":{"type":"LineString","coordinates":[[142.325,35.503],[142.221,35.333]]},"properties":{"name":"PA\\OK","plate_boundary":"PA\\OK","step_class":"SUB"}},{"type":"Feature","geometry":{"type":"LineString","coordinates":[[142.221,35.333],[142.17,35.217]]},"properties":{"name":"PA\\OK","plate_boundary":"PA\\OK","step_class":"SUB"}},{"type":"Feature","geometry":{"type":"LineString","coordinates":[[142.17,35.217],[142.067,35.164]]},"properties":{"name":"PA\\OK","plate_boundary":"PA\\OK","step_class":"SUB"}},{"type":"Feature","geometry":{"type":"LineString","coordinates":[[142.067,35.164],[142.029,34.889]]},"properties":{"name":"PA\\OK","plate_boundary":"PA\\OK","step_class":"SUB"}},{"type":"Feature","geometry":{"type":"LineString","coordinates":[[142.029,34.889],[141.992,34.666]]},"properties":{"name":"PA\\OK","plate_boundary":"PA\\OK","step_class":"SUB"}},{"type":"Feature","geometry":{"type":"LineString","coordinates":[[141.992,34.666],[141.883,34.213]]},"properties":{"name":"PA\\OK","plate_boundary":"PA\\OK","step_class":"SUB"}},{"type":"Feature","geometry":{"type":"LineString","coordinates":[[144.454,40.847],[145.077,41.319]]},"properties":{"name":"OK/PA","plate_boundary":"OK/PA","step_class":"SUB"}},{"type":"Feature","geometry":{"type":"LineString","coordinates":[[145.077,41.319],[145.71,41.788]]},"properties":{"name":"OK/PA","plate_boundary":"OK/PA","step_class":"SUB"}},{"type":"Feature","geometry":{"type":"LineString","coordinates":[[145.71,41.788],[146.198,42.076]]},"properties":{"name":"OK/PA","plate_boundary":"OK/PA","step_class":"SUB"}},{"type":"Feature","geometry":{"type":"LineString","coordinates":[[146.198,42.076],[146.69,42.362]]},"properties":{"name":"OK/PA","plate_boundary":"OK/PA","step_class":"SUB"}},{"type":"Feature","geometry":{"type":"LineString","coordinates":[[146.69,42.362],[147.345,42.685]]},"properties":{"name":"OK/PA","plate_boundary":"OK/PA","step_class":"SUB"}},{"type":"Feature","geometry":{"type":"LineString","coordinates":[[147.345,42.685],[148.34,43.208]]},"properties":{"name":"OK/PA","plate_boundary":"OK/PA","step_class":"SUB"}},{"type":"Feature","geometry":{"type":"LineString","coordinates":[[148.34,43.208],[149.311,43.721]]},"properties":{"name":"OK/PA","plate_boundary":"OK/PA","step_class":"SUB"}},{"type":"Feature","geometry":{"type":"LineString","coordinates":[[149.311,43.721],[150.339,44.187]]},"properties":{"name":"OK/PA","plate_boundary":"OK/PA","step_class":"SUB"}},{"type":"Feature","geometry":{"type":"LineString","coordinates":[[128.462,25.458],[128.978,25.859]]},"properties":{"name":"ON/PS","plate_boundary":"ON/PS","step_class":"SUB"}},{"type":"Feature","geometry":{"type":"LineString","coordinates":[[128.978,25.859],[129.36,26.191]]},"properties":{"name":"ON/PS","plate_boundary":"ON/PS","step_class":"SUB"}},{"type":"Feature","geometry":{"type":"LineString","coordinates":[[129.36,26.191],[129.785,26.671]]},"properties":{"name":"ON/PS","plate_boundary":"ON/PS","step_class":"SUB"}},{"type":"Feature","geometry":{"type":"LineString","coordinates":[[129.785,26.671],[130.211,27.213]]},"properties":{"name":"ON/PS","plate_boundary":"ON/PS","step_class":"SUB"}},{"type":"Feature","geometry":{"type":"LineString","coordinates":[[130.211,27.213],[130.523,27.709]]},"properties":{"name":"ON/PS","plate_boundary":"ON/PS","step_class":"SUB"}},{"type":"Feature","geometry":{"type":"LineString","coordinates":[[130.523,27.709],[130.649,28.136]]},"properties":{"name":"ON/PS","plate_boundary":"ON/PS","step_class":"SUB"}},{"type":"Feature","geometry":{"type":"LineString","coordinates":[[130.649,28.136],[131.097,28.318]]},"properties":{"name":"ON/PS","plate_boundary":"ON/PS","step_class":"SUB"}},{"type":"Feature","geometry":{"type":"LineString","coordinates":[[131.097,28.318],[131.309,28.451]]},"properties":{"name":"ON/PS","plate_boundary":"ON/PS","step_class":"SUB"}},{"type":"Feature","geometry":{"type":"LineString","coordinates":[[131.309,28.451],[131.467,28.751]]},"properties":{"name":"ON/PS","plate_boundary":"ON/PS","step_class":"SUB"}},{"type":"Feature","geometry":{"type":"LineString","coordinates":[[131.467,28.751],[131.524,28.859]]},"properties":{"name":"ON/PS","plate_boundary":"ON/PS","step_class":"SUB"}},{"type":"Feature","geometry":{"type":"LineString","coordinates":[[131.524,28.859],[131.628,28.987]]},"properties":{"name":"ON/PS","plate_boundary":"ON/PS","step_class":"SUB"}},{"type":"Feature","geometry":{"type":"LineString","coordinates":[[131.628,28.987],[131.76,29.392]]},"properties":{"name":"ON/PS","plate_boundary":"ON/PS","step_class":"SUB"}},{"type":"Feature","geometry":{"type":"LineString","coordinates":[[131.76,29.392],[132.073,29.818]]},"properties":{"name":"ON/PS","plate_boundary":"ON/PS","step_class":"SUB"}},{"type":"Feature","geometry":{"type":"LineString","coordinates":[[132.073,29.818],[132.402,30.215]]},"properties":{"name":"ON/PS","plate_boundary":"ON/PS","step_class":"SUB"}},{"type":"Feature","geometry":{"type":"LineString","coordinates":[[132.402,30.215],[132.63,30.493]]},"properties":{"name":"ON/PS","plate_boundary":"ON/PS","step_class":"SUB"}},{"type":"Feature","geometry":{"type":"LineString","coordinates":[[132.63,30.493],[132.824,30.754]]},"properties":{"name":"ON/PS","plate_boundary":"ON/PS","step_class":"SUB"}},{"type":"Feature","geometry":{"type":"LineString","coordinates":[[132.824,30.754],[132.965,30.97]]},"properties":{"name":"AM/PS","plate_boundary":"AM/PS","step_class":"SUB"}},{"type":"Feature","geometry":{"type":"LineString","coordinates":[[132.965,30.97],[133.197,31.216]]},"properties":{"name":"AM/PS","plate_boundary":"AM/PS","step_class":"SUB"}},{"type":"Feature","geometry":{"type":"LineString","coordinates":[[133.197,31.216],[133.5,31.515]]},"properties":{"name":"AM/PS","plate_boundary":"AM/PS","step_class":"SUB"}},{"type":"Feature","geometry":{"type":"LineString","coordinates":[[133.5,31.515],[134.042,31.882]]},"properties":{"name":"AM/PS","plate_boundary":"AM/PS","step_class":"SUB"}},{"type":"Feature","geometry":{"type":"LineString","coordinates":[[134.042,31.882],[134.691,32.2]]},"properties":{"name":"AM/PS","plate_boundary":"AM/PS","step_class":"SUB"}},{"type":"Feature","geometry":{"type":"LineString","coordinates":[[134.691,32.2],[135.026,32.326]]},"properties":{"name":"AM/PS","plate_boundary":"AM/PS","step_class":"SUB"}},{"type":"Feature","geometry":{"type":"LineString","coordinates":[[135.026,32.326],[135.356,32.46]]},"properties":{"name":"AM/PS","plate_boundary":"AM/PS","step_class":"SUB"}},{"type":"Feature","geometry":{"type":"LineString","coordinates":[[135.356,32.46],[135.612,32.537]]},"properties":{"name":"AM/PS","plate_boundary":"AM/PS","step_class":"SUB"}},{"type":"Feature","geometry":{"type":"LineString","coordinates":[[135.612,32.537],[136.025,32.686]]},"properties":{"name":"AM/PS","plate_boundary":"AM/PS","step_class":"SUB"}},{"type":"Feature","geometry":{"type":"LineString","coordinates":[[136.025,32.686],[136.524,32.868]]},"properties":{"name":"AM/PS","plate_boundary":"AM/PS","step_class":"SUB"}},{"type":"Feature","geometry":{"type":"LineString","coordinates":[[136.524,32.868],[137.03,33.053]]},"properties":{"name":"AM/PS","plate_boundary":"AM/PS","step_class":"SUB"}},{"type":"Feature","geometry":{"type":"LineString","coordinates":[[137.03,33.053],[137.546,33.405]]},"properties":{"name":"AM/PS","plate_boundary":"AM/PS","step_class":"SUB"}},{"type":"Feature","geometry":{"type":"LineString","coordinates":[[137.546,33.405],[138.066,33.75]]},"properties":{"name":"AM/PS","plate_boundary":"AM/PS","step_class":"SUB"}},{"type":"Feature","geometry":{"type":"LineString","coordinates":[[138.066,33.75],[138.383,34.059]]},"properties":{"name":"AM/PS","plate_boundary":"AM/PS","step_class":"SUB"}},{"type":"Feature","geometry":{"type":"LineString","coordinates":[[138.383,34.059],[138.508,34.582]]},"properties":{"name":"AM/PS","plate_boundary":"AM/PS","step_class":"SUB"}},{"type":"Feature","geometry":{"type":"LineString","coordinates":[[138.508,34.582],[138.674,35.034]]},"properties":{"name":"AM/PS","plate_boundary":"AM/PS","step_class":"SUB"}},{"type":"Feature","geometry":{"type":"LineString","coordinates":[[147.46,19.745],[147.207,20.303]]},"properties":{"name":"MA/PA","plate_boundary":"MA/PA","step_class":"SUB"}},{"type":"Feature","geometry":{"type":"LineString","coordinates":[[147.207,20.303],[147.019,20.805]]},"properties":{"name":"MA/PA","plate_boundary":"MA/PA","step_class":"SUB"}},{"type":"Feature","geometry":{"type":"LineString","coordinates":[[147.019,20.805],[146.822,21.331]]},"properties":{"name":"MA/PA","plate_boundary":"MA/PA","step_class":"SUB"}},{"type":"Feature","geometry":{"type":"LineString","coordinates":[[146.822,21.331],[146.545,21.73]]},"properties":{"name":"MA/PA","plate_boundary":"MA/PA","step_class":"SUB"}},{"type":"Feature","geometry":{"type":"LineString","coordinates":[[146.545,21.73],[146.062,22.201]]},"properties":{"name":"MA/PA","plate_boundary":"MA/PA","step_class":"SUB"}},{"type":"Feature","geometry":{"type":"LineString","coordinates":[[146.062,22.201],[145.292,22.712]]},"properties":{"name":"MA/PA","plate_boundary":"MA/PA","step_class":"SUB"}},{"type":"Feature","geometry":{"type":"LineString","coordinates":[[145.292,22.712],[144.706,23.25]]},"properties":{"name":"MA/PA","plate_boundary":"MA/PA","step_class":"SUB"}},{"type":"Feature","geometry":{"type":"LineString","coordinates":[[144.706,23.25],[144.022,23.764]]},"properties":{"name":"MA/PA","plate_boundary":"MA/PA","step_class":"SUB"}},{"type":"Feature","geometry":{"type":"LineString","coordinates":[[144.022,23.764],[143.522,24.391]]},"properties":{"name":"MA/PA","plate_boundary":"MA/PA","step_class":"SUB"}},{"type":"Feature","geometry":{"type":"LineString","coordinates":[[143.522,24.391],[143.096,24.909]]},"properties":{"name":"PS/PA","plate_boundary":"PS/PA","step_class":"SUB"}},{"type":"Feature","geometry":{"type":"LineString","coordinates":[[143.096,24.909],[143.098,24.918]]},"properties":{"name":"PS/PA","plate_boundary":"PS/PA","step_class":"SUB"}},{"type":"Feature","geometry":{"type":"LineString","coordinates":[[143.098,24.918],[143.075,25.612]]},"properties":{"name":"PS/PA","plate_boundary":"PS/PA","step_class":"SUB"}},{"type":"Feature","geometry":{"type":"LineString","coordinates":[[143.075,25.612],[143.231,26.329]]},"properties":{"name":"PS/PA","plate_boundary":"PS/PA","step_class":"SUB"}},{"type":"Feature","geometry":{"type":"LineString","coordinates":[[143.231,26.329],[143.26,26.737]]},"properties":{"name":"PS/PA","plate_boundary":"PS/PA","step_class":"SUB"}},{"type":"Feature","geometry":{"type":"LineString","coordinates":[[143.26,26.737],[143.243,27.463]]},"properties":{"name":"PS/PA","plate_boundary":"PS/PA","step_class":"SUB"}},{"type":"Feature","geometry":{"type":"LineString","coordinates":[[143.243,27.463],[143.172,27.941]]},"properties":{"name":"PS/PA","plate_boundary":"PS/PA","step_class":"SUB"}},{"type":"Feature","geometry":{"type":"LineString","coordinates":[[143.172,27.941],[143.002,28.519]]},"properties":{"name":"PS/PA","plate_boundary":"PS/PA","step_class":"SUB"}},{"type":"Feature","geometry":{"type":"LineString","coordinates":[[143.002,28.519],[142.748,28.975]]},"properties":{"name":"PS/PA","plate_boundary":"PS/PA","step_class":"SUB"}},{"type":"Feature","geometry":{"type":"LineString","coordinates":[[142.748,28.975],[142.507,29.621]]},"properties":{"name":"PS/PA","plate_boundary":"PS/PA","step_class":"SUB"}},{"type":"Feature","geometry":{"type":"LineString","coordinates":[[142.507,29.621],[142.473,30.128]]},"properties":{"name":"PS/PA","plate_boundary":"PS/PA","step_class":"SUB"}},{"type":"Feature","geometry":{"type":"LineString","coordinates":[[142.473,30.128],[142.224,30.711]]},"properties":{"name":"PS/PA","plate_boundary":"PS/PA","step_class":"SUB"}},{"type":"Feature","geometry":{"type":"LineString","coordinates":[[142.224,30.711],[142.159,31.315]]},"properties":{"name":"PS/PA","plate_boundary":"PS/PA","step_class":"SUB"}},{"type":"Feature","geometry":{"type":"LineString","coordinates":[[142.159,31.315],[142.099,31.983]]},"properties":{"name":"PS/PA","plate_boundary":"PS/PA","step_class":"SUB"}},{"type":"Feature","geometry":{"type":"LineString","coordinates":[[142.099,31.983],[141.994,32.558]]},"properties":{"name":"PS/PA","plate_boundary":"PS/PA","step_class":"SUB"}},{"type":"Feature","geometry":{"type":"LineString","coordinates":[[141.994,32.558],[142.012,33.252]]},"properties":{"name":"PS/PA","plate_boundary":"PS/PA","step_class":"SUB"}},{"type":"Feature","geometry":{"type":"LineString","coordinates":[[142.012,33.252],[141.858,33.704]]},"properties":{"name":"PS/PA","plate_boundary":"PS/PA","step_class":"SUB"}},{"type":"Feature","geometry":{"type":"LineString","coordinates":[[141.858,33.704],[141.883,34.213]]},"properties":{"name":"PS/PA","plate_boundary":"PS/PA","step_class":"SUB"}},{"type":"Feature","geometry":{"type":"LineString","coordinates":[[125.55,23.38],[125.954,23.498]]},"properties":{"name":"ON/PS","plate_boundary":"ON/PS","step_class":"SUB"}},{"type":"Feature","geometry":{"type":"LineString","coordinates":[[125.954,23.498],[126.426,23.761]]},"properties":{"name":"ON/PS","plate_boundary":"ON/PS","step_class":"SUB"}},{"type":"Feature","geometry":{"type":"LineString","coordinates":[[126.426,23.761],[126.901,24.101]]},"properties":{"name":"ON/PS","plate_boundary":"ON/PS","step_class":"SUB"}},{"type":"Feature","geometry":{"type":"LineString","coordinates":[[126.901,24.101],[127.398,24.503]]},"properties":{"name":"ON/PS","plate_boundary":"ON/PS","step_class":"SUB"}},{"type":"Feature","geometry":{"type":"LineString","coordinates":[[127.398,24.503],[127.907,24.969]]},"properties":{"name":"ON/PS","plate_boundary":"ON/PS","step_class":"SUB"}},{"type":"Feature","geometry":{"type":"LineString","coordinates":[[127.907,24.969],[128.462,25.458]]},"properties":{"name":"ON/PS","plate_boundary":"ON/PS","step_class":"SUB"}}],"metadata":{"source":"PB2002 plate boundaries (Peter Bird, 2003)","layer_id":"japan-marianas","feature_count":109}}