{"type":"FeatureCollection","features":[{"type":"Feature","geometry":{"type":"LineString","coordinates":[[10.373,38.685],[10.609,38.821]]},"properties":{"name":"EU\\AF","plate_boundary":"EU\\AF","step_class":"SUB"}},{"type":"Feature","geometry":{"type":"LineString","coordinates":[[10.609,38.821],[10.827,38.994]]},"properties":{"name":"EU\\AF","plate_boundary":"EU\\AF","step_class":"SUB"}},{"type":"Feature","geometry":{"type":"LineString","coordinates":[[10.827,38.994],[11.118,39.067]]},"properties":{"name":"EU\\AF","plate_boundary":"EU\\AF","step_class":"SUB"}},{"type":"Feature","geometry":{"type":"LineString","coordinates":[[11.118,39.067],[11.363,39.075]]},"properties":{"name":"EU\\AF","plate_boundary":"EU\\AF","step_class":"SUB"}},{"type":"Feature","geometry":{"type":"LineString","coordinates":[[11.363,39.075],[11.659,39.033]]},"properties":{"name":"EU\\AF","plate_boundary":"EU\\AF","step_class":"SUB"}},{"type":"Feature","geometry":{"type":"LineString","coordinates":[[11.659,39.033],[11.778,38.934]]},"properties":{"name":"EU\\AF","plate_boundary":"EU\\AF","step_class":"SUB"}},{"type":"Feature","geometry":{"type":"LineString","coordinates":[[11.778,38.934],[12.057,38.878]]},"properties":{"name":"EU\\AF","plate_boundary":"EU\\AF","step_class":"SUB"}},{"type":"Feature","geometry":{"type":"LineString","coordinates":[[12.057,38.878],[12.434,38.849]]},"properties":{"name":"EU\\AF","plate_boundary":"EU\\AF","step_class":"SUB"}},{"type":"Feature","geometry":{"type":"LineString","coordinates":[[12.434,38.849],[12.708,38.6]]},"properties":{"name":"EU\\AF","plate_boundary":"EU\\AF","step_class":"SUB"}},{"type":"Feature","geometry":{"type":"LineString","coordinates":[[12.708,38.6],[13.314,38.611]]},"properties":{"name":"EU\\AF","plate_boundary":"EU\\AF","step_class":"SUB"}},{"type":"Feature","geometry":{"type":"LineString","coordinates":[[13.314,38.611],[13.811,38.625]]},"properties":{"name":"EU\\AF","plate_boundary":"EU\\AF","step_class":"SUB"}},{"type":"Feature","geometry":{"type":"LineString","coordinates":[[13.811,38.625],[14.114,38.695]]},"properties":{"name":"EU\\AF","plate_boundary":"EU\\AF","step_class":"SUB"}},{"type":"Feature","geometry":{"type":"LineString","coordinates":[[14.114,38.695],[14.514,38.765]]},"properties":{"name":"EU\\AF","plate_boundary":"EU\\AF","step_class":"SUB"}},{"type":"Feature","geometry":{"type":"LineString","coordinates":[[15.375,37.34],[15.832,37.274]]},"properties":{"name":"EU/AF","plate_boundary":"EU/AF","step_class":"SUB"}},{"type":"Feature","geometry":{"type":"LineString","coordinates":[[15.832,37.274],[16.236,37.309]]},"properties":{"name":"EU/AF","plate_boundary":"EU/AF","step_class":"SUB"}},{"type":"Feature","geometry":{"type":"LineString","coordinates":[[16.236,37.309],[16.824,37.398]]},"properties":{"name":"EU/AF","plate_boundary":"EU/AF","step_class":"SUB"}},{"type":"Feature","geometry":{"type":"LineString","coordinates":[[16.824,37.398],[17.168,37.503]]},"properties":{"name":"EU/AF","plate_boundary":"EU/AF","step_class":"SUB"}},{"type":"Feature","geometry":{"type":"LineString","coordinates":[[17.168,37.503],[17.42,37.701]]},"properties":{"name":"EU/AF","plate_boundary":"EU/AF","step_class":"SUB"}},{"type":"Feature","geometry":{"type":"LineString","coordinates":[[17.42,37.701],[17.612,37.993]]},"properties":{"name":"EU/AF","plate_boundary":"EU/AF","step_class":"SUB"}},{"type":"Feature","geometry":{"type":"LineString","coordinates":[[17.612,37.993],[17.773,38.285]]},"properties":{"name":"EU/AF","plate_boundary":"EU/AF","step_class":"SUB"}},{"type":"Feature","geometry":{"type":"LineString","coordinates":[[17.773,38.285],[17.845,38.461]]},"properties":{"name":"EU/AF","plate_boundary":"EU/AF","step_class":"SUB"}},{"type":"Feature","geometry":{"type":"LineString","coordinates":[[17.845,38.461],[18.031,38.516]]},"properties":{"name":"EU/AF","plate_boundary":"EU/AF","step_class":"SUB"}},{"type":"Feature","geometry":{"type":"LineString","coordinates":[[18.031,38.516],[18.086,38.794]]},"properties":{"name":"EU/AF","plate_boundary":"EU/AF","step_class":"SUB"}},{"type":"Feature","geometry":{"type":"LineString","coordinates":[[18.086,38.794],[18.062,39.006]]},"properties":{"name":"EU/AF","plate_boundary":"EU/AF","step_class":"SUB"}},{"type":"Feature","geometry":{"type":"LineString","coordinates":[[20.0,37.908],[20.3,37.804]]},"properties":{"name":"EU/AF","plate_boundary":"EU/AF","step_class":"SUB"}},{"type":"Feature","geometry":{"type":"LineString","coordinates":[[20.3,37.804],[20.76,37.098]]},"properties":{"name":"AS/AF","plate_boundary":"AS/AF","step_class":"SUB"}},{"type":"Feature","geometry":{"type":"LineString","coordinates":[[20.76,37.098],[21.327,36.629]]},"properties":{"name":"AS/AF","plate_boundary":"AS/AF","step_class":"SUB"}},{"type":"Feature","geometry":{"type":"LineString","coordinates":[[21.327,36.629],[21.599,36.216]]},"properties":{"name":"AS/AF","plate_boundary":"AS/AF","step_class":"SUB"}},{"type":"Feature","geometry":{"type":"LineString","coordinates":[[21.599,36.216],[21.893,35.933]]},"properties":{"name":"AS/AF","plate_boundary":"AS/AF","step_class":"SUB"}},{"type":"Feature","geometry":{"type":"LineString","coordinates":[[21.893,35.933],[22.375,35.742]]},"properties":{"name":"AS/AF","plate_boundary":"AS/AF","step_class":"SUB"}},{"type":"Feature","geometry":{"type":"LineString","coordinates":[[22.375,35.742],[22.866,35.437]]},"properties":{"name":"AS/AF","plate_boundary":"AS/AF","step_class":"SUB"}},{"type":"Feature","geometry":{"type":"LineString","coordinates":[[22.866,35.437],[23.399,34.99]]},"properties":{"name":"AS/AF","plate_boundary":"AS/AF","step_class":"SUB"}},{"type":"Feature","geometry":{"type":"LineString","coordinates":[[23.399,34.99],[23.874,34.628]]},"properties":{"name":"AS/AF","plate_boundary":"AS/AF","step_class":"SUB"}},{"type":"Feature","geometry":{"type":"LineString","coordinates":[[23.874,34.628],[24.593,34.34]]},"properties":{"name":"AS/AF","plate_boundary":"AS/AF","step_class":"SUB"}},{"type":"Feature","geometry":{"type":"LineString","coordinates":[[24.593,34.34],[25.577,34.249]]},"properties":{"name":"AS/AF","plate_boundary":"AS/AF","step_class":"SUB"}},{"type":"Feature","geometry":{"type":"LineString","coordinates":[[25.577,34.249],[26.465,34.198]]},"properties":{"name":"AS/AF","plate_boundary":"AS/AF","step_class":"SUB"}},{"type":"Feature","geometry":{"type":"LineString","coordinates":[[26.465,34.198],[27.226,34.335]]},"properties":{"name":"AS/AF","plate_boundary":"AS/AF","step_class":"SUB"}},{"type":"Feature","geometry":{"type":"LineString","coordinates":[[27.226,34.335],[27.684,34.706]]},"properties":{"name":"AS/AF","plate_boundary":"AS/AF","step_class":"SUB"}},{"type":"Feature","geometry":{"type":"LineString","coordinates":[[27.684,34.706],[28.05,34.87]]},"properties":{"name":"AS/AF","plate_boundary":"AS/AF","step_class":"SUB"}},{"type":"Feature","geometry":{"type":"LineString","coordinates":[[28.05,34.87],[28.478,35.127]]},"properties":{"name":"AS/AF","plate_boundary":"AS/AF","step_class":"SUB"}},{"type":"Feature","geometry":{"type":"LineString","coordinates":[[28.478,35.127],[28.779,35.312]]},"properties":{"name":"AS/AF","plate_boundary":"AS/AF","step_class":"SUB"}},{"type":"Feature","geometry":{"type":"LineString","coordinates":[[28.779,35.312],[29.07,35.378]]},"properties":{"name":"AS/AF","plate_boundary":"AS/AF","step_class":"SUB"}},{"type":"Feature","geometry":{"type":"LineString","coordinates":[[29.07,35.378],[29.345,35.425]]},"properties":{"name":"AS/AF","plate_boundary":"AS/AF","step_class":"SUB"}},{"type":"Feature","geometry":{"type":"LineString","coordinates":[[29.345,35.425],[29.731,35.427]]},"properties":{"name":"AS/AF","plate_boundary":"AS/AF","step_class":"SUB"}},{"type":"Feature","geometry":{"type":"LineString","coordinates":[[29.731,35.427],[30.221,35.154]]},"properties":{"name":"AT/AF","plate_boundary":"AT/AF","step_class":"SUB"}},{"type":"Feature","geometry":{"type":"LineString","coordinates":[[30.221,35.154],[30.793,34.991]]},"properties":{"name":"AT/AF","plate_boundary":"AT/AF","step_class":"SUB"}},{"type":"Feature","geometry":{"type":"LineString","coordinates":[[30.793,34.991],[31.256,34.826]]},"properties":{"name":"AT/AF","plate_boundary":"AT/AF","step_class":"SUB"}},{"type":"Feature","geometry":{"type":"LineString","coordinates":[[31.256,34.826],[31.74,34.634]]},"properties":{"name":"AT/AF","plate_boundary":"AT/AF","step_class":"SUB"}},{"type":"Feature","geometry":{"type":"LineString","coordinates":[[31.74,34.634],[32.172,34.487]]},"properties":{"name":"AT/AF","plate_boundary":"AT/AF","step_class":"SUB"}},{"type":"Feature","geometry":{"type":"LineString","coordinates":[[32.172,34.487],[32.668,34.39]]},"properties":{"name":"AT/AF","plate_boundary":"AT/AF","step_class":"SUB"}},{"type":"Feature","geometry":{"type":"LineString","coordinates":[[32.668,34.39],[33.101,34.29]]},"properties":{"name":"AT/AF","plate_boundary":"AT/AF","step_class":"SUB"}},{"type":"Feature","geometry":{"type":"LineString","coordinates":[[33.101,34.29],[33.735,34.302]]},"properties":{"name":"AT/AF","plate_boundary":"AT/AF","step_class":"SUB"}},{"type":"Feature","geometry":{"type":"LineString","coordinates":[[33.735,34.302],[34.054,34.505]]},"properties":{"name":"AT/AF","plate_boundary":"AT/AF","step_class":"SUB"}},{"type":"Feature","geometry":{"type":"LineString","coordinates":[[34.054,34.505],[34.5,34.785]]},"properties":{"name":"AT/AF","plate_boundary":"AT/AF","step_class":"SUB"}}],"metadata":{"source":"PB2002 plate boundaries (Peter Bird, 2003)","layer_id":"mediterranean","feature_count":54}}