{"type":"FeatureCollection","features":[{"type":"Feature","geometry":{"type":"LineString","coordinates":[[120.452,21.632],[120.344,21.202]]},"properties":{"name":"PS/SU","plate_boundary":"PS/SU","step_class":"SUB"}},{"type":"Feature","geometry":{"type":"LineString","coordinates":[[120.344,21.202],[120.29,20.631]]},"properties":{"name":"PS/SU","plate_boundary":"PS/SU","step_class":"SUB"}},{"type":"Feature","geometry":{"type":"LineString","coordinates":[[120.29,20.631],[120.502,20.255]]},"properties":{"name":"PS/SU","plate_boundary":"PS/SU","step_class":"SUB"}},{"type":"Feature","geometry":{"type":"LineString","coordinates":[[120.502,20.255],[120.441,19.937]]},"properties":{"name":"PS/SU","plate_boundary":"PS/SU","step_class":"SUB"}},{"type":"Feature","geometry":{"type":"LineString","coordinates":[[120.441,19.937],[120.115,19.487]]},"properties":{"name":"PS/SU","plate_boundary":"PS/SU","step_class":"SUB"}},{"type":"Feature","geometry":{"type":"LineString","coordinates":[[120.115,19.487],[119.795,18.878]]},"properties":{"name":"PS/SU","plate_boundary":"PS/SU","step_class":"SUB"}},{"type":"Feature","geometry":{"type":"LineString","coordinates":[[119.795,18.878],[119.279,18.201]]},"properties":{"name":"PS/SU","plate_boundary":"PS/SU","step_class":"SUB"}},{"type":"Feature","geometry":{"type":"LineString","coordinates":[[119.279,18.201],[119.161,17.629]]},"properties":{"name":"PS/SU","plate_boundary":"PS/SU","step_class":"SUB"}},{"type":"Feature","geometry":{"type":"LineString","coordinates":[[119.161,17.629],[119.248,16.84]]},"properties":{"name":"PS/SU","plate_boundary":"PS/SU","step_class":"SUB"}},{"type":"Feature","geometry":{"type":"LineString","coordinates":[[119.248,16.84],[119.255,16.556]]},"properties":{"name":"PS/SU","plate_boundary":"PS/SU","step_class":"SUB"}},{"type":"Feature","geometry":{"type":"LineString","coordinates":[[124.891,14.704],[125.15,14.132]]},"properties":{"name":"PS\\SU","plate_boundary":"PS\\SU","step_class":"SUB"}},{"type":"Feature","geometry":{"type":"LineString","coordinates":[[125.15,14.132],[125.494,13.306]]},"properties":{"name":"PS\\SU","plate_boundary":"PS\\SU","step_class":"SUB"}},{"type":"Feature","geometry":{"type":"LineString","coordinates":[[125.494,13.306],[125.686,12.818]]},"properties":{"name":"PS\\SU","plate_boundary":"PS\\SU","step_class":"SUB"}},{"type":"Feature","geometry":{"type":"LineString","coordinates":[[125.686,12.818],[126.137,12.265]]},"properties":{"name":"PS\\SU","plate_boundary":"PS\\SU","step_class":"SUB"}},{"type":"Feature","geometry":{"type":"LineString","coordinates":[[126.137,12.265],[126.24,11.63]]},"properties":{"name":"PS\\SU","plate_boundary":"PS\\SU","step_class":"SUB"}},{"type":"Feature","geometry":{"type":"LineString","coordinates":[[126.24,11.63],[126.214,11.06]]},"properties":{"name":"PS\\SU","plate_boundary":"PS\\SU","step_class":"SUB"}},{"type":"Feature","geometry":{"type":"LineString","coordinates":[[126.214,11.06],[126.573,10.296]]},"properties":{"name":"PS\\SU","plate_boundary":"PS\\SU","step_class":"SUB"}},{"type":"Feature","geometry":{"type":"LineString","coordinates":[[126.573,10.296],[126.824,9.449]]},"properties":{"name":"PS\\SU","plate_boundary":"PS\\SU","step_class":"SUB"}},{"type":"Feature","geometry":{"type":"LineString","coordinates":[[126.824,9.449],[127.053,8.75]]},"properties":{"name":"PS\\SU","plate_boundary":"PS\\SU","step_class":"SUB"}},{"type":"Feature","geometry":{"type":"LineString","coordinates":[[127.053,8.75],[127.219,8.136]]},"properties":{"name":"PS\\SU","plate_boundary":"PS\\SU","step_class":"SUB"}},{"type":"Feature","geometry":{"type":"LineString","coordinates":[[127.219,8.136],[127.234,7.292]]},"properties":{"name":"PS\\SU","plate_boundary":"PS\\SU","step_class":"SUB"}},{"type":"Feature","geometry":{"type":"LineString","coordinates":[[127.234,7.292],[127.25,6.447]]},"properties":{"name":"PS\\SU","plate_boundary":"PS\\SU","step_class":"SUB"}},{"type":"Feature","geometry":{"type":"LineString","coordinates":[[127.25,6.447],[127.459,5.897]]},"properties":{"name":"PS\\SU","plate_boundary":"PS\\SU","step_class":"SUB"}},{"type":"Feature","geometry":{"type":"LineString","coordinates":[[127.459,5.897],[127.498,5.474]]},"properties":{"name":"PS\\SU","plate_boundary":"PS\\SU","step_class":"SUB"}},{"type":"Feature","geometry":{"type":"LineString","coordinates":[[127.498,5.474],[127.836,5.224]]},"properties":{"name":"PS\\SU","plate_boundary":"PS\\SU","step_class":"SUB"}},{"type":"Feature","geometry":{"type":"LineString","coordinates":[[127.836,5.224],[128.151,4.763]]},"properties":{"name":"PS\\SU","plate_boundary":"PS\\SU","step_class":"SUB"}},{"type":"Feature","geometry":{"type":"LineString","coordinates":[[128.151,4.763],[128.387,4.335]]},"properties":{"name":"PS\\SU","plate_boundary":"PS\\SU","step_class":"SUB"}},{"type":"Feature","geometry":{"type":"LineString","coordinates":[[128.387,4.335],[128.684,3.7]]},"properties":{"name":"PS\\SU","plate_boundary":"PS\\SU","step_class":"SUB"}}],"metadata":{"source":"PB2002 plate boundaries (Peter Bird, 2003)","layer_id":"philippines","feature_count":28}}