{"type":"FeatureCollection","features":[{"type":"Feature","geometry":{"type":"LineString","coordinates":[[104.576,-8.167],[104.981,-8.569]]},"properties":{"name":"SU/AU","plate_boundary":"SU/AU","step_class":"SUB"}},{"type":"Feature","geometry":{"type":"LineString","coordinates":[[104.981,-8.569],[105.59,-8.926]]},"properties":{"name":"SU/AU","plate_boundary":"SU/AU","step_class":"SUB"}},{"type":"Feature","geometry":{"type":"LineString","coordinates":[[105.59,-8.926],[106.123,-9.24]]},"properties":{"name":"SU/AU","plate_boundary":"SU/AU","step_class":"SUB"}},{"type":"Feature","geometry":{"type":"LineString","coordinates":[[106.123,-9.24],[106.345,-9.371]]},"properties":{"name":"SU/AU","plate_boundary":"SU/AU","step_class":"SUB"}},{"type":"Feature","geometry":{"type":"LineString","coordinates":[[106.345,-9.371],[106.827,-9.665]]},"properties":{"name":"SU/AU","plate_boundary":"SU/AU","step_class":"SUB"}},{"type":"Feature","geometry":{"type":"LineString","coordinates":[[106.827,-9.665],[107.379,-9.89]]},"properties":{"name":"SU/AU","plate_boundary":"SU/AU","step_class":"SUB"}},{"type":"Feature","geometry":{"type":"LineString","coordinates":[[107.379,-9.89],[107.836,-10.053]]},"properties":{"name":"SU/AU","plate_boundary":"SU/AU","step_class":"SUB"}},{"type":"Feature","geometry":{"type":"LineString","coordinates":[[107.836,-10.053],[108.363,-10.178]]},"properties":{"name":"SU/AU","plate_boundary":"SU/AU","step_class":"SUB"}},{"type":"Feature","geometry":{"type":"LineString","coordinates":[[108.363,-10.178],[109.067,-10.328]]},"properties":{"name":"SU/AU","plate_boundary":"SU/AU","step_class":"SUB"}},{"type":"Feature","geometry":{"type":"LineString","coordinates":[[109.067,-10.328],[109.626,-10.371]]},"properties":{"name":"SU/AU","plate_boundary":"SU/AU","step_class":"SUB"}},{"type":"Feature","geometry":{"type":"LineString","coordinates":[[109.626,-10.371],[110.159,-10.44]]},"properties":{"name":"SU/AU","plate_boundary":"SU/AU","step_class":"SUB"}},{"type":"Feature","geometry":{"type":"LineString","coordinates":[[110.159,-10.44],[110.615,-10.477]]},"properties":{"name":"SU/AU","plate_boundary":"SU/AU","step_class":"SUB"}},{"type":"Feature","geometry":{"type":"LineString","coordinates":[[110.615,-10.477],[111.015,-10.477]]},"properties":{"name":"SU/AU","plate_boundary":"SU/AU","step_class":"SUB"}},{"type":"Feature","geometry":{"type":"LineString","coordinates":[[111.015,-10.477],[111.523,-10.577]]},"properties":{"name":"SU/AU","plate_boundary":"SU/AU","step_class":"SUB"}},{"type":"Feature","geometry":{"type":"LineString","coordinates":[[111.523,-10.577],[112.17,-10.652]]},"properties":{"name":"SU/AU","plate_boundary":"SU/AU","step_class":"SUB"}},{"type":"Feature","geometry":{"type":"LineString","coordinates":[[112.17,-10.652],[112.563,-10.758]]},"properties":{"name":"SU/AU","plate_boundary":"SU/AU","step_class":"SUB"}},{"type":"Feature","geometry":{"type":"LineString","coordinates":[[112.563,-10.758],[113.204,-10.87]]},"properties":{"name":"SU/AU","plate_boundary":"SU/AU","step_class":"SUB"}},{"type":"Feature","geometry":{"type":"LineString","coordinates":[[113.204,-10.87],[113.756,-10.964]]},"properties":{"name":"SU/AU","plate_boundary":"SU/AU","step_class":"SUB"}},{"type":"Feature","geometry":{"type":"LineString","coordinates":[[113.756,-10.964],[114.41,-11.088]]},"properties":{"name":"SU/AU","plate_boundary":"SU/AU","step_class":"SUB"}},{"type":"Feature","geometry":{"type":"LineString","coordinates":[[114.41,-11.088],[115.013,-11.151]]},"properties":{"name":"SU/AU","plate_boundary":"SU/AU","step_class":"SUB"}},{"type":"Feature","geometry":{"type":"LineString","coordinates":[[115.013,-11.151],[115.571,-11.219]]},"properties":{"name":"SU/AU","plate_boundary":"SU/AU","step_class":"SUB"}},{"type":"Feature","geometry":{"type":"LineString","coordinates":[[115.571,-11.219],[116.174,-11.275]]},"properties":{"name":"SU/AU","plate_boundary":"SU/AU","step_class":"SUB"}},{"type":"Feature","geometry":{"type":"LineString","coordinates":[[94.979,2.104],[95.542,1.882]]},"properties":{"name":"BU/AU","plate_boundary":"BU/AU","step_class":"SUB"}},{"type":"Feature","geometry":{"type":"LineString","coordinates":[[95.542,1.882],[96.089,1.487]]},"properties":{"name":"BU/AU","plate_boundary":"BU/AU","step_class":"SUB"}},{"type":"Feature","geometry":{"type":"LineString","coordinates":[[96.089,1.487],[96.202,1.345]]},"properties":{"name":"BU/AU","plate_boundary":"BU/AU","step_class":"SUB"}},{"type":"Feature","geometry":{"type":"LineString","coordinates":[[96.202,1.345],[96.38,1.123]]},"properties":{"name":"SU/AU","plate_boundary":"SU/AU","step_class":"SUB"}},{"type":"Feature","geometry":{"type":"LineString","coordinates":[[96.38,1.123],[96.67,0.759]]},"properties":{"name":"SU/AU","plate_boundary":"SU/AU","step_class":"SUB"}},{"type":"Feature","geometry":{"type":"LineString","coordinates":[[96.67,0.759],[97.011,0.116]]},"properties":{"name":"SU/AU","plate_boundary":"SU/AU","step_class":"SUB"}},{"type":"Feature","geometry":{"type":"LineString","coordinates":[[97.011,0.116],[97.372,-0.547]]},"properties":{"name":"SU/AU","plate_boundary":"SU/AU","step_class":"SUB"}},{"type":"Feature","geometry":{"type":"LineString","coordinates":[[97.372,-0.547],[97.77,-1.247]]},"properties":{"name":"SU/AU","plate_boundary":"SU/AU","step_class":"SUB"}},{"type":"Feature","geometry":{"type":"LineString","coordinates":[[97.77,-1.247],[98.035,-1.634]]},"properties":{"name":"SU/AU","plate_boundary":"SU/AU","step_class":"SUB"}},{"type":"Feature","geometry":{"type":"LineString","coordinates":[[98.035,-1.634],[98.301,-2.021]]},"properties":{"name":"SU/AU","plate_boundary":"SU/AU","step_class":"SUB"}},{"type":"Feature","geometry":{"type":"LineString","coordinates":[[98.301,-2.021],[98.874,-2.665]]},"properties":{"name":"SU/AU","plate_boundary":"SU/AU","step_class":"SUB"}},{"type":"Feature","geometry":{"type":"LineString","coordinates":[[98.874,-2.665],[99.37,-3.312]]},"properties":{"name":"SU/AU","plate_boundary":"SU/AU","step_class":"SUB"}},{"type":"Feature","geometry":{"type":"LineString","coordinates":[[99.37,-3.312],[99.675,-3.729]]},"properties":{"name":"SU/AU","plate_boundary":"SU/AU","step_class":"SUB"}},{"type":"Feature","geometry":{"type":"LineString","coordinates":[[99.675,-3.729],[99.98,-4.145]]},"properties":{"name":"SU/AU","plate_boundary":"SU/AU","step_class":"SUB"}},{"type":"Feature","geometry":{"type":"LineString","coordinates":[[99.98,-4.145],[100.359,-4.656]]},"properties":{"name":"SU/AU","plate_boundary":"SU/AU","step_class":"SUB"}},{"type":"Feature","geometry":{"type":"LineString","coordinates":[[100.359,-4.656],[100.791,-5.305]]},"properties":{"name":"SU/AU","plate_boundary":"SU/AU","step_class":"SUB"}},{"type":"Feature","geometry":{"type":"LineString","coordinates":[[100.791,-5.305],[101.346,-5.983]]},"properties":{"name":"SU/AU","plate_boundary":"SU/AU","step_class":"SUB"}},{"type":"Feature","geometry":{"type":"LineString","coordinates":[[101.346,-5.983],[101.858,-6.558]]},"properties":{"name":"SU/AU","plate_boundary":"SU/AU","step_class":"SUB"}},{"type":"Feature","geometry":{"type":"LineString","coordinates":[[101.858,-6.558],[102.452,-7.197]]},"properties":{"name":"SU/AU","plate_boundary":"SU/AU","step_class":"SUB"}},{"type":"Feature","geometry":{"type":"LineString","coordinates":[[102.452,-7.197],[103.183,-7.621]]},"properties":{"name":"SU/AU","plate_boundary":"SU/AU","step_class":"SUB"}},{"type":"Feature","geometry":{"type":"LineString","coordinates":[[103.183,-7.621],[103.763,-7.863]]},"properties":{"name":"SU/AU","plate_boundary":"SU/AU","step_class":"SUB"}},{"type":"Feature","geometry":{"type":"LineString","coordinates":[[103.763,-7.863],[104.576,-8.167]]},"properties":{"name":"SU/AU","plate_boundary":"SU/AU","step_class":"SUB"}}],"metadata":{"source":"PB2002 plate boundaries (Peter Bird, 2003)","layer_id":"southeast-asia","feature_count":44}}